{
"type": "FeatureCollection",
"name": "facilities",
"crs": { "type": "name", "properties": { "name": "urn:ogc:def:crs:OGC:1.3:CRS84" } },
"features": [
{ "type": "Feature", "properties": { "name": "Belkuchi Upazila Health Complex", "type": "clinic" }, "geometry": { "type": "Point", "coordinates": [ 89.6950129, 24.3003839 ] } },
{ "type": "Feature", "properties": { "name": "Sirajganj General Hospital", "type": "clinic" }, "geometry": { "type": "Point", "coordinates": [ 89.7110436, 24.4586368 ] } },
{ "type": "Feature", "properties": { "name": "", "type": "school" }, "geometry": { "type": "Point", "coordinates": [ 89.5688893, 24.2883062 ] } },
{ "type": "Feature", "properties": { "name": "", "type": "clinic" }, "geometry": { "type": "Point", "coordinates": [ 89.7096693, 24.4537651 ] } },
{ "type": "Feature", "properties": { "name": "Adachaki Moddho Para Primary School", "type": "school" }, "geometry": { "type": "Point", "coordinates": [ 89.6728848, 24.3218649 ] } },
{ "type": "Feature", "properties": { "name": "Adachaki Community Hospital", "type": "clinic" }, "geometry": { "type": "Point", "coordinates": [ 89.6721271, 24.3193097 ] } },
{ "type": "Feature", "properties": { "name": "Adachaki Dokkhin Para Primary School", "type": "school" }, "geometry": { "type": "Point", "coordinates": [ 89.6694655, 24.3190319 ] } },
{ "type": "Feature", "properties": { "name": "Children Development School", "type": "school" }, "geometry": { "type": "Point", "coordinates": [ 89.674582, 24.3233126 ] } },
{ "type": "Feature", "properties": { "name": "Alhaj Siddique High School", "type": "school" }, "geometry": { "type": "Point", "coordinates": [ 89.6966313, 24.2996028 ] } },
{ "type": "Feature", "properties": { "name": "Tamai high school", "type": "school" }, "geometry": { "type": "Point", "coordinates": [ 89.6863385, 24.3295516 ] } },
{ "type": "Feature", "properties": { "name": "Tamai Primary school", "type": "school" }, "geometry": { "type": "Point", "coordinates": [ 89.6855841, 24.3287076 ] } },
{ "type": "Feature", "properties": { "name": "Tamai Girls high school", "type": "school" }, "geometry": { "type": "Point", "coordinates": [ 89.6891535, 24.32767 ] } },
{ "type": "Feature", "properties": { "name": "Tamai Aminia HafiziaForkania Madrasha", "type": "school" }, "geometry": { "type": "Point", "coordinates": [ 89.6900155, 24.3265398 ] } },
{ "type": "Feature", "properties": { "name": "", "type": "clinic" }, "geometry": { "type": "Point", "coordinates": [ 89.5974757, 24.1760415 ] } },
{ "type": "Feature", "properties": { "name": "", "type": "clinic" }, "geometry": { "type": "Point", "coordinates": [ 89.7034322, 24.2267292 ] } },
{ "type": "Feature", "properties": { "name": "Nukali Government Primary School", "type": "school" }, "geometry": { "type": "Point", "coordinates": [ 89.5861501, 24.1462332 ] } },
{ "type": "Feature", "properties": { "name": "বারুহাস সর. প্রাথঃ বিদ্যালয়", "type": "school" }, "geometry": { "type": "Point", "coordinates": [ 89.287514, 24.467966 ] } },
{ "type": "Feature", "properties": { "name": "বারুহাস,কমিউনিটি হাসপাতাল", "type": "clinic" }, "geometry": { "type": "Point", "coordinates": [ 89.2880816, 24.4698225 ] } },
{ "type": "Feature", "properties": { "name": "Daulotpur High School", "type": "school" }, "geometry": { "type": "Point", "coordinates": [ 89.6312928, 24.3205581 ] } },
{ "type": "Feature", "properties": { "name": "", "type": "clinic" }, "geometry": { "type": "Point", "coordinates": [ 89.7501469, 24.3714454 ] } },
{ "type": "Feature", "properties": { "name": "বারুহাস হাই স্কুল", "type": "school" }, "geometry": { "type": "Point", "coordinates": [ 89.2892178, 24.4701943 ] } },
{ "type": "Feature", "properties": { "name": "", "type": "clinic" }, "geometry": { "type": "Point", "coordinates": [ 89.7079551, 24.4566265 ] } },
{ "type": "Feature", "properties": { "name": "Vocational Training Institute, Sirajgonj", "type": "school" }, "geometry": { "type": "Point", "coordinates": [ 89.7137675, 24.4665767 ] } },
{ "type": "Feature", "properties": { "name": "Bor Dhul Adarsha High School", "type": "school" }, "geometry": { "type": "Point", "coordinates": [ 89.6445592, 24.392518 ] } },
{ "type": "Feature", "properties": { "name": "Islampur Chakrouhaly Government Primary School", "type": "school" }, "geometry": { "type": "Point", "coordinates": [ 89.3703216, 24.3725157 ] } },
{ "type": "Feature", "properties": { "name": "Charhamkuria General Hospital, Hospital", "type": "clinic" }, "geometry": { "type": "Point", "coordinates": [ 89.325152, 24.3540554 ] } },
{ "type": "Feature", "properties": { "name": "Khalkula primary school, School", "type": "school" }, "geometry": { "type": "Point", "coordinates": [ 89.4144176, 24.3779644 ] } },
{ "type": "Feature", "properties": { "name": "Naluakandi Government Primary School, School", "type": "school" }, "geometry": { "type": "Point", "coordinates": [ 89.3818666, 24.3779834 ] } },
{ "type": "Feature", "properties": { "name": "Cholonbil model academy, School", "type": "school" }, "geometry": { "type": "Point", "coordinates": [ 89.3826203, 24.3759369 ] } },
{ "type": "Feature", "properties": { "name": "Naimuri Ruapara Qawmia Hafiziya Madrasa, School", "type": "school" }, "geometry": { "type": "Point", "coordinates": [ 89.481709, 24.3968173 ] } },
{ "type": "Feature", "properties": { "name": "Saeeda Moti Madrasa, Primary school", "type": "school" }, "geometry": { "type": "Point", "coordinates": [ 89.4836416, 24.3955642 ] } },
{ "type": "Feature", "properties": { "name": "Unukhan Pagla Peer High School, School", "type": "school" }, "geometry": { "type": "Point", "coordinates": [ 89.436926, 24.3936108 ] } },
{ "type": "Feature", "properties": { "name": "Gonja Government Primary School, Elementary school", "type": "school" }, "geometry": { "type": "Point", "coordinates": [ 89.5106565, 24.4080818 ] } },
{ "type": "Feature", "properties": { "name": "Arif Morium Hospital, Hospital", "type": "clinic" }, "geometry": { "type": "Point", "coordinates": [ 89.5403412, 24.4162475 ] } },
{ "type": "Feature", "properties": { "name": "Dakshin Pustigacha Banani Girls High school", "type": "school" }, "geometry": { "type": "Point", "coordinates": [ 89.4477174, 24.389408 ] } },
{ "type": "Feature", "properties": { "name": "Alhaz Ahmmad Ali Dakhil Madrasah, Religious school", "type": "school" }, "geometry": { "type": "Point", "coordinates": [ 89.4335426, 24.3824958 ] } },
{ "type": "Feature", "properties": { "name": "Halim Medical Hall, Pharmacy", "type": "clinic" }, "geometry": { "type": "Point", "coordinates": [ 89.488326, 24.3993407 ] } },
{ "type": "Feature", "properties": { "name": "Sattikari Puranbera Government Primary School, Primary school", "type": "school" }, "geometry": { "type": "Point", "coordinates": [ 89.5001697, 24.4019078 ] } },
{ "type": "Feature", "properties": { "name": "Sakhawat Memorial Hospital, Hospital", "type": "clinic" }, "geometry": { "type": "Point", "coordinates": [ 89.5628796, 24.4208039 ] } },
{ "type": "Feature", "properties": { "name": "Bangladesh General Hospital, Hospital", "type": "clinic" }, "geometry": { "type": "Point", "coordinates": [ 89.5521943, 24.4195938 ] } },
{ "type": "Feature", "properties": { "name": "Panchlia Badrul Alam High School, School", "type": "school" }, "geometry": { "type": "Point", "coordinates": [ 89.5731261, 24.4218861 ] } },
{ "type": "Feature", "properties": { "name": "Health Care Hospital, Hospital", "type": "clinic" }, "geometry": { "type": "Point", "coordinates": [ 89.550252, 24.4183245 ] } },
{ "type": "Feature", "properties": { "name": "Alokdia Government Primary School, Primary school", "type": "school" }, "geometry": { "type": "Point", "coordinates": [ 89.5848716, 24.4213226 ] } },
{ "type": "Feature", "properties": { "name": "Panchlia Govt. Primary School, Primary school", "type": "school" }, "geometry": { "type": "Point", "coordinates": [ 89.5725233, 24.4222816 ] } },
{ "type": "Feature", "properties": { "name": "Sulekha Multimedia School, School", "type": "school" }, "geometry": { "type": "Point", "coordinates": [ 89.5528154, 24.4190496 ] } },
{ "type": "Feature", "properties": { "name": "Zainab Medical Hall, Pharmacy", "type": "clinic" }, "geometry": { "type": "Point", "coordinates": [ 89.3824213, 24.3739957 ] } },
{ "type": "Feature", "properties": { "name": "Nalka Model High Schoolm School", "type": "school" }, "geometry": { "type": "Point", "coordinates": [ 89.5985316, 24.4242796 ] } },
{ "type": "Feature", "properties": { "name": "Chairgati Bhadraghat Government Primary School", "type": "school" }, "geometry": { "type": "Point", "coordinates": [ 89.6085617, 24.4228664 ] } },
{ "type": "Feature", "properties": { "name": "Konabari High School, High school", "type": "school" }, "geometry": { "type": "Point", "coordinates": [ 89.6471686, 24.4046573 ] } },
{ "type": "Feature", "properties": { "name": "Rizia Moksed Govt. Primary School", "type": "school" }, "geometry": { "type": "Point", "coordinates": [ 89.6526183, 24.4038833 ] } },
{ "type": "Feature", "properties": { "name": "Modhya Bhadraghat Islamia Dhakil Madrasah, School", "type": "school" }, "geometry": { "type": "Point", "coordinates": [ 89.6191484, 24.4180029 ] } },
{ "type": "Feature", "properties": { "name": "Fulkoli Kinder Garten Academy, School", "type": "school" }, "geometry": { "type": "Point", "coordinates": [ 89.653184, 24.4151773 ] } },
{ "type": "Feature", "properties": { "name": "Choirghalti Bhadraghat High School, School", "type": "school" }, "geometry": { "type": "Point", "coordinates": [ 89.6089756, 24.4202161 ] } },
{ "type": "Feature", "properties": { "name": "Abdul Jalil Smriti High School", "type": "school" }, "geometry": { "type": "Point", "coordinates": [ 89.6625325, 24.4048482 ] } },
{ "type": "Feature", "properties": { "name": "Jhawoil Union Porishod Hospital, Hospital", "type": "clinic" }, "geometry": { "type": "Point", "coordinates": [ 89.6754427, 24.4029901 ] } },
{ "type": "Feature", "properties": { "name": "Shishu Kanan Pre-Cadet And High School, Preschool", "type": "school" }, "geometry": { "type": "Point", "coordinates": [ 89.698399, 24.4069815 ] } },
{ "type": "Feature", "properties": { "name": "Kodda Government Primary School, School", "type": "school" }, "geometry": { "type": "Point", "coordinates": [ 89.6906177, 24.3989607 ] } },
{ "type": "Feature", "properties": { "name": "Esquire Hospital, Hospital", "type": "clinic" }, "geometry": { "type": "Point", "coordinates": [ 89.6930204, 24.3952127 ] } },
{ "type": "Feature", "properties": { "name": "Jarila Government Primary School", "type": "school" }, "geometry": { "type": "Point", "coordinates": [ 89.6916747, 24.3791334 ] } },
{ "type": "Feature", "properties": { "name": "Mulibari Government Primary School", "type": "school" }, "geometry": { "type": "Point", "coordinates": [ 89.7048663, 24.396776 ] } },
{ "type": "Feature", "properties": { "name": "Porabari Dakhil Madrasha, School", "type": "school" }, "geometry": { "type": "Point", "coordinates": [ 89.6893156, 24.3831103 ] } },
{ "type": "Feature", "properties": { "name": "Kachi Kanan Pre-Cadet and High School, School", "type": "school" }, "geometry": { "type": "Point", "coordinates": [ 89.6915513, 24.3940298 ] } },
{ "type": "Feature", "properties": { "name": "Sayed gunty Primary Gov.school, School", "type": "school" }, "geometry": { "type": "Point", "coordinates": [ 89.6056046, 24.4181099 ] } },
{ "type": "Feature", "properties": { "name": "Porabari High School, High school", "type": "school" }, "geometry": { "type": "Point", "coordinates": [ 89.6953726, 24.390676 ] } },
{ "type": "Feature", "properties": { "name": "Jhati Belai Sadek Ali High School, School", "type": "school" }, "geometry": { "type": "Point", "coordinates": [ 89.59667, 24.4121228 ] } },
{ "type": "Feature", "properties": { "name": "Chowk Shahbaz Pur Government Primary School, School", "type": "school" }, "geometry": { "type": "Point", "coordinates": [ 89.6700433, 24.3903385 ] } },
{ "type": "Feature", "properties": { "name": "JVCS Fly Over High School, High School", "type": "school" }, "geometry": { "type": "Point", "coordinates": [ 89.6743767, 24.3943608 ] } },
{ "type": "Feature", "properties": { "name": "Shishu Kanan Model School and College, High school", "type": "school" }, "geometry": { "type": "Point", "coordinates": [ 89.6705662, 24.3950449 ] } },
{ "type": "Feature", "properties": { "name": "Shishumela Vidyaniketan, School", "type": "school" }, "geometry": { "type": "Point", "coordinates": [ 89.6892507, 24.3933894 ] } },
{ "type": "Feature", "properties": { "name": "Dattakusha Govt Primary School, Primary school", "type": "school" }, "geometry": { "type": "Point", "coordinates": [ 89.5404049, 24.4391772 ] } },
{ "type": "Feature", "properties": { "name": "Roghunathpur Govt Primary School, School", "type": "school" }, "geometry": { "type": "Point", "coordinates": [ 89.5051123, 24.485776 ] } },
{ "type": "Feature", "properties": { "name": "Germany Homio Center, Hospital", "type": "clinic" }, "geometry": { "type": "Point", "coordinates": [ 89.549044, 24.4292893 ] } },
{ "type": "Feature", "properties": { "name": "Maa general hospital, Hospital", "type": "clinic" }, "geometry": { "type": "Point", "coordinates": [ 89.547151, 24.4299355 ] } },
{ "type": "Feature", "properties": { "name": "Dadpur Shahebganj BL High School, School", "type": "school" }, "geometry": { "type": "Point", "coordinates": [ 89.5447796, 24.4508365 ] } },
{ "type": "Feature", "properties": { "name": "Ghurka Adarsha High School, High school", "type": "school" }, "geometry": { "type": "Point", "coordinates": [ 89.5334046, 24.4631042 ] } },
{ "type": "Feature", "properties": { "name": "Sayadabad High School, School", "type": "school" }, "geometry": { "type": "Point", "coordinates": [ 89.7140416, 24.388949 ] } },
{ "type": "Feature", "properties": { "name": "Ummul muminin madrasha, School", "type": "school" }, "geometry": { "type": "Point", "coordinates": [ 89.507628, 24.4942791 ] } },
{ "type": "Feature", "properties": { "name": "Bhuiyagati Government Primary School", "type": "school" }, "geometry": { "type": "Point", "coordinates": [ 89.5099689, 24.4971944 ] } },
{ "type": "Feature", "properties": { "name": "Kumajpur Govt Primary School, School", "type": "school" }, "geometry": { "type": "Point", "coordinates": [ 89.5503546, 24.4442187 ] } },
{ "type": "Feature", "properties": { "name": "Haji Ajad Mahela Islami Academy, Religious school", "type": "school" }, "geometry": { "type": "Point", "coordinates": [ 89.5492394, 24.4340246 ] } },
{ "type": "Feature", "properties": { "name": "Bhuiyagati High School", "type": "school" }, "geometry": { "type": "Point", "coordinates": [ 89.510557, 24.4951082 ] } },
{ "type": "Feature", "properties": { "name": "Sujon Homio pharmacy, Pharmacy", "type": "clinic" }, "geometry": { "type": "Point", "coordinates": [ 89.5090096, 24.4940075 ] } },
{ "type": "Feature", "properties": { "name": "The Mukul Medical Hall, Pharmacy", "type": "clinic" }, "geometry": { "type": "Point", "coordinates": [ 89.5324006, 24.4689645 ] } },
{ "type": "Feature", "properties": { "name": "Shakil pharmacy, Pharmacy", "type": "clinic" }, "geometry": { "type": "Point", "coordinates": [ 89.5472222, 24.4464359 ] } },
{ "type": "Feature", "properties": { "name": "Afia medical Hall, Pharmacy", "type": "clinic" }, "geometry": { "type": "Point", "coordinates": [ 89.5332643, 24.470062 ] } },
{ "type": "Feature", "properties": { "name": "Simla Primary School, Primary school", "type": "school" }, "geometry": { "type": "Point", "coordinates": [ 89.5186271, 24.5416972 ] } },
{ "type": "Feature", "properties": { "name": "Chandaikona M.L. High School", "type": "school" }, "geometry": { "type": "Point", "coordinates": [ 89.506967, 24.5540661 ] } },
{ "type": "Feature", "properties": { "name": "Comfort Diagnostic And Consultation Center, Hospital", "type": "clinic" }, "geometry": { "type": "Point", "coordinates": [ 89.5041043, 24.5555095 ] } },
{ "type": "Feature", "properties": { "name": "Chandaikona Dakhil Madrasha", "type": "school" }, "geometry": { "type": "Point", "coordinates": [ 89.5065114, 24.5528287 ] } },
{ "type": "Feature", "properties": { "name": "Papia Homeo Hall, Homeopathic pharmacy", "type": "clinic" }, "geometry": { "type": "Point", "coordinates": [ 89.504358, 24.5534358 ] } },
{ "type": "Feature", "properties": { "name": "Lakshmikola Government Primary School, Elementary school", "type": "school" }, "geometry": { "type": "Point", "coordinates": [ 89.499487, 24.5135862 ] } },
{ "type": "Feature", "properties": { "name": "Ichla Digar Uttar Para Government Primary School", "type": "school" }, "geometry": { "type": "Point", "coordinates": [ 89.5037488, 24.5027102 ] } },
{ "type": "Feature", "properties": { "name": "Paschim Lakshmikola Darus Sunnah Hafiziya Qawmi Madrasa, School", "type": "school" }, "geometry": { "type": "Point", "coordinates": [ 89.4959858, 24.5111595 ] } },
{ "type": "Feature", "properties": { "name": "Sorai Lakkhikola Dakhil Madrasa, School", "type": "school" }, "geometry": { "type": "Point", "coordinates": [ 89.5098976, 24.5134051 ] } },
{ "type": "Feature", "properties": { "name": "Deraganti Rudropur High School, School", "type": "school" }, "geometry": { "type": "Point", "coordinates": [ 89.4934203, 24.5265044 ] } },
{ "type": "Feature", "properties": { "name": "Chandakona Model Government Primary School, Primary school", "type": "school" }, "geometry": { "type": "Point", "coordinates": [ 89.5063473, 24.5462056 ] } },
{ "type": "Feature", "properties": { "name": "Advanced kg school, School", "type": "school" }, "geometry": { "type": "Point", "coordinates": [ 89.5020827, 24.5517512 ] } },
{ "type": "Feature", "properties": { "name": "Sarutia Nijhuri Govt. Primary School, Primary school", "type": "school" }, "geometry": { "type": "Point", "coordinates": [ 89.4803342, 24.5446976 ] } },
{ "type": "Feature", "properties": { "name": "N.S Multimedia School, School", "type": "school" }, "geometry": { "type": "Point", "coordinates": [ 89.500662, 24.5507769 ] } },
{ "type": "Feature", "properties": { "name": "Chandaikona Mohila Madrasha, School", "type": "school" }, "geometry": { "type": "Point", "coordinates": [ 89.505489, 24.5493347 ] } },
{ "type": "Feature", "properties": { "name": "মরিয়ম সোহরাব আলী বালিকা উচ্চ বিদ্যালয়", "type": "school" }, "geometry": { "type": "Point", "coordinates": [ 89.6979002, 24.2646252 ] } },
{ "type": "Feature", "properties": { "name": "সোহাগপুর পাইলট বালিকা উচ্চ বিদ্যালয়", "type": "school" }, "geometry": { "type": "Point", "coordinates": [ 89.696659, 24.2923911 ] } },
{ "type": "Feature", "properties": { "name": "এখানে চাঁদা তোলা হয়", "type": "clinic" }, "geometry": { "type": "Point", "coordinates": [ 89.6900073, 24.4662253 ] } },
{ "type": "Feature", "properties": { "name": "এখানে চাঁদা তোলা হয়", "type": "clinic" }, "geometry": { "type": "Point", "coordinates": [ 89.6901333, 24.4543088 ] } }
]
}
