{"type": "Feature", "properties": {}, "geometry": {"type": "MultiPolygon", "coordinates": [[[[89.4879, 24.1562], [89.4851, 24.1553], [89.4846, 24.158], [89.4866, 24.1593], [89.4861, 24.1567], [89.4879, 24.1571], [89.4896, 24.1597], [89.4903, 24.1569], [89.4879, 24.1562]]], [[[89.4364, 24.3922], [89.4412, 24.3941], [89.4375, 24.387], [89.4345, 24.3874], [89.4364, 24.3922]]], [[[89.4375, 24.1851], [89.438, 24.1825], [89.4317, 24.1842], [89.4328, 24.186], [89.4356, 24.1849], [89.4351, 24.1866], [89.4375, 24.1851]]], [[[89.4069, 24.4021], [89.4063, 24.4058], [89.4098, 24.4041], [89.4119, 24.4063], [89.4139, 24.4041], [89.4186, 24.4085], [89.4147, 24.4026], [89.4069, 24.4021]]], [[[89.4121, 24.4117], [89.4117, 24.4137], [89.4156, 24.4141], [89.4147, 24.4106], [89.4124, 24.4098], [89.4121, 24.4117]]], [[[89.3937, 24.4258], [89.3969, 24.4276], [89.3987, 24.4238], [89.3943, 24.4241], [89.3941, 24.4225], [89.3937, 24.4258]]], [[[89.3982, 24.4199], [89.3983, 24.4176], [89.3952, 24.4167], [89.3948, 24.4212], [89.3982, 24.4199]]], [[[89.3705, 24.5298], [89.3703, 24.5324], [89.3746, 24.5326], [89.3741, 24.5293], [89.3705, 24.5298]]], [[[89.3592, 24.5541], [89.3602, 24.5576], [89.3622, 24.5558], [89.3635, 24.5574], [89.3648, 24.5558], [89.3722, 24.5565], [89.3733, 24.545], [89.3692, 24.5469], [89.3683, 24.5511], [89.3661, 24.5497], [89.3657, 24.553], [89.3592, 24.5541]]], [[[89.3507, 24.5445], [89.3474, 24.5458], [89.3496, 24.5452], [89.3487, 24.5495], [89.3529, 24.5515], [89.3551, 24.5508], [89.3529, 24.5493], [89.3583, 24.5476], [89.3561, 24.5443], [89.3507, 24.5445]]], [[[89.3422, 24.533], [89.3462, 24.5348], [89.3453, 24.537], [89.3492, 24.5378], [89.3496, 24.5319], [89.3461, 24.5287], [89.3485, 24.527], [89.3448, 24.527], [89.3461, 24.5313], [89.3405, 24.5302], [89.3405, 24.5332], [89.3422, 24.533]]], [[[89.3383, 24.3624], [89.342, 24.3631], [89.3407, 24.359], [89.3429, 24.3598], [89.3414, 24.3568], [89.339, 24.3581], [89.3384, 24.3561], [89.3383, 24.3624]]], [[[89.3344, 24.306], [89.3383, 24.3034], [89.3357, 24.304], [89.3368, 24.3019], [89.3405, 24.3023], [89.3405, 24.3199], [89.3424, 24.3023], [89.339, 24.283], [89.3405, 24.2973], [89.3392, 24.3012], [89.3349, 24.3017], [89.332, 24.3086], [89.3344, 24.306]]], [[[89.3359, 24.5357], [89.3377, 24.5372], [89.3403, 24.5346], [89.3349, 24.5322], [89.3329, 24.5356], [89.3359, 24.5357]]], [[[89.3314, 24.3622], [89.3275, 24.3587], [89.3279, 24.3637], [89.3296, 24.3613], [89.3305, 24.3639], [89.3288, 24.3648], [89.3297, 24.3741], [89.3333, 24.3787], [89.3336, 24.3765], [89.3368, 24.3765], [89.336, 24.3729], [89.3322, 24.3707], [89.3351, 24.3702], [89.3357, 24.3648], [89.3318, 24.3655], [89.3314, 24.3622]], [[89.3303, 24.3715], [89.3301, 24.3676], [89.3323, 24.3665], [89.3318, 24.3737], [89.3303, 24.3715]]], [[[89.3336, 24.3483], [89.3359, 24.3566], [89.3338, 24.3577], [89.3366, 24.3592], [89.3368, 24.3518], [89.3336, 24.3483]]], [[[89.331, 24.3848], [89.3264, 24.3881], [89.3292, 24.3894], [89.3351, 24.3833], [89.3336, 24.3792], [89.331, 24.3848]]], [[[89.2791, 24.2752], [89.2815, 24.2791], [89.2865, 24.2771], [89.2839, 24.2756], [89.286, 24.2741], [89.293, 24.2758], [89.2895, 24.2739], [89.2912, 24.2737], [89.2899, 24.2715], [89.2832, 24.2721], [89.2815, 24.2689], [89.2819, 24.2717], [89.2797, 24.271], [89.2788, 24.2736], [89.2838, 24.275], [89.2791, 24.2752]]], [[[89.2788, 24.4935], [89.2771, 24.4964], [89.2797, 24.4992], [89.2815, 24.4955], [89.2788, 24.4935]]], [[[89.2563, 24.4343], [89.2595, 24.4367], [89.2617, 24.4351], [89.2617, 24.4367], [89.2676, 24.4371], [89.2678, 24.4339], [89.2704, 24.4339], [89.2634, 24.4299], [89.2632, 24.4317], [89.2608, 24.4273], [89.2574, 24.4302], [89.2584, 24.4327], [89.2563, 24.4314], [89.2522, 24.4341], [89.2533, 24.4358], [89.2563, 24.4343]]], [[[89.2548, 24.2893], [89.2554, 24.2928], [89.2591, 24.2923], [89.2582, 24.2897], [89.2548, 24.2893]]], [[[89.25, 24.5901], [89.2545, 24.5929], [89.2559, 24.5914], [89.2506, 24.5879], [89.25, 24.5901]]]]}}