{
"type": "FeatureCollection",
"name": "zones",
"crs": { "type": "name", "properties": { "name": "urn:ogc:def:crs:OGC:1.3:CRS84" } },
"features": [
{ "type": "Feature", "properties": { "name": "Belkuchi" }, "geometry": { "type": "Polygon", "coordinates": [ [ [ 89.76156024200003, 24.370254739000075 ], [ 89.75641494000007, 24.370801454000059 ], [ 89.751332524000077, 24.368789821000064 ], [ 89.745884772000068, 24.370821425000031 ], [ 89.745518607000065, 24.358549321000055 ], [ 89.743456674000072, 24.352641820000031 ], [ 89.73896489200007, 24.353169859000047 ], [ 89.738457219000054, 24.355539852000049 ], [ 89.739420132000078, 24.370830208000029 ], [ 89.741579196000032, 24.372053203000064 ], [ 89.739843013000041, 24.373932811000032 ], [ 89.736324188000083, 24.373867460000042 ], [ 89.731587598000033, 24.377599462000035 ], [ 89.726699692000068, 24.377764590000027 ], [ 89.725156472000037, 24.371210885000039 ], [ 89.720047659000045, 24.376232840000057 ], [ 89.718320540000036, 24.374130302000026 ], [ 89.706911681000065, 24.372780989000034 ], [ 89.701588307000065, 24.364245107000045 ], [ 89.69856121600003, 24.365613088000032 ], [ 89.698151689000042, 24.367705968000053 ], [ 89.695250012000031, 24.367864429000065 ], [ 89.695063241000071, 24.364798872000051 ], [ 89.692659926000033, 24.364161791000072 ], [ 89.691242206000084, 24.359877815000061 ], [ 89.693167481000046, 24.357863669000039 ], [ 89.691419731000053, 24.355914324000025 ], [ 89.69138517500005, 24.351996685000074 ], [ 89.695542925000041, 24.347949783000047 ], [ 89.696338485000069, 24.344158558000061 ], [ 89.682655117000081, 24.335236419000069 ], [ 89.679070641000067, 24.328410946000076 ], [ 89.676064072000031, 24.328492620000077 ], [ 89.673471474000053, 24.334230771000023 ], [ 89.670988665000039, 24.333031509000023 ], [ 89.669470204000049, 24.327738355000065 ], [ 89.664850006000052, 24.326606014000049 ], [ 89.662632901000052, 24.328563840000072 ], [ 89.65511269600006, 24.325145314000054 ], [ 89.652071927000065, 24.321079678000046 ], [ 89.651710506000086, 24.315712787000052 ], [ 89.655633447000071, 24.313783268000066 ], [ 89.656687386000044, 24.308410553000044 ], [ 89.650387267000042, 24.305518398000061 ], [ 89.648448423000048, 24.300544124000055 ], [ 89.649233637000066, 24.298223614000051 ], [ 89.646857753000063, 24.295666599000072 ], [ 89.643088627000054, 24.296487032000073 ], [ 89.641670003000058, 24.300616348000062 ], [ 89.639995988000067, 24.298521508000078 ], [ 89.632466082000064, 24.301970028000028 ], [ 89.632839520000061, 24.296018355000058 ], [ 89.637981404000072, 24.296218669000041 ], [ 89.636421557000062, 24.293435944000066 ], [ 89.639894464000065, 24.293791378000037 ], [ 89.640720532000046, 24.290233073000024 ], [ 89.639133015000084, 24.288964281000062 ], [ 89.635047297000085, 24.291249754000034 ], [ 89.632835691000082, 24.283966410000062 ], [ 89.634620348000055, 24.281723460000023 ], [ 89.632896731000073, 24.271833880000031 ], [ 89.630731707000052, 24.269892986000059 ], [ 89.62773091300005, 24.269727045000025 ], [ 89.623532667000063, 24.272518295000054 ], [ 89.61669329700004, 24.26507472000003 ], [ 89.615479614000037, 24.25935727600006 ], [ 89.61791812000007, 24.246188094000047 ], [ 89.616959046000034, 24.240903693000064 ], [ 89.619693363000067, 24.236662712000054 ], [ 89.621632414000032, 24.235248398000067 ], [ 89.626059354000063, 24.23879026700007 ], [ 89.630764681000073, 24.238109681000026 ], [ 89.634228393000058, 24.229518487000064 ], [ 89.645557316000065, 24.229368031000035 ], [ 89.644919941000069, 24.223575355000037 ], [ 89.647485593000056, 24.222556184000041 ], [ 89.648444634000043, 24.219970173000036 ], [ 89.646891467000046, 24.21210592500006 ], [ 89.650458936000064, 24.211296193000067 ], [ 89.65323268800006, 24.21378463800005 ], [ 89.652938120000044, 24.217778932000044 ], [ 89.650334868000073, 24.218981007000025 ], [ 89.653548782000087, 24.22298952400007 ], [ 89.65550998100008, 24.223195499000042 ], [ 89.657207934000041, 24.228384820000031 ], [ 89.656379525000034, 24.232226061000063 ], [ 89.668667365000033, 24.232113870000035 ], [ 89.674173262000068, 24.229923641000028 ], [ 89.677153908000037, 24.233587382000053 ], [ 89.682037337000054, 24.231781101000024 ], [ 89.684124241000063, 24.22777072100007 ], [ 89.687858044000052, 24.226867320000053 ], [ 89.689096017000054, 24.224939261000031 ], [ 89.693869087000053, 24.225444564000043 ], [ 89.695097119000081, 24.228165098000034 ], [ 89.693337167000038, 24.231643964000057 ], [ 89.688141773000041, 24.235605231000022 ], [ 89.68753231900007, 24.239513704000046 ], [ 89.700561561000086, 24.241198960000077 ], [ 89.701412656000059, 24.245034713000052 ], [ 89.704677185000037, 24.246363142000064 ], [ 89.702155067000035, 24.249031130000049 ], [ 89.70341221800004, 24.250383868000029 ], [ 89.70835274600006, 24.249040877000027 ], [ 89.711646597000083, 24.253007118000028 ], [ 89.731170736000081, 24.254850962000035 ], [ 89.732278713000085, 24.257490259000065 ], [ 89.746040458000039, 24.259896046000051 ], [ 89.750309110000046, 24.265831487000071 ], [ 89.754583579000041, 24.268461109000043 ], [ 89.755730421000067, 24.273792957000069 ], [ 89.76259271400005, 24.276357056000052 ], [ 89.762407024000083, 24.282329163000043 ], [ 89.770983374000082, 24.280679878000058 ], [ 89.781028506000041, 24.272949183000037 ], [ 89.790288661000034, 24.268912515000068 ], [ 89.790073481000036, 24.276575304000062 ], [ 89.786970720000056, 24.288572239000075 ], [ 89.774214134000033, 24.301509613000064 ], [ 89.77177828400005, 24.310718562000034 ], [ 89.772758004000082, 24.324710504000052 ], [ 89.771693724000045, 24.329905089000079 ], [ 89.765499516000034, 24.339419235000037 ], [ 89.762892020000038, 24.341128986000058 ], [ 89.756324147000043, 24.345320672000071 ], [ 89.752014279000036, 24.349725769000031 ], [ 89.751356940000051, 24.352510466000069 ], [ 89.752753981000069, 24.360829421000062 ], [ 89.76156024200003, 24.370254739000075 ] ] ] } },
{ "type": "Feature", "properties": { "name": "Chauhali" }, "geometry": { "type": "Polygon", "coordinates": [ [ [ 89.695097119000081, 24.228165098000034 ], [ 89.698312280000039, 24.229988628000058 ], [ 89.699835584000084, 24.226557219000028 ], [ 89.697180182000068, 24.223888081000041 ], [ 89.698334754000086, 24.22240855900003 ], [ 89.702120880000052, 24.226027689000034 ], [ 89.709161466000069, 24.221393196000065 ], [ 89.708967336000057, 24.217026407000048 ], [ 89.70663858000006, 24.213097522000055 ], [ 89.708727933000034, 24.212272279000047 ], [ 89.710678534000067, 24.208828016000041 ], [ 89.715501513000049, 24.20741681100003 ], [ 89.715467742000044, 24.206410239000036 ], [ 89.71183426500005, 24.207250728000076 ], [ 89.710556433000079, 24.204708045000075 ], [ 89.713286787000072, 24.20449869600003 ], [ 89.711951692000071, 24.203199514000062 ], [ 89.712632426000084, 24.199200168000061 ], [ 89.716146587000082, 24.197386230000063 ], [ 89.714783447000059, 24.192667257000039 ], [ 89.721185912000067, 24.189368287000036 ], [ 89.720166624000058, 24.184382411000058 ], [ 89.722566140000083, 24.183007712000062 ], [ 89.721882737000044, 24.180048461000069 ], [ 89.730212461000065, 24.175168038000038 ], [ 89.730727984000055, 24.168624069000032 ], [ 89.73317669000005, 24.166771145000041 ], [ 89.730763064000087, 24.164657909000027 ], [ 89.723443873000065, 24.164336597000045 ], [ 89.725835290000077, 24.162671104000026 ], [ 89.726891497000054, 24.157844774000068 ], [ 89.724627113000054, 24.156552501000078 ], [ 89.725514985000075, 24.152478361000078 ], [ 89.718061155000044, 24.151595996000026 ], [ 89.715985264000039, 24.148614374000033 ], [ 89.717444629000056, 24.147998947000076 ], [ 89.714376202000039, 24.145302794000031 ], [ 89.712255223000057, 24.140148810000028 ], [ 89.722061367000038, 24.131051299000035 ], [ 89.728170479000084, 24.129092161000074 ], [ 89.736168578000047, 24.129573036000068 ], [ 89.740101380000056, 24.124938948000079 ], [ 89.737198712000065, 24.120619999000041 ], [ 89.737777397000059, 24.119455281000057 ], [ 89.741213810000033, 24.11864203600004 ], [ 89.741089920000036, 24.122595090000061 ], [ 89.742334080000035, 24.122965818000068 ], [ 89.765385312000035, 24.112929833000067 ], [ 89.760567434000052, 24.10536581100007 ], [ 89.748406790000047, 24.107968430000028 ], [ 89.743749256000058, 24.104326934000028 ], [ 89.742343275000053, 24.097474789000046 ], [ 89.740158575000066, 24.095079257000066 ], [ 89.737976108000055, 24.096463665000044 ], [ 89.736954681000043, 24.094807893000052 ], [ 89.725750120000043, 24.094851430000062 ], [ 89.720838611000033, 24.084349964000069 ], [ 89.715731220000066, 24.082740164000029 ], [ 89.713742210000078, 24.089605431000052 ], [ 89.710918216000039, 24.090158420000023 ], [ 89.711911511000039, 24.08057376000005 ], [ 89.707256622000045, 24.076928901000031 ], [ 89.701485198000057, 24.078043948000072 ], [ 89.697438456000043, 24.075058197000033 ], [ 89.69580103900006, 24.075879138000062 ], [ 89.689429958000062, 24.073219341000026 ], [ 89.689400232000082, 24.071776388000046 ], [ 89.692661593000082, 24.069705572000032 ], [ 89.690247279000062, 24.069676427000047 ], [ 89.68926915600008, 24.065316976000076 ], [ 89.684745679000059, 24.063478705000023 ], [ 89.684588440000084, 24.05838873700003 ], [ 89.681378801000051, 24.055635735000067 ], [ 89.683877521000056, 24.040918408000039 ], [ 89.683017675000031, 24.034242948000042 ], [ 89.691861509000034, 24.037987917000066 ], [ 89.698213308000049, 24.038710160000051 ], [ 89.702037774000075, 24.035381931000074 ], [ 89.697118007000086, 24.035548410000047 ], [ 89.701114499000084, 24.032221670000069 ], [ 89.70300540900007, 24.023672939000051 ], [ 89.706204619000061, 24.023843381000063 ], [ 89.709375909000073, 24.020169348000024 ], [ 89.72157552200008, 24.01352505400007 ], [ 89.733323583000072, 24.019628054000066 ], [ 89.741065943000081, 24.021986336000055 ], [ 89.749908559000062, 24.023478931000056 ], [ 89.758752823000066, 24.022222380000073 ], [ 89.766126433000068, 24.023732043000052 ], [ 89.774620173000073, 24.027453653000066 ], [ 89.785204770000064, 24.035247347000052 ], [ 89.784407571000031, 24.040951238000048 ], [ 89.789332879000085, 24.04103881900005 ], [ 89.794751665000035, 24.043329648000054 ], [ 89.801625528000045, 24.051902428000062 ], [ 89.818946837000055, 24.065987125000049 ], [ 89.82285173300005, 24.073166126000046 ], [ 89.82498098800005, 24.084888473000035 ], [ 89.824092031000077, 24.09106493400003 ], [ 89.818924111000058, 24.101427888000046 ], [ 89.816841541000031, 24.109404797000025 ], [ 89.816213752000067, 24.129982193000046 ], [ 89.820936132000043, 24.137131124000064 ], [ 89.82060090300007, 24.13997981600005 ], [ 89.80696822200008, 24.14872550900003 ], [ 89.802567465000038, 24.160098123000068 ], [ 89.792012748000047, 24.158435172000054 ], [ 89.791781388000061, 24.159590968000032 ], [ 89.787708384000041, 24.15794941200005 ], [ 89.779979274000084, 24.166474386000061 ], [ 89.785745833000078, 24.171738159000029 ], [ 89.791849654000032, 24.17213442700006 ], [ 89.792133486000068, 24.170885560000045 ], [ 89.798141202000068, 24.172127078000074 ], [ 89.796578743000055, 24.183698527000047 ], [ 89.787116583000056, 24.210947270000077 ], [ 89.783042650000084, 24.236726907000048 ], [ 89.784602134000068, 24.24835786500006 ], [ 89.790203751000035, 24.26211919800005 ], [ 89.790288661000034, 24.268912515000068 ], [ 89.781028506000041, 24.272949183000037 ], [ 89.770983374000082, 24.280679878000058 ], [ 89.762407024000083, 24.282329163000043 ], [ 89.76259271400005, 24.276357056000052 ], [ 89.755730421000067, 24.273792957000069 ], [ 89.754583579000041, 24.268461109000043 ], [ 89.750309110000046, 24.265831487000071 ], [ 89.746040458000039, 24.259896046000051 ], [ 89.732278713000085, 24.257490259000065 ], [ 89.731170736000081, 24.254850962000035 ], [ 89.711646597000083, 24.253007118000028 ], [ 89.70835274600006, 24.249040877000027 ], [ 89.70341221800004, 24.250383868000029 ], [ 89.702155067000035, 24.249031130000049 ], [ 89.704677185000037, 24.246363142000064 ], [ 89.701412656000059, 24.245034713000052 ], [ 89.700561561000086, 24.241198960000077 ], [ 89.68753231900007, 24.239513704000046 ], [ 89.688141773000041, 24.235605231000022 ], [ 89.693337167000038, 24.231643964000057 ], [ 89.695097119000081, 24.228165098000034 ] ] ] } },
{ "type": "Feature", "properties": { "name": "Kamarkhanda" }, "geometry": { "type": "Polygon", "coordinates": [ [ [ 89.695250012000031, 24.367864429000065 ], [ 89.697233188000041, 24.374041099000067 ], [ 89.695131386000071, 24.376218640000047 ], [ 89.689984174000074, 24.376834217000066 ], [ 89.689621467000052, 24.380376773000023 ], [ 89.688034048000077, 24.374770959000045 ], [ 89.686631703000046, 24.374644443000022 ], [ 89.683989620000034, 24.38162055500004 ], [ 89.684923910000066, 24.39618121500007 ], [ 89.683558593000043, 24.398911617000067 ], [ 89.688248520000059, 24.403787224000041 ], [ 89.678618222000068, 24.407045066000023 ], [ 89.683315027000049, 24.410194072000024 ], [ 89.681710972000076, 24.41316103500003 ], [ 89.67703397300005, 24.41213392700007 ], [ 89.667430612000032, 24.414171815000032 ], [ 89.667109757000048, 24.421802950000028 ], [ 89.66124233000005, 24.427037381000048 ], [ 89.660842176000074, 24.430965860000072 ], [ 89.659375964000048, 24.430294217000039 ], [ 89.65837814300005, 24.423629924000068 ], [ 89.662332216000038, 24.42014294300003 ], [ 89.655831540000065, 24.422066742000027 ], [ 89.64845757300003, 24.419131974000038 ], [ 89.649502549000033, 24.416894522000064 ], [ 89.646947625000053, 24.415639945000066 ], [ 89.646966633000034, 24.413349309000068 ], [ 89.650857513000062, 24.413222292000057 ], [ 89.650106297000036, 24.410892058000059 ], [ 89.646880363000037, 24.410345484000061 ], [ 89.645029553000086, 24.412737395000079 ], [ 89.63487582700003, 24.413894148000054 ], [ 89.634245172000078, 24.410686919000057 ], [ 89.632314336000036, 24.409338769000044 ], [ 89.625381072000039, 24.408737533000078 ], [ 89.62242996100008, 24.411081843000034 ], [ 89.621535165000068, 24.415117361000057 ], [ 89.624623076000034, 24.421166718000052 ], [ 89.619413403000067, 24.423702349000052 ], [ 89.624801425000044, 24.428610998000067 ], [ 89.623656120000078, 24.430300474000035 ], [ 89.617889569000056, 24.431210643000043 ], [ 89.619548500000064, 24.433029069000042 ], [ 89.622223535000046, 24.431657306000034 ], [ 89.627049691000082, 24.43530398200005 ], [ 89.629356296000083, 24.430978376000041 ], [ 89.631307285000048, 24.43684190700003 ], [ 89.627346578000072, 24.436560687000053 ], [ 89.623515932000032, 24.438166186000046 ], [ 89.624248905000059, 24.441025417000048 ], [ 89.630051058000049, 24.443584403000045 ], [ 89.630113743000038, 24.448304187000076 ], [ 89.620243527000071, 24.44553183000005 ], [ 89.614574730000072, 24.445389354000042 ], [ 89.613151642000048, 24.443444470000031 ], [ 89.609976824000057, 24.442804098000067 ], [ 89.607294818000071, 24.445113788000072 ], [ 89.608439279000038, 24.447005508000075 ], [ 89.605908035000084, 24.448883169000055 ], [ 89.597625731000051, 24.449829442000066 ], [ 89.596614650000049, 24.451699692000034 ], [ 89.593859900000041, 24.451270652000062 ], [ 89.593328254000085, 24.445246787000031 ], [ 89.602393823000057, 24.445439670000042 ], [ 89.60773185100004, 24.441277580000076 ], [ 89.598359185000049, 24.435442217000059 ], [ 89.599915326000087, 24.429020847000061 ], [ 89.607982752000055, 24.424141128000031 ], [ 89.605760709000037, 24.422589803000051 ], [ 89.599321731000032, 24.422047926000062 ], [ 89.598079746000053, 24.41719121400007 ], [ 89.587192002000052, 24.417102642000032 ], [ 89.584428348000074, 24.416619787000059 ], [ 89.586412256000074, 24.409407185000077 ], [ 89.588425672000085, 24.407379406000075 ], [ 89.590543246000038, 24.408203083000046 ], [ 89.595120020000081, 24.401239505000035 ], [ 89.586142408000057, 24.396497289000024 ], [ 89.58881999700003, 24.395729543000073 ], [ 89.589298393000036, 24.393796356000053 ], [ 89.591559343000085, 24.39424333200003 ], [ 89.59731903800008, 24.389089204000072 ], [ 89.597789428000056, 24.387494657000047 ], [ 89.594700573000068, 24.383263515000067 ], [ 89.597608145000038, 24.382749680000074 ], [ 89.598593147000031, 24.384954348000065 ], [ 89.604732954000042, 24.383187279000026 ], [ 89.605681908000065, 24.381059384000025 ], [ 89.612074749000044, 24.377367211000035 ], [ 89.611195749000046, 24.373995540000067 ], [ 89.612665407000065, 24.372024730000078 ], [ 89.608454745000074, 24.370931793000068 ], [ 89.608372323000083, 24.366577695000046 ], [ 89.616766678000033, 24.370790462000059 ], [ 89.620572714000048, 24.376982294000072 ], [ 89.624185308000051, 24.376599541000076 ], [ 89.619522661000076, 24.367780785000036 ], [ 89.61416790100003, 24.364291705000028 ], [ 89.613513810000086, 24.358903702000077 ], [ 89.615697186000034, 24.357214658000032 ], [ 89.614601875000062, 24.355188755000029 ], [ 89.618148530000042, 24.351936114000068 ], [ 89.617842347000078, 24.348839688000055 ], [ 89.619804571000032, 24.347264617000064 ], [ 89.62065491900006, 24.335969059000035 ], [ 89.622708789000058, 24.336549959000024 ], [ 89.624716705000083, 24.334227547000069 ], [ 89.622995685000035, 24.330060169000035 ], [ 89.62349312300006, 24.323085433000074 ], [ 89.626308909000045, 24.322378873000048 ], [ 89.627362578000032, 24.31343653600004 ], [ 89.632012478000036, 24.306765421000023 ], [ 89.632466082000064, 24.301970028000028 ], [ 89.639995988000067, 24.298521508000078 ], [ 89.641670003000058, 24.300616348000062 ], [ 89.643088627000054, 24.296487032000073 ], [ 89.646857753000063, 24.295666599000072 ], [ 89.649233637000066, 24.298223614000051 ], [ 89.648448423000048, 24.300544124000055 ], [ 89.650387267000042, 24.305518398000061 ], [ 89.656687386000044, 24.308410553000044 ], [ 89.655633447000071, 24.313783268000066 ], [ 89.651710506000086, 24.315712787000052 ], [ 89.652071927000065, 24.321079678000046 ], [ 89.65511269600006, 24.325145314000054 ], [ 89.662632901000052, 24.328563840000072 ], [ 89.664850006000052, 24.326606014000049 ], [ 89.669470204000049, 24.327738355000065 ], [ 89.670988665000039, 24.333031509000023 ], [ 89.673471474000053, 24.334230771000023 ], [ 89.676064072000031, 24.328492620000077 ], [ 89.679070641000067, 24.328410946000076 ], [ 89.682655117000081, 24.335236419000069 ], [ 89.696338485000069, 24.344158558000061 ], [ 89.695542925000041, 24.347949783000047 ], [ 89.69138517500005, 24.351996685000074 ], [ 89.691419731000053, 24.355914324000025 ], [ 89.693167481000046, 24.357863669000039 ], [ 89.691242206000084, 24.359877815000061 ], [ 89.692659926000033, 24.364161791000072 ], [ 89.695063241000071, 24.364798872000051 ], [ 89.695250012000031, 24.367864429000065 ] ] ] } },
{ "type": "Feature", "properties": { "name": "Kazipur" }, "geometry": { "type": "Polygon", "coordinates": [ [ [ 89.601701799000068, 24.605218592000028 ], [ 89.602712501000042, 24.608831040000041 ], [ 89.608171396000046, 24.610525209000059 ], [ 89.609301246000086, 24.613024227000039 ], [ 89.610894687000041, 24.61318076200007 ], [ 89.61375438400006, 24.608049206000032 ], [ 89.616944313000033, 24.607426282000063 ], [ 89.619510180000077, 24.60899241900006 ], [ 89.624456938000037, 24.603934215000038 ], [ 89.628653348000057, 24.602064940000048 ], [ 89.631324033000055, 24.596843945000046 ], [ 89.636851276000073, 24.598237509000057 ], [ 89.641766261000043, 24.596791258000053 ], [ 89.646930687000065, 24.600137222000058 ], [ 89.654823922000048, 24.591345820000072 ], [ 89.65466745100008, 24.589536329000055 ], [ 89.649245876000066, 24.586616768000056 ], [ 89.648412417000031, 24.58377327200003 ], [ 89.65135347000006, 24.581903802000056 ], [ 89.651993003000086, 24.576198462000036 ], [ 89.658291883000061, 24.577100797000071 ], [ 89.662909225000078, 24.580723265000074 ], [ 89.668914634000032, 24.573385445000042 ], [ 89.668047200000046, 24.557407783000031 ], [ 89.673719701000039, 24.556780619000051 ], [ 89.67509205600004, 24.552317454000047 ], [ 89.680728526000053, 24.554727955000033 ], [ 89.679990496000073, 24.552016340000023 ], [ 89.682348076000039, 24.549900027000035 ], [ 89.681267607000052, 24.545694656000023 ], [ 89.683393735000038, 24.545258280000041 ], [ 89.691085701000077, 24.545146098000032 ], [ 89.69276175400006, 24.548703468000042 ], [ 89.69253169600006, 24.554725395000048 ], [ 89.690253764000033, 24.557739548000029 ], [ 89.690366593000078, 24.560675618000062 ], [ 89.687857250000036, 24.56236330400003 ], [ 89.691446907000056, 24.575202341000079 ], [ 89.693600581000055, 24.577717518000043 ], [ 89.697372503000054, 24.578967551000062 ], [ 89.697793913000055, 24.582134533000044 ], [ 89.701023833000079, 24.583593372000053 ], [ 89.705026845000077, 24.584068085000069 ], [ 89.706882826000083, 24.580063374000076 ], [ 89.707084183000063, 24.589300259000026 ], [ 89.718907823000052, 24.587808873000029 ], [ 89.72074159500005, 24.59225413300004 ], [ 89.725701126000047, 24.591642328000034 ], [ 89.729031827000085, 24.584547266000072 ], [ 89.727406902000041, 24.577496861000043 ], [ 89.72931658300007, 24.575990895000075 ], [ 89.727722904000075, 24.572517627000025 ], [ 89.743271647000086, 24.571172682000054 ], [ 89.74421731700005, 24.568559072000028 ], [ 89.746017207000079, 24.570525366000027 ], [ 89.737252193000074, 24.58410178400004 ], [ 89.73926982200004, 24.592165994000027 ], [ 89.742395058000056, 24.596724426000037 ], [ 89.756477024000048, 24.596654158000035 ], [ 89.761810992000051, 24.590170661000059 ], [ 89.764276687000063, 24.592942166000057 ], [ 89.768401261000065, 24.593409178000059 ], [ 89.771621365000044, 24.600213766000024 ], [ 89.770121413000084, 24.60613677300006 ], [ 89.765028495000081, 24.613836238000033 ], [ 89.765520562000063, 24.62312993300003 ], [ 89.785026425000069, 24.625805888000059 ], [ 89.78329403400005, 24.640645652000046 ], [ 89.785497830000054, 24.662546355000075 ], [ 89.783275053000068, 24.669170613000063 ], [ 89.792240765000031, 24.672860240000034 ], [ 89.799163830000055, 24.679980282000031 ], [ 89.796771657000079, 24.685591277000071 ], [ 89.791869361000067, 24.685226689000046 ], [ 89.790136902000086, 24.686417001000052 ], [ 89.790245460000051, 24.690030319000073 ], [ 89.79288073500004, 24.690441523000061 ], [ 89.789962242000058, 24.692207643000074 ], [ 89.787908447000063, 24.696467055000028 ], [ 89.79105153900008, 24.698661599000047 ], [ 89.792486036000071, 24.703255538000064 ], [ 89.788746309000032, 24.705415053000024 ], [ 89.783314418000032, 24.703934048000065 ], [ 89.78244095000008, 24.708778172000052 ], [ 89.778944406000051, 24.710206243000073 ], [ 89.77750289100004, 24.715534937000029 ], [ 89.773714501000086, 24.716408708000074 ], [ 89.772408252000048, 24.723993720000067 ], [ 89.778708946000052, 24.725777266000023 ], [ 89.783371833000047, 24.72395971900005 ], [ 89.784155957000053, 24.726532557000041 ], [ 89.787859141000069, 24.728303491000077 ], [ 89.788215988000047, 24.731621924000024 ], [ 89.790921357000059, 24.735173386000042 ], [ 89.790470610000057, 24.738237238000067 ], [ 89.788435983000056, 24.740221298000051 ], [ 89.777144537000083, 24.743082577000052 ], [ 89.782573863000039, 24.74892316200004 ], [ 89.782371323000064, 24.759633002000044 ], [ 89.780015194000043, 24.765232986000058 ], [ 89.771664740000062, 24.772919192000074 ], [ 89.758001733000071, 24.767177480000043 ], [ 89.741361611000059, 24.774566131000029 ], [ 89.739239116000078, 24.773117429000024 ], [ 89.740459954000073, 24.768444682000052 ], [ 89.734884435000083, 24.761097480000046 ], [ 89.735056206000081, 24.765653555000029 ], [ 89.732859430000076, 24.770136556000068 ], [ 89.728675131000045, 24.770645518000038 ], [ 89.722345544000063, 24.775053079000031 ], [ 89.715335598000081, 24.777346303000058 ], [ 89.712416037000082, 24.778756390000069 ], [ 89.695547107000039, 24.779873974000054 ], [ 89.679993125000067, 24.783819845000039 ], [ 89.675003167000057, 24.781712697000046 ], [ 89.673893682000084, 24.777803669000036 ], [ 89.675181566000049, 24.768396371000051 ], [ 89.673109011000065, 24.761431511000069 ], [ 89.66387749900008, 24.754649984000025 ], [ 89.666464180000048, 24.747097075000056 ], [ 89.655896110000072, 24.747670950000042 ], [ 89.657090506000031, 24.739931545000047 ], [ 89.660759718000065, 24.728407382000057 ], [ 89.652797152000062, 24.72510455500003 ], [ 89.646837067000035, 24.718037688000038 ], [ 89.637268585000072, 24.716648859000031 ], [ 89.644214421000072, 24.710327710000058 ], [ 89.645648460000075, 24.701430086000073 ], [ 89.642010066000068, 24.701869636000026 ], [ 89.636689204000049, 24.695367781000073 ], [ 89.624032033000049, 24.685465845000067 ], [ 89.617400731000032, 24.688961186000029 ], [ 89.613839159000065, 24.685709791000079 ], [ 89.614027939000039, 24.687601792000066 ], [ 89.612220289000049, 24.687383768000075 ], [ 89.611993066000082, 24.683849078000037 ], [ 89.610818738000035, 24.687898883000059 ], [ 89.608738517000063, 24.686432647000061 ], [ 89.607339623000087, 24.687183682000068 ], [ 89.604652799000064, 24.691683299000033 ], [ 89.605257612000059, 24.694539941000073 ], [ 89.596440914000084, 24.697350094000058 ], [ 89.594892580000078, 24.702027565000037 ], [ 89.59171996200007, 24.702917589000037 ], [ 89.582635910000079, 24.70002627100007 ], [ 89.573847065000052, 24.699294870000074 ], [ 89.569707459000085, 24.693874400000027 ], [ 89.567822405000072, 24.693794476000051 ], [ 89.564750072000038, 24.699259169000072 ], [ 89.563754430000074, 24.711130245000049 ], [ 89.554647451000051, 24.704282570000032 ], [ 89.554784292000079, 24.698725312000079 ], [ 89.558276427000067, 24.692945967000071 ], [ 89.561998219000031, 24.692335400000047 ], [ 89.562028947000044, 24.689288533000024 ], [ 89.557968729000038, 24.684718052000051 ], [ 89.557892288000062, 24.680116342000076 ], [ 89.553252731000043, 24.680062535000047 ], [ 89.550210115000084, 24.677509429000054 ], [ 89.549521223000056, 24.67349461200007 ], [ 89.552342388000056, 24.671859899000026 ], [ 89.55434368300007, 24.667640291000055 ], [ 89.55003172000005, 24.664901089000068 ], [ 89.544741640000041, 24.653707114000042 ], [ 89.545772860000056, 24.651723892000064 ], [ 89.547764349000033, 24.651395170000058 ], [ 89.558155725000063, 24.651890064000042 ], [ 89.560998408000046, 24.653732335000029 ], [ 89.56198541100008, 24.652665557000034 ], [ 89.556712788000084, 24.646510998000053 ], [ 89.554277339000066, 24.640748527000028 ], [ 89.55937706900005, 24.626190213000029 ], [ 89.555908428000066, 24.622031195000034 ], [ 89.550008247000051, 24.623966145000054 ], [ 89.549409396000044, 24.617559369000048 ], [ 89.556979669000043, 24.61609899900003 ], [ 89.563506173000064, 24.617783812000027 ], [ 89.569957891000058, 24.621437554000067 ], [ 89.57711159400003, 24.618627597000057 ], [ 89.58153085400005, 24.620561399000053 ], [ 89.587682441000084, 24.614732762000074 ], [ 89.589202746000069, 24.610718477000034 ], [ 89.595652071000075, 24.611399756000026 ], [ 89.601701799000068, 24.605218592000028 ] ] ] } },
{ "type": "Feature", "properties": { "name": "Royganj" }, "geometry": { "type": "Polygon", "coordinates": [ [ [ 89.528873892000036, 24.561640845000056 ], [ 89.528253808000045, 24.552847870000051 ], [ 89.532245154000066, 24.547028774000069 ], [ 89.526281377000032, 24.544068706000076 ], [ 89.523082276000082, 24.538533593000068 ], [ 89.519963018000055, 24.536332991000052 ], [ 89.518773757000076, 24.537919313000032 ], [ 89.522361310000065, 24.544625324000037 ], [ 89.522267186000079, 24.551555012000051 ], [ 89.51990335000005, 24.553636036000057 ], [ 89.508483849000072, 24.556764205000036 ], [ 89.503576247000069, 24.556594023000059 ], [ 89.497685969000031, 24.552827577000073 ], [ 89.491891237000061, 24.554536554000038 ], [ 89.489301656000066, 24.553933985000072 ], [ 89.485705253000049, 24.556882949000055 ], [ 89.472845051000036, 24.551679304000061 ], [ 89.474129036000079, 24.546044771000027 ], [ 89.473244818000069, 24.543805270000064 ], [ 89.46752854500005, 24.543835995000052 ], [ 89.464975675000062, 24.54557115800003 ], [ 89.460012690000042, 24.542385121000052 ], [ 89.456354315000056, 24.543454057000076 ], [ 89.455840890000047, 24.547103732000039 ], [ 89.448909516000072, 24.54788178900003 ], [ 89.446029109000051, 24.549575917000027 ], [ 89.431104663000042, 24.550809574000027 ], [ 89.431219163000037, 24.555457231000048 ], [ 89.427123959000085, 24.555822171000045 ], [ 89.42493597400005, 24.560938029000056 ], [ 89.409753562000049, 24.560987712000042 ], [ 89.409397321000085, 24.555218650000029 ], [ 89.407082287000037, 24.552553205000038 ], [ 89.393627371000036, 24.551825719000078 ], [ 89.391806569000039, 24.54842710500003 ], [ 89.392375094000045, 24.544805556000028 ], [ 89.389450560000057, 24.541069992000075 ], [ 89.399904973000048, 24.540243249000071 ], [ 89.400885401000039, 24.526808422000045 ], [ 89.404399358000035, 24.52613199700005 ], [ 89.404403890000083, 24.52216214200007 ], [ 89.411307246000035, 24.521252224000023 ], [ 89.412811660000045, 24.516494004000037 ], [ 89.416098013000067, 24.51406262200004 ], [ 89.416212212000062, 24.511845280000045 ], [ 89.419728383000063, 24.510310510000068 ], [ 89.425878699000066, 24.498728598000071 ], [ 89.419488124000054, 24.494384866000075 ], [ 89.419362808000074, 24.491718407000064 ], [ 89.41587306200006, 24.491183384000067 ], [ 89.416196787000047, 24.489136749000068 ], [ 89.414020811000057, 24.487167930000055 ], [ 89.414567935000036, 24.483433279000053 ], [ 89.411386991000086, 24.479947752000044 ], [ 89.419790090000049, 24.476897132000033 ], [ 89.421481261000054, 24.478582909000068 ], [ 89.428550334000079, 24.478255889000025 ], [ 89.430042090000086, 24.471523459000025 ], [ 89.440850203000082, 24.470878569000035 ], [ 89.447935265000069, 24.474203382000042 ], [ 89.449772297000038, 24.477316360000032 ], [ 89.448958904000051, 24.479058738000049 ], [ 89.453927627000041, 24.479851794000069 ], [ 89.454561993000084, 24.478919888000064 ], [ 89.454286033000074, 24.468466026000044 ], [ 89.447371097000087, 24.468020369000044 ], [ 89.444223890000046, 24.460941092000041 ], [ 89.441742377000082, 24.461141933000079 ], [ 89.439796844000057, 24.459023615000035 ], [ 89.440433865000045, 24.455954123000026 ], [ 89.438868547000084, 24.451341110000044 ], [ 89.442151873000057, 24.449795317000053 ], [ 89.442462601000045, 24.447285128000033 ], [ 89.435416958000076, 24.439215835000027 ], [ 89.435590865000052, 24.433876013000031 ], [ 89.437889624000036, 24.433752484000024 ], [ 89.438832853000065, 24.429316408000034 ], [ 89.433660154000052, 24.42475538900004 ], [ 89.44973843300005, 24.421778963000065 ], [ 89.455295241000044, 24.422496190000061 ], [ 89.458035380000069, 24.424566359000039 ], [ 89.464908480000076, 24.424659681000037 ], [ 89.473720859000082, 24.422221569000044 ], [ 89.476282003000051, 24.419037213000024 ], [ 89.480704851000041, 24.417789153000058 ], [ 89.480129045000069, 24.420726969000043 ], [ 89.483068328000059, 24.428408263000051 ], [ 89.490579964000062, 24.430145793000065 ], [ 89.494689033000043, 24.433440306000023 ], [ 89.497617692000063, 24.432347637000078 ], [ 89.499240229000065, 24.434670192000056 ], [ 89.507864192000056, 24.435125234000054 ], [ 89.509200909000072, 24.437036379000062 ], [ 89.511007525000082, 24.433826405000048 ], [ 89.514453360000061, 24.434099419000063 ], [ 89.511567760000048, 24.424356286000034 ], [ 89.509116869000081, 24.426969224000061 ], [ 89.50703201500005, 24.426035012000057 ], [ 89.507420016000083, 24.418120608000038 ], [ 89.505428531000064, 24.408927233000043 ], [ 89.507669067000052, 24.410811992000049 ], [ 89.513765834000083, 24.411351579000041 ], [ 89.515797155000087, 24.422955296000055 ], [ 89.523716252000042, 24.421709784000029 ], [ 89.527839755000059, 24.418554284000038 ], [ 89.528745549000064, 24.42232556700003 ], [ 89.531720804000031, 24.422743485000069 ], [ 89.529319809000071, 24.43055462600006 ], [ 89.535147648000077, 24.432084880000048 ], [ 89.536695974000054, 24.435163213000067 ], [ 89.544870447000051, 24.435418898000023 ], [ 89.551998609000066, 24.438125399000057 ], [ 89.554598059000057, 24.435336081000059 ], [ 89.556672506000041, 24.437189151000041 ], [ 89.558079067000051, 24.436616932000049 ], [ 89.557669139000041, 24.430137770000044 ], [ 89.560494069000072, 24.432117728000037 ], [ 89.562956157000031, 24.432869409000034 ], [ 89.564062688000035, 24.431400439000072 ], [ 89.565709180000056, 24.432753716000036 ], [ 89.567811274000064, 24.428790876000051 ], [ 89.57043051800008, 24.429282658000034 ], [ 89.575424094000084, 24.423787419000064 ], [ 89.575950471000056, 24.418290849000073 ], [ 89.578940326000065, 24.423248568000076 ], [ 89.579849596000031, 24.420575453000026 ], [ 89.586576884000067, 24.421414734000052 ], [ 89.587192002000052, 24.417102642000032 ], [ 89.598079746000053, 24.41719121400007 ], [ 89.599321731000032, 24.422047926000062 ], [ 89.605760709000037, 24.422589803000051 ], [ 89.607982752000055, 24.424141128000031 ], [ 89.599915326000087, 24.429020847000061 ], [ 89.598359185000049, 24.435442217000059 ], [ 89.60773185100004, 24.441277580000076 ], [ 89.602393823000057, 24.445439670000042 ], [ 89.593328254000085, 24.445246787000031 ], [ 89.593859900000041, 24.451270652000062 ], [ 89.596614650000049, 24.451699692000034 ], [ 89.597625731000051, 24.449829442000066 ], [ 89.605908035000084, 24.448883169000055 ], [ 89.608439279000038, 24.447005508000075 ], [ 89.607294818000071, 24.445113788000072 ], [ 89.609976824000057, 24.442804098000067 ], [ 89.613151642000048, 24.443444470000031 ], [ 89.614574730000072, 24.445389354000042 ], [ 89.620243527000071, 24.44553183000005 ], [ 89.620357038000066, 24.449322606000067 ], [ 89.61738011500006, 24.452619011000024 ], [ 89.617823176000059, 24.457629896000071 ], [ 89.621867809000037, 24.460790430000031 ], [ 89.623327482000036, 24.464124508000054 ], [ 89.621956595000086, 24.468027286000051 ], [ 89.619171979000043, 24.468459461000066 ], [ 89.616605453000034, 24.472323608000067 ], [ 89.615135204000069, 24.477365182000028 ], [ 89.612060903000042, 24.479065998000067 ], [ 89.612561775000074, 24.480764669000052 ], [ 89.616768633000049, 24.482288767000057 ], [ 89.619623519000072, 24.481154041000025 ], [ 89.622177382000075, 24.484247019000065 ], [ 89.615098935000049, 24.486652453000033 ], [ 89.615322974000037, 24.499182735000034 ], [ 89.610346235000065, 24.504694507000067 ], [ 89.609686939000085, 24.507632598000043 ], [ 89.604982077000045, 24.510358069000063 ], [ 89.605707964000032, 24.514490799000043 ], [ 89.599796587000071, 24.516143265000039 ], [ 89.598707371000046, 24.517781866000064 ], [ 89.601115924000055, 24.533542171000079 ], [ 89.604674681000063, 24.53416117300003 ], [ 89.607331269000042, 24.539066052000067 ], [ 89.603298367000036, 24.543772239000077 ], [ 89.603658600000074, 24.545981969000024 ], [ 89.606793357000072, 24.549502892000078 ], [ 89.617081445000053, 24.548108593000052 ], [ 89.615548779000051, 24.551462181000034 ], [ 89.617181100000039, 24.554415142000039 ], [ 89.60998194900003, 24.556725139000037 ], [ 89.609617554000067, 24.55880484100004 ], [ 89.605790741000078, 24.559501037000075 ], [ 89.601784961000078, 24.562426888000061 ], [ 89.593876808000061, 24.558135557000071 ], [ 89.591435986000079, 24.553916873000048 ], [ 89.588871199000039, 24.555687985000077 ], [ 89.586873947000072, 24.55271171000004 ], [ 89.581026117000079, 24.552735084000062 ], [ 89.578410358000042, 24.549871566000036 ], [ 89.576699936000068, 24.550436325000078 ], [ 89.575788118000048, 24.547501896000028 ], [ 89.574419083000066, 24.549501913000029 ], [ 89.568759355000054, 24.546807414000057 ], [ 89.56519376500006, 24.547495425000022 ], [ 89.564110834000076, 24.55335602200006 ], [ 89.555801624000082, 24.555445708000036 ], [ 89.554012251000074, 24.554989414000033 ], [ 89.552846498000065, 24.552364560000058 ], [ 89.553174825000042, 24.548093623000057 ], [ 89.546500341000069, 24.547585428000048 ], [ 89.547158042000035, 24.551751500000023 ], [ 89.545754231000046, 24.553587449000077 ], [ 89.538587230000076, 24.553862029000072 ], [ 89.532855845000086, 24.563256329000069 ], [ 89.530545182000083, 24.563393652000059 ], [ 89.528873892000036, 24.561640845000056 ] ] ] } },
{ "type": "Feature", "properties": { "name": "Shahjadpur" }, "geometry": { "type": "Polygon", "coordinates": [ [ [ 89.619693363000067, 24.236662712000054 ], [ 89.612332858000059, 24.232880644000033 ], [ 89.609105928000076, 24.235396257000048 ], [ 89.605323002000034, 24.234806194000043 ], [ 89.605659461000073, 24.243185880000055 ], [ 89.600724215000071, 24.243562513000029 ], [ 89.597275958000068, 24.246603394000033 ], [ 89.594431434000057, 24.24432882800005 ], [ 89.594966060000047, 24.250182935000055 ], [ 89.593071510000073, 24.251379123000049 ], [ 89.593207539000048, 24.253326994000076 ], [ 89.594519131000084, 24.258321753000075 ], [ 89.597555072000034, 24.259348164000073 ], [ 89.59878606400008, 24.263022885000055 ], [ 89.597590198000034, 24.267064323000056 ], [ 89.591729199000042, 24.256528797000044 ], [ 89.586979391000057, 24.252220175000048 ], [ 89.577662534000069, 24.253802840000048 ], [ 89.57629610400005, 24.252658199000052 ], [ 89.570504189000076, 24.254992507000054 ], [ 89.564394207000078, 24.249056988000063 ], [ 89.561125319000041, 24.251476610000054 ], [ 89.556575685000041, 24.249096499000075 ], [ 89.548125062000054, 24.251783458000034 ], [ 89.546772897000039, 24.24982121100004 ], [ 89.550815745000079, 24.246305122000024 ], [ 89.551849788000084, 24.242687512000032 ], [ 89.543515541000033, 24.244081875000063 ], [ 89.543806781000058, 24.23914908200004 ], [ 89.536402295000073, 24.240539634000072 ], [ 89.534875643000078, 24.237377768000044 ], [ 89.532671275000041, 24.236665401000039 ], [ 89.527667189000056, 24.239449836000063 ], [ 89.517905348000056, 24.225703764000059 ], [ 89.515145441000072, 24.225722096000027 ], [ 89.516196818000083, 24.220668151000041 ], [ 89.519527653000068, 24.218235570000047 ], [ 89.526688412000055, 24.207539944000075 ], [ 89.523931975000039, 24.203579894000029 ], [ 89.520991130000084, 24.203807201000075 ], [ 89.518303507000041, 24.201666068000065 ], [ 89.515632891000052, 24.197327929000039 ], [ 89.521678681000083, 24.197761366000066 ], [ 89.525133084000061, 24.19176593800006 ], [ 89.521121697000069, 24.188786966000066 ], [ 89.51735650300003, 24.189116610000042 ], [ 89.515700459000072, 24.185383431000048 ], [ 89.517860222000081, 24.178791885000066 ], [ 89.523681023000051, 24.17553384200005 ], [ 89.530551513000034, 24.175647724000044 ], [ 89.535118527000066, 24.172804228000075 ], [ 89.535178312000085, 24.168187385000067 ], [ 89.533789153000043, 24.16679335200007 ], [ 89.525740545000076, 24.169437483000024 ], [ 89.522726294000051, 24.167608707000056 ], [ 89.525197075000051, 24.163161405000039 ], [ 89.529362935000051, 24.159727488000044 ], [ 89.528117161000068, 24.15585287600004 ], [ 89.52168856600008, 24.154244364000078 ], [ 89.523060757000053, 24.150691190000032 ], [ 89.528075345000047, 24.146047970000041 ], [ 89.53027363700005, 24.141679317000069 ], [ 89.529293472000063, 24.136532577000025 ], [ 89.531861219000064, 24.135546952000027 ], [ 89.532919845000038, 24.130127604000052 ], [ 89.536109274000069, 24.131706073000032 ], [ 89.538115392000066, 24.128978841000048 ], [ 89.541243159000032, 24.128281514000037 ], [ 89.54579792100003, 24.131495849000032 ], [ 89.546741961000066, 24.129442742000037 ], [ 89.545654937000052, 24.125480098000025 ], [ 89.546867357000053, 24.124140187000023 ], [ 89.548545255000079, 24.124844572000029 ], [ 89.550465841000062, 24.129678983000076 ], [ 89.564058471000067, 24.123166776000062 ], [ 89.564099975000033, 24.120719775000055 ], [ 89.561182864000045, 24.117176507000067 ], [ 89.555421066000065, 24.118996176000053 ], [ 89.555727475000083, 24.115309736000029 ], [ 89.559084348000056, 24.111523742000031 ], [ 89.565756327000031, 24.109322656000074 ], [ 89.568912665000084, 24.112764339000023 ], [ 89.575017793000086, 24.11112913900007 ], [ 89.580793431000075, 24.111574116000043 ], [ 89.581105372000081, 24.108037222000064 ], [ 89.590139418000035, 24.10791325200006 ], [ 89.593106663000071, 24.102398064000056 ], [ 89.604567516000031, 24.098292571000059 ], [ 89.604664754000055, 24.096664220000036 ], [ 89.608212934000051, 24.096270297000046 ], [ 89.610285279000038, 24.098100081000041 ], [ 89.611564858000065, 24.096918437000056 ], [ 89.616294218000064, 24.096973848000061 ], [ 89.63000205700007, 24.083327351000037 ], [ 89.637092812000049, 24.08683187500003 ], [ 89.644169615000067, 24.082165903000032 ], [ 89.65950121700007, 24.075637245000053 ], [ 89.666256450000049, 24.069480335000037 ], [ 89.675426195000057, 24.063822204000076 ], [ 89.681270795000046, 24.062030873000026 ], [ 89.684588440000084, 24.05838873700003 ], [ 89.684745679000059, 24.063478705000023 ], [ 89.68926915600008, 24.065316976000076 ], [ 89.690247279000062, 24.069676427000047 ], [ 89.692661593000082, 24.069705572000032 ], [ 89.689400232000082, 24.071776388000046 ], [ 89.689429958000062, 24.073219341000026 ], [ 89.69580103900006, 24.075879138000062 ], [ 89.697438456000043, 24.075058197000033 ], [ 89.701485198000057, 24.078043948000072 ], [ 89.707256622000045, 24.076928901000031 ], [ 89.711911511000039, 24.08057376000005 ], [ 89.710918216000039, 24.090158420000023 ], [ 89.713742210000078, 24.089605431000052 ], [ 89.715731220000066, 24.082740164000029 ], [ 89.720838611000033, 24.084349964000069 ], [ 89.725750120000043, 24.094851430000062 ], [ 89.736954681000043, 24.094807893000052 ], [ 89.737976108000055, 24.096463665000044 ], [ 89.740158575000066, 24.095079257000066 ], [ 89.742343275000053, 24.097474789000046 ], [ 89.743749256000058, 24.104326934000028 ], [ 89.748406790000047, 24.107968430000028 ], [ 89.760567434000052, 24.10536581100007 ], [ 89.765385312000035, 24.112929833000067 ], [ 89.742334080000035, 24.122965818000068 ], [ 89.741089920000036, 24.122595090000061 ], [ 89.741213810000033, 24.11864203600004 ], [ 89.737777397000059, 24.119455281000057 ], [ 89.737198712000065, 24.120619999000041 ], [ 89.740101380000056, 24.124938948000079 ], [ 89.736168578000047, 24.129573036000068 ], [ 89.728170479000084, 24.129092161000074 ], [ 89.722061367000038, 24.131051299000035 ], [ 89.712255223000057, 24.140148810000028 ], [ 89.714376202000039, 24.145302794000031 ], [ 89.717444629000056, 24.147998947000076 ], [ 89.715985264000039, 24.148614374000033 ], [ 89.718061155000044, 24.151595996000026 ], [ 89.725514985000075, 24.152478361000078 ], [ 89.724627113000054, 24.156552501000078 ], [ 89.726891497000054, 24.157844774000068 ], [ 89.725835290000077, 24.162671104000026 ], [ 89.723443873000065, 24.164336597000045 ], [ 89.730763064000087, 24.164657909000027 ], [ 89.73317669000005, 24.166771145000041 ], [ 89.730727984000055, 24.168624069000032 ], [ 89.730212461000065, 24.175168038000038 ], [ 89.721882737000044, 24.180048461000069 ], [ 89.722566140000083, 24.183007712000062 ], [ 89.720166624000058, 24.184382411000058 ], [ 89.721185912000067, 24.189368287000036 ], [ 89.714783447000059, 24.192667257000039 ], [ 89.716146587000082, 24.197386230000063 ], [ 89.712632426000084, 24.199200168000061 ], [ 89.711951692000071, 24.203199514000062 ], [ 89.713286787000072, 24.20449869600003 ], [ 89.710556433000079, 24.204708045000075 ], [ 89.71183426500005, 24.207250728000076 ], [ 89.715467742000044, 24.206410239000036 ], [ 89.715501513000049, 24.20741681100003 ], [ 89.710678534000067, 24.208828016000041 ], [ 89.708727933000034, 24.212272279000047 ], [ 89.70663858000006, 24.213097522000055 ], [ 89.708967336000057, 24.217026407000048 ], [ 89.709161466000069, 24.221393196000065 ], [ 89.702120880000052, 24.226027689000034 ], [ 89.698334754000086, 24.22240855900003 ], [ 89.697180182000068, 24.223888081000041 ], [ 89.699835584000084, 24.226557219000028 ], [ 89.698312280000039, 24.229988628000058 ], [ 89.695097119000081, 24.228165098000034 ], [ 89.693869087000053, 24.225444564000043 ], [ 89.689096017000054, 24.224939261000031 ], [ 89.687858044000052, 24.226867320000053 ], [ 89.684124241000063, 24.22777072100007 ], [ 89.682037337000054, 24.231781101000024 ], [ 89.677153908000037, 24.233587382000053 ], [ 89.674173262000068, 24.229923641000028 ], [ 89.668667365000033, 24.232113870000035 ], [ 89.656379525000034, 24.232226061000063 ], [ 89.657207934000041, 24.228384820000031 ], [ 89.65550998100008, 24.223195499000042 ], [ 89.653548782000087, 24.22298952400007 ], [ 89.650334868000073, 24.218981007000025 ], [ 89.652938120000044, 24.217778932000044 ], [ 89.65323268800006, 24.21378463800005 ], [ 89.650458936000064, 24.211296193000067 ], [ 89.646891467000046, 24.21210592500006 ], [ 89.648444634000043, 24.219970173000036 ], [ 89.647485593000056, 24.222556184000041 ], [ 89.644919941000069, 24.223575355000037 ], [ 89.645557316000065, 24.229368031000035 ], [ 89.634228393000058, 24.229518487000064 ], [ 89.630764681000073, 24.238109681000026 ], [ 89.626059354000063, 24.23879026700007 ], [ 89.621632414000032, 24.235248398000067 ], [ 89.619693363000067, 24.236662712000054 ] ] ] } },
{ "type": "Feature", "properties": { "name": "Sirajganj Sadar" }, "geometry": { "type": "Polygon", "coordinates": [ [ [ 89.76156024200003, 24.370254739000075 ], [ 89.765992306000044, 24.375834874000077 ], [ 89.76472142700004, 24.386205997000047 ], [ 89.761313729000051, 24.394876321000027 ], [ 89.746578186000079, 24.430542161000062 ], [ 89.748031830000059, 24.441190243000051 ], [ 89.755169470000055, 24.455340080000042 ], [ 89.743142248000083, 24.455282305000026 ], [ 89.74215218900008, 24.456791183000064 ], [ 89.743454961000054, 24.462560739000025 ], [ 89.74257091000004, 24.471204876000058 ], [ 89.749174965000066, 24.472986204000051 ], [ 89.757677066000042, 24.483435687000053 ], [ 89.757982960000049, 24.485072050000042 ], [ 89.755425582000044, 24.485251952000056 ], [ 89.749022895000053, 24.48046987500004 ], [ 89.747409520000076, 24.483011876000035 ], [ 89.758156050000082, 24.499551874000076 ], [ 89.755513758000063, 24.506324788000029 ], [ 89.750278614000081, 24.50487961400006 ], [ 89.749508988000059, 24.509248554000067 ], [ 89.742112936000069, 24.513725417000046 ], [ 89.737426296000081, 24.514865489000044 ], [ 89.734170917000085, 24.518364648000045 ], [ 89.738558745000034, 24.523059191000073 ], [ 89.747566647000042, 24.520319302000075 ], [ 89.750018682000075, 24.529461753000078 ], [ 89.744503829000053, 24.532702786000073 ], [ 89.748590769000032, 24.534927492000065 ], [ 89.74628402500008, 24.537309683000046 ], [ 89.759173924000038, 24.537575236000066 ], [ 89.764913171000046, 24.539831483000057 ], [ 89.769925138000076, 24.540015330000074 ], [ 89.767419573000041, 24.556515153000078 ], [ 89.769995324000035, 24.561425550000024 ], [ 89.773139867000054, 24.564547361000052 ], [ 89.789068520000058, 24.572289169000044 ], [ 89.789203493000059, 24.575362372000029 ], [ 89.783269190000055, 24.579271423000023 ], [ 89.780707994000068, 24.591200183000069 ], [ 89.771621365000044, 24.600213766000024 ], [ 89.768401261000065, 24.593409178000059 ], [ 89.764276687000063, 24.592942166000057 ], [ 89.761810992000051, 24.590170661000059 ], [ 89.756477024000048, 24.596654158000035 ], [ 89.742395058000056, 24.596724426000037 ], [ 89.73926982200004, 24.592165994000027 ], [ 89.737252193000074, 24.58410178400004 ], [ 89.746017207000079, 24.570525366000027 ], [ 89.74421731700005, 24.568559072000028 ], [ 89.743271647000086, 24.571172682000054 ], [ 89.727722904000075, 24.572517627000025 ], [ 89.72931658300007, 24.575990895000075 ], [ 89.727406902000041, 24.577496861000043 ], [ 89.729031827000085, 24.584547266000072 ], [ 89.725701126000047, 24.591642328000034 ], [ 89.72074159500005, 24.59225413300004 ], [ 89.718907823000052, 24.587808873000029 ], [ 89.707084183000063, 24.589300259000026 ], [ 89.706882826000083, 24.580063374000076 ], [ 89.705026845000077, 24.584068085000069 ], [ 89.701023833000079, 24.583593372000053 ], [ 89.697793913000055, 24.582134533000044 ], [ 89.697372503000054, 24.578967551000062 ], [ 89.693600581000055, 24.577717518000043 ], [ 89.691446907000056, 24.575202341000079 ], [ 89.687857250000036, 24.56236330400003 ], [ 89.690366593000078, 24.560675618000062 ], [ 89.690253764000033, 24.557739548000029 ], [ 89.69253169600006, 24.554725395000048 ], [ 89.69276175400006, 24.548703468000042 ], [ 89.691085701000077, 24.545146098000032 ], [ 89.683393735000038, 24.545258280000041 ], [ 89.681267607000052, 24.545694656000023 ], [ 89.682348076000039, 24.549900027000035 ], [ 89.679990496000073, 24.552016340000023 ], [ 89.680728526000053, 24.554727955000033 ], [ 89.67509205600004, 24.552317454000047 ], [ 89.673719701000039, 24.556780619000051 ], [ 89.668047200000046, 24.557407783000031 ], [ 89.668914634000032, 24.573385445000042 ], [ 89.662909225000078, 24.580723265000074 ], [ 89.658291883000061, 24.577100797000071 ], [ 89.651993003000086, 24.576198462000036 ], [ 89.65135347000006, 24.581903802000056 ], [ 89.648412417000031, 24.58377327200003 ], [ 89.649245876000066, 24.586616768000056 ], [ 89.65466745100008, 24.589536329000055 ], [ 89.654823922000048, 24.591345820000072 ], [ 89.646930687000065, 24.600137222000058 ], [ 89.641766261000043, 24.596791258000053 ], [ 89.636851276000073, 24.598237509000057 ], [ 89.631324033000055, 24.596843945000046 ], [ 89.628653348000057, 24.602064940000048 ], [ 89.624456938000037, 24.603934215000038 ], [ 89.619510180000077, 24.60899241900006 ], [ 89.616944313000033, 24.607426282000063 ], [ 89.61375438400006, 24.608049206000032 ], [ 89.610894687000041, 24.61318076200007 ], [ 89.609301246000086, 24.613024227000039 ], [ 89.608171396000046, 24.610525209000059 ], [ 89.602712501000042, 24.608831040000041 ], [ 89.601701799000068, 24.605218592000028 ], [ 89.602024597000081, 24.598809901000038 ], [ 89.59930042600007, 24.594647053000074 ], [ 89.604238068000086, 24.583332330000076 ], [ 89.603888221000034, 24.577785488000075 ], [ 89.601825785000074, 24.574412980000034 ], [ 89.604574865000075, 24.570431104000079 ], [ 89.601784961000078, 24.562426888000061 ], [ 89.605790741000078, 24.559501037000075 ], [ 89.609617554000067, 24.55880484100004 ], [ 89.60998194900003, 24.556725139000037 ], [ 89.617181100000039, 24.554415142000039 ], [ 89.615548779000051, 24.551462181000034 ], [ 89.617081445000053, 24.548108593000052 ], [ 89.606793357000072, 24.549502892000078 ], [ 89.603658600000074, 24.545981969000024 ], [ 89.603298367000036, 24.543772239000077 ], [ 89.607331269000042, 24.539066052000067 ], [ 89.604674681000063, 24.53416117300003 ], [ 89.601115924000055, 24.533542171000079 ], [ 89.598707371000046, 24.517781866000064 ], [ 89.599796587000071, 24.516143265000039 ], [ 89.605707964000032, 24.514490799000043 ], [ 89.604982077000045, 24.510358069000063 ], [ 89.609686939000085, 24.507632598000043 ], [ 89.610346235000065, 24.504694507000067 ], [ 89.615322974000037, 24.499182735000034 ], [ 89.615098935000049, 24.486652453000033 ], [ 89.622177382000075, 24.484247019000065 ], [ 89.619623519000072, 24.481154041000025 ], [ 89.616768633000049, 24.482288767000057 ], [ 89.612561775000074, 24.480764669000052 ], [ 89.612060903000042, 24.479065998000067 ], [ 89.615135204000069, 24.477365182000028 ], [ 89.616605453000034, 24.472323608000067 ], [ 89.619171979000043, 24.468459461000066 ], [ 89.621956595000086, 24.468027286000051 ], [ 89.623327482000036, 24.464124508000054 ], [ 89.621867809000037, 24.460790430000031 ], [ 89.617823176000059, 24.457629896000071 ], [ 89.61738011500006, 24.452619011000024 ], [ 89.620357038000066, 24.449322606000067 ], [ 89.620243527000071, 24.44553183000005 ], [ 89.630113743000038, 24.448304187000076 ], [ 89.630051058000049, 24.443584403000045 ], [ 89.624248905000059, 24.441025417000048 ], [ 89.623515932000032, 24.438166186000046 ], [ 89.627346578000072, 24.436560687000053 ], [ 89.631307285000048, 24.43684190700003 ], [ 89.629356296000083, 24.430978376000041 ], [ 89.627049691000082, 24.43530398200005 ], [ 89.622223535000046, 24.431657306000034 ], [ 89.619548500000064, 24.433029069000042 ], [ 89.617889569000056, 24.431210643000043 ], [ 89.623656120000078, 24.430300474000035 ], [ 89.624801425000044, 24.428610998000067 ], [ 89.619413403000067, 24.423702349000052 ], [ 89.624623076000034, 24.421166718000052 ], [ 89.621535165000068, 24.415117361000057 ], [ 89.62242996100008, 24.411081843000034 ], [ 89.625381072000039, 24.408737533000078 ], [ 89.632314336000036, 24.409338769000044 ], [ 89.634245172000078, 24.410686919000057 ], [ 89.63487582700003, 24.413894148000054 ], [ 89.645029553000086, 24.412737395000079 ], [ 89.646880363000037, 24.410345484000061 ], [ 89.650106297000036, 24.410892058000059 ], [ 89.650857513000062, 24.413222292000057 ], [ 89.646966633000034, 24.413349309000068 ], [ 89.646947625000053, 24.415639945000066 ], [ 89.649502549000033, 24.416894522000064 ], [ 89.64845757300003, 24.419131974000038 ], [ 89.655831540000065, 24.422066742000027 ], [ 89.662332216000038, 24.42014294300003 ], [ 89.65837814300005, 24.423629924000068 ], [ 89.659375964000048, 24.430294217000039 ], [ 89.660842176000074, 24.430965860000072 ], [ 89.66124233000005, 24.427037381000048 ], [ 89.667109757000048, 24.421802950000028 ], [ 89.667430612000032, 24.414171815000032 ], [ 89.67703397300005, 24.41213392700007 ], [ 89.681710972000076, 24.41316103500003 ], [ 89.683315027000049, 24.410194072000024 ], [ 89.678618222000068, 24.407045066000023 ], [ 89.688248520000059, 24.403787224000041 ], [ 89.683558593000043, 24.398911617000067 ], [ 89.684923910000066, 24.39618121500007 ], [ 89.683989620000034, 24.38162055500004 ], [ 89.686631703000046, 24.374644443000022 ], [ 89.688034048000077, 24.374770959000045 ], [ 89.689621467000052, 24.380376773000023 ], [ 89.689984174000074, 24.376834217000066 ], [ 89.695131386000071, 24.376218640000047 ], [ 89.697233188000041, 24.374041099000067 ], [ 89.695250012000031, 24.367864429000065 ], [ 89.698151689000042, 24.367705968000053 ], [ 89.69856121600003, 24.365613088000032 ], [ 89.701588307000065, 24.364245107000045 ], [ 89.706911681000065, 24.372780989000034 ], [ 89.718320540000036, 24.374130302000026 ], [ 89.720047659000045, 24.376232840000057 ], [ 89.725156472000037, 24.371210885000039 ], [ 89.726699692000068, 24.377764590000027 ], [ 89.731587598000033, 24.377599462000035 ], [ 89.736324188000083, 24.373867460000042 ], [ 89.739843013000041, 24.373932811000032 ], [ 89.741579196000032, 24.372053203000064 ], [ 89.739420132000078, 24.370830208000029 ], [ 89.738457219000054, 24.355539852000049 ], [ 89.73896489200007, 24.353169859000047 ], [ 89.743456674000072, 24.352641820000031 ], [ 89.745518607000065, 24.358549321000055 ], [ 89.745884772000068, 24.370821425000031 ], [ 89.751332524000077, 24.368789821000064 ], [ 89.75641494000007, 24.370801454000059 ], [ 89.76156024200003, 24.370254739000075 ] ] ] } },
{ "type": "Feature", "properties": { "name": "Tarash" }, "geometry": { "type": "Polygon", "coordinates": [ [ [ 89.396203826000033, 24.33781261300004 ], [ 89.40470528700007, 24.34715499400005 ], [ 89.413853762000031, 24.341638418000059 ], [ 89.419961470000032, 24.348619080000049 ], [ 89.416901485000039, 24.35331000900004 ], [ 89.414985668000043, 24.360450598000057 ], [ 89.41900329300006, 24.364428669000063 ], [ 89.427818750000085, 24.363572015000045 ], [ 89.431318206000071, 24.367988102000027 ], [ 89.427840124000056, 24.372314145000075 ], [ 89.419460706000052, 24.376472388000025 ], [ 89.425680827000065, 24.377553348000049 ], [ 89.430086304000042, 24.379962228000068 ], [ 89.43069952500008, 24.386909279000065 ], [ 89.424566083000059, 24.38637921000003 ], [ 89.417281759000048, 24.389804825000056 ], [ 89.410812603000068, 24.390746182000044 ], [ 89.410605133000047, 24.392289211000048 ], [ 89.411003357000084, 24.394736059000024 ], [ 89.42077867200004, 24.393770119000067 ], [ 89.432460194000043, 24.400126293000028 ], [ 89.433082550000051, 24.406039236000026 ], [ 89.431697360000044, 24.410054227000046 ], [ 89.428118844000039, 24.410757069000056 ], [ 89.422807223000063, 24.416528407000044 ], [ 89.42469625800004, 24.419142897000029 ], [ 89.433660154000052, 24.42475538900004 ], [ 89.438832853000065, 24.429316408000034 ], [ 89.437889624000036, 24.433752484000024 ], [ 89.435590865000052, 24.433876013000031 ], [ 89.435416958000076, 24.439215835000027 ], [ 89.442462601000045, 24.447285128000033 ], [ 89.442151873000057, 24.449795317000053 ], [ 89.438868547000084, 24.451341110000044 ], [ 89.440433865000045, 24.455954123000026 ], [ 89.439796844000057, 24.459023615000035 ], [ 89.441742377000082, 24.461141933000079 ], [ 89.444223890000046, 24.460941092000041 ], [ 89.447371097000087, 24.468020369000044 ], [ 89.454286033000074, 24.468466026000044 ], [ 89.454561993000084, 24.478919888000064 ], [ 89.453927627000041, 24.479851794000069 ], [ 89.448958904000051, 24.479058738000049 ], [ 89.449772297000038, 24.477316360000032 ], [ 89.447935265000069, 24.474203382000042 ], [ 89.440850203000082, 24.470878569000035 ], [ 89.430042090000086, 24.471523459000025 ], [ 89.428550334000079, 24.478255889000025 ], [ 89.421481261000054, 24.478582909000068 ], [ 89.419790090000049, 24.476897132000033 ], [ 89.411386991000086, 24.479947752000044 ], [ 89.414567935000036, 24.483433279000053 ], [ 89.414020811000057, 24.487167930000055 ], [ 89.416196787000047, 24.489136749000068 ], [ 89.41587306200006, 24.491183384000067 ], [ 89.419362808000074, 24.491718407000064 ], [ 89.419488124000054, 24.494384866000075 ], [ 89.425878699000066, 24.498728598000071 ], [ 89.419728383000063, 24.510310510000068 ], [ 89.416212212000062, 24.511845280000045 ], [ 89.416098013000067, 24.51406262200004 ], [ 89.412811660000045, 24.516494004000037 ], [ 89.411307246000035, 24.521252224000023 ], [ 89.404403890000083, 24.52216214200007 ], [ 89.404399358000035, 24.52613199700005 ], [ 89.400885401000039, 24.526808422000045 ], [ 89.399904973000048, 24.540243249000071 ], [ 89.389450560000057, 24.541069992000075 ], [ 89.392375094000045, 24.544805556000028 ], [ 89.391806569000039, 24.54842710500003 ], [ 89.393627371000036, 24.551825719000078 ], [ 89.393325965000031, 24.556751683000073 ], [ 89.391991917000041, 24.557279158000028 ], [ 89.38442197300003, 24.557454461000077 ], [ 89.382135837000078, 24.554030690000047 ], [ 89.372378341000058, 24.554265272000066 ], [ 89.367981450000059, 24.558100460000048 ], [ 89.363106196000047, 24.556883852000055 ], [ 89.360629290000077, 24.558947749000026 ], [ 89.35709261900007, 24.556775912000035 ], [ 89.352707062000036, 24.559138588000053 ], [ 89.345640902000071, 24.558897534000039 ], [ 89.345373274000053, 24.563490483000066 ], [ 89.341469163000056, 24.563043358000073 ], [ 89.339034023000067, 24.559464771000023 ], [ 89.34152997700005, 24.558608125000035 ], [ 89.33771381300005, 24.553903031000061 ], [ 89.336064658000055, 24.54578848400007 ], [ 89.337746908000042, 24.544250398000031 ], [ 89.334841794000056, 24.543874665000033 ], [ 89.332125304000044, 24.541151006000064 ], [ 89.330349426000055, 24.534861852000063 ], [ 89.326183006000065, 24.532754804000035 ], [ 89.325927390000061, 24.529434652000077 ], [ 89.321349692000069, 24.529794007000078 ], [ 89.322426198000073, 24.524654382000051 ], [ 89.317339225000069, 24.52309443300004 ], [ 89.320103901000039, 24.519602199000076 ], [ 89.315781693000076, 24.517222101000073 ], [ 89.316191248000052, 24.514391509000063 ], [ 89.311244431000034, 24.512618068000052 ], [ 89.311593588000051, 24.51007508500004 ], [ 89.309074347000035, 24.509465250000062 ], [ 89.307726208000076, 24.506908288000034 ], [ 89.304611263000083, 24.507451091000064 ], [ 89.306329646000052, 24.506046725000033 ], [ 89.305627353000034, 24.499525136000045 ], [ 89.30007523200004, 24.498415742000077 ], [ 89.294350131000044, 24.491457556000057 ], [ 89.294115527000031, 24.488345732000028 ], [ 89.289577432000044, 24.486793646000024 ], [ 89.287336800000048, 24.482705449000036 ], [ 89.283233469000038, 24.484916770000041 ], [ 89.284037319000049, 24.481289992000029 ], [ 89.280602209000051, 24.477001858000051 ], [ 89.283683765000035, 24.476303023000071 ], [ 89.285154100000057, 24.471497414000055 ], [ 89.284586380000064, 24.469864571000073 ], [ 89.280716061000078, 24.469502444000057 ], [ 89.283231108000052, 24.467255995000073 ], [ 89.279438692000042, 24.467632519000063 ], [ 89.278952380000078, 24.466610223000032 ], [ 89.284282316000031, 24.465395440000066 ], [ 89.282766615000071, 24.464227729000072 ], [ 89.283906546000082, 24.462159310000061 ], [ 89.281808397000077, 24.461161553000068 ], [ 89.281159827000067, 24.456458783000073 ], [ 89.277200871000048, 24.45619606300005 ], [ 89.275437983000074, 24.448681445000034 ], [ 89.271355566000068, 24.445109689000049 ], [ 89.263657375000037, 24.440913471000044 ], [ 89.259551758000043, 24.441202752000038 ], [ 89.259686496000086, 24.438929772000051 ], [ 89.25607380200006, 24.439180165000039 ], [ 89.255344789000048, 24.434338039000068 ], [ 89.253863085000035, 24.433839660000046 ], [ 89.25165265000004, 24.436526853000032 ], [ 89.251032649000081, 24.433561507000036 ], [ 89.248415659000045, 24.433056886000031 ], [ 89.247186543000055, 24.427144847000022 ], [ 89.252713475000064, 24.423805807000065 ], [ 89.260301431000073, 24.423194521000028 ], [ 89.267551184000069, 24.427814893000061 ], [ 89.272947280000039, 24.426942860000054 ], [ 89.277951155000039, 24.42163886700007 ], [ 89.285133726000083, 24.420504527000048 ], [ 89.285943739000061, 24.413335159000042 ], [ 89.283347606000063, 24.403175539000074 ], [ 89.287635221000073, 24.400213141000052 ], [ 89.286397177000083, 24.395942223000077 ], [ 89.286975794000057, 24.385973117000049 ], [ 89.283362154000031, 24.379123219000064 ], [ 89.288706279000053, 24.375364782000077 ], [ 89.289324644000033, 24.371073789000036 ], [ 89.29325736100003, 24.364829417000067 ], [ 89.300146278000057, 24.367124888000035 ], [ 89.305850461000034, 24.359985755000025 ], [ 89.312179269000069, 24.356631733000029 ], [ 89.313084106000076, 24.350982108000039 ], [ 89.318640740000035, 24.353065794000031 ], [ 89.321847499000057, 24.350698101000035 ], [ 89.332558290000065, 24.350922290000028 ], [ 89.333468090000054, 24.348733320000065 ], [ 89.336043700000062, 24.349292154000068 ], [ 89.336437042000057, 24.351077605000057 ], [ 89.338216613000043, 24.349983532000067 ], [ 89.338913050000031, 24.352199862000077 ], [ 89.345897334000085, 24.349163365000038 ], [ 89.348518894000051, 24.349846371000069 ], [ 89.349857433000068, 24.348464639000042 ], [ 89.353511809000054, 24.348266887000023 ], [ 89.359203261000062, 24.352446126000075 ], [ 89.366053971000042, 24.353870856000071 ], [ 89.37212149700008, 24.349088472000062 ], [ 89.378290935000052, 24.348262657000078 ], [ 89.378407031000052, 24.343728140000053 ], [ 89.375026836000075, 24.338306018000026 ], [ 89.377562019000038, 24.338498765000054 ], [ 89.379665558000056, 24.34136475400004 ], [ 89.383825105000085, 24.340870289000065 ], [ 89.392309622000084, 24.334437867000076 ], [ 89.396203826000033, 24.33781261300004 ] ] ] } },
{ "type": "Feature", "properties": { "name": "Ullah Para" }, "geometry": { "type": "Polygon", "coordinates": [ [ [ 89.632466082000064, 24.301970028000028 ], [ 89.632012478000036, 24.306765421000023 ], [ 89.627362578000032, 24.31343653600004 ], [ 89.626308909000045, 24.322378873000048 ], [ 89.62349312300006, 24.323085433000074 ], [ 89.622995685000035, 24.330060169000035 ], [ 89.624716705000083, 24.334227547000069 ], [ 89.622708789000058, 24.336549959000024 ], [ 89.62065491900006, 24.335969059000035 ], [ 89.619804571000032, 24.347264617000064 ], [ 89.617842347000078, 24.348839688000055 ], [ 89.618148530000042, 24.351936114000068 ], [ 89.614601875000062, 24.355188755000029 ], [ 89.615697186000034, 24.357214658000032 ], [ 89.613513810000086, 24.358903702000077 ], [ 89.61416790100003, 24.364291705000028 ], [ 89.619522661000076, 24.367780785000036 ], [ 89.624185308000051, 24.376599541000076 ], [ 89.620572714000048, 24.376982294000072 ], [ 89.616766678000033, 24.370790462000059 ], [ 89.608372323000083, 24.366577695000046 ], [ 89.608454745000074, 24.370931793000068 ], [ 89.612665407000065, 24.372024730000078 ], [ 89.611195749000046, 24.373995540000067 ], [ 89.612074749000044, 24.377367211000035 ], [ 89.605681908000065, 24.381059384000025 ], [ 89.604732954000042, 24.383187279000026 ], [ 89.598593147000031, 24.384954348000065 ], [ 89.597608145000038, 24.382749680000074 ], [ 89.594700573000068, 24.383263515000067 ], [ 89.597789428000056, 24.387494657000047 ], [ 89.59731903800008, 24.389089204000072 ], [ 89.591559343000085, 24.39424333200003 ], [ 89.589298393000036, 24.393796356000053 ], [ 89.58881999700003, 24.395729543000073 ], [ 89.586142408000057, 24.396497289000024 ], [ 89.595120020000081, 24.401239505000035 ], [ 89.590543246000038, 24.408203083000046 ], [ 89.588425672000085, 24.407379406000075 ], [ 89.586412256000074, 24.409407185000077 ], [ 89.584428348000074, 24.416619787000059 ], [ 89.587192002000052, 24.417102642000032 ], [ 89.586576884000067, 24.421414734000052 ], [ 89.579849596000031, 24.420575453000026 ], [ 89.578940326000065, 24.423248568000076 ], [ 89.575950471000056, 24.418290849000073 ], [ 89.575424094000084, 24.423787419000064 ], [ 89.57043051800008, 24.429282658000034 ], [ 89.567811274000064, 24.428790876000051 ], [ 89.565709180000056, 24.432753716000036 ], [ 89.564062688000035, 24.431400439000072 ], [ 89.562956157000031, 24.432869409000034 ], [ 89.560494069000072, 24.432117728000037 ], [ 89.557669139000041, 24.430137770000044 ], [ 89.558079067000051, 24.436616932000049 ], [ 89.556672506000041, 24.437189151000041 ], [ 89.554598059000057, 24.435336081000059 ], [ 89.551998609000066, 24.438125399000057 ], [ 89.544870447000051, 24.435418898000023 ], [ 89.536695974000054, 24.435163213000067 ], [ 89.535147648000077, 24.432084880000048 ], [ 89.529319809000071, 24.43055462600006 ], [ 89.531720804000031, 24.422743485000069 ], [ 89.528745549000064, 24.42232556700003 ], [ 89.527839755000059, 24.418554284000038 ], [ 89.523716252000042, 24.421709784000029 ], [ 89.515797155000087, 24.422955296000055 ], [ 89.513765834000083, 24.411351579000041 ], [ 89.507669067000052, 24.410811992000049 ], [ 89.505428531000064, 24.408927233000043 ], [ 89.507420016000083, 24.418120608000038 ], [ 89.50703201500005, 24.426035012000057 ], [ 89.509116869000081, 24.426969224000061 ], [ 89.511567760000048, 24.424356286000034 ], [ 89.514453360000061, 24.434099419000063 ], [ 89.511007525000082, 24.433826405000048 ], [ 89.509200909000072, 24.437036379000062 ], [ 89.507864192000056, 24.435125234000054 ], [ 89.499240229000065, 24.434670192000056 ], [ 89.497617692000063, 24.432347637000078 ], [ 89.494689033000043, 24.433440306000023 ], [ 89.490579964000062, 24.430145793000065 ], [ 89.483068328000059, 24.428408263000051 ], [ 89.480129045000069, 24.420726969000043 ], [ 89.480704851000041, 24.417789153000058 ], [ 89.476282003000051, 24.419037213000024 ], [ 89.473720859000082, 24.422221569000044 ], [ 89.464908480000076, 24.424659681000037 ], [ 89.458035380000069, 24.424566359000039 ], [ 89.455295241000044, 24.422496190000061 ], [ 89.44973843300005, 24.421778963000065 ], [ 89.433660154000052, 24.42475538900004 ], [ 89.42469625800004, 24.419142897000029 ], [ 89.422807223000063, 24.416528407000044 ], [ 89.428118844000039, 24.410757069000056 ], [ 89.431697360000044, 24.410054227000046 ], [ 89.433082550000051, 24.406039236000026 ], [ 89.432460194000043, 24.400126293000028 ], [ 89.42077867200004, 24.393770119000067 ], [ 89.411003357000084, 24.394736059000024 ], [ 89.410605133000047, 24.392289211000048 ], [ 89.410812603000068, 24.390746182000044 ], [ 89.417281759000048, 24.389804825000056 ], [ 89.424566083000059, 24.38637921000003 ], [ 89.43069952500008, 24.386909279000065 ], [ 89.430086304000042, 24.379962228000068 ], [ 89.425680827000065, 24.377553348000049 ], [ 89.419460706000052, 24.376472388000025 ], [ 89.427840124000056, 24.372314145000075 ], [ 89.431318206000071, 24.367988102000027 ], [ 89.427818750000085, 24.363572015000045 ], [ 89.41900329300006, 24.364428669000063 ], [ 89.414985668000043, 24.360450598000057 ], [ 89.416901485000039, 24.35331000900004 ], [ 89.419961470000032, 24.348619080000049 ], [ 89.413853762000031, 24.341638418000059 ], [ 89.40470528700007, 24.34715499400005 ], [ 89.396203826000033, 24.33781261300004 ], [ 89.400760992000073, 24.332776348000039 ], [ 89.398913482000069, 24.330477829000074 ], [ 89.398539293000056, 24.323611732000074 ], [ 89.400363019000054, 24.321515701000067 ], [ 89.401502281000035, 24.322903169000028 ], [ 89.403403227000069, 24.322393025000054 ], [ 89.404533571000059, 24.319764171000031 ], [ 89.407304856000053, 24.322568056000023 ], [ 89.414906001000077, 24.323006225000029 ], [ 89.418438489000039, 24.321736737000037 ], [ 89.417691041000069, 24.316661457000066 ], [ 89.419788173000086, 24.31862258600006 ], [ 89.422264276000078, 24.317986829000063 ], [ 89.422088918000043, 24.316583993000052 ], [ 89.419384335000075, 24.315590349000047 ], [ 89.419632646000082, 24.311446886000056 ], [ 89.423929379000072, 24.310880701000031 ], [ 89.423540661000061, 24.308506150000028 ], [ 89.425450170000033, 24.307054203000064 ], [ 89.421169939000038, 24.303538170000024 ], [ 89.41906373900008, 24.304496520000043 ], [ 89.418223634000071, 24.301993219000053 ], [ 89.421204541000066, 24.297947116000046 ], [ 89.417509685000084, 24.293514799000036 ], [ 89.421604351000042, 24.291199132000031 ], [ 89.420587475000048, 24.283142919000056 ], [ 89.425007995000044, 24.280446802000029 ], [ 89.42354483400004, 24.272257384000056 ], [ 89.426909266000052, 24.27235872600005 ], [ 89.427355270000078, 24.269226392000064 ], [ 89.429142650000074, 24.268229461000033 ], [ 89.429163140000071, 24.26467610900005 ], [ 89.427474565000068, 24.26493281200004 ], [ 89.424372112000071, 24.257562482000026 ], [ 89.424597601000073, 24.250346961000048 ], [ 89.428443138000034, 24.248331003000033 ], [ 89.430829579000033, 24.252101679000077 ], [ 89.439357729000051, 24.252356881000026 ], [ 89.43844309900004, 24.255730828000026 ], [ 89.440390182000044, 24.260947075000047 ], [ 89.442793509000069, 24.262813621000078 ], [ 89.448387742000079, 24.263091418000045 ], [ 89.447989559000064, 24.268249936000075 ], [ 89.452650087000052, 24.265906103000077 ], [ 89.454512618000081, 24.263331402000063 ], [ 89.46028165000007, 24.262034473000028 ], [ 89.459658201000082, 24.258180202000062 ], [ 89.463221253000086, 24.25034362100007 ], [ 89.461375276000069, 24.249294490000068 ], [ 89.458316571000069, 24.240009097000041 ], [ 89.45576314300007, 24.238306524000052 ], [ 89.456568512000047, 24.23377656100007 ], [ 89.445838377000086, 24.233659979000038 ], [ 89.44658062700006, 24.231273765000026 ], [ 89.451354324000079, 24.229071477000048 ], [ 89.45426389000005, 24.227678051000055 ], [ 89.45740829500005, 24.230699144000027 ], [ 89.461434996000037, 24.229620590000025 ], [ 89.466560394000055, 24.231354117000024 ], [ 89.468369331000076, 24.230228081000064 ], [ 89.471008595000058, 24.232017110000072 ], [ 89.471128685000053, 24.234537406000072 ], [ 89.474459314000057, 24.233798170000057 ], [ 89.478165988000057, 24.229369517000066 ], [ 89.477787135000085, 24.223777506000033 ], [ 89.473466659000053, 24.219207191000066 ], [ 89.470637753000062, 24.219275284000048 ], [ 89.46937924100007, 24.222266089000072 ], [ 89.463968262000037, 24.221412258000043 ], [ 89.463529129000051, 24.224927482000055 ], [ 89.46143130300004, 24.224571787000059 ], [ 89.464111299000081, 24.216060267000046 ], [ 89.467664425000066, 24.215067369000053 ], [ 89.46610959000003, 24.207405742000049 ], [ 89.468530031000057, 24.20811586700006 ], [ 89.469202736000057, 24.204178064000075 ], [ 89.467915035000033, 24.203406993000044 ], [ 89.469603088000042, 24.200681868000061 ], [ 89.471818016000043, 24.203372591000061 ], [ 89.475526301000059, 24.202714219000029 ], [ 89.478837138000074, 24.205119026000034 ], [ 89.485913862000075, 24.203754417000027 ], [ 89.487928041000032, 24.210730985000055 ], [ 89.485717148000049, 24.214356042000077 ], [ 89.48954393300005, 24.217077911000047 ], [ 89.493002401000069, 24.217256551000048 ], [ 89.492425915000069, 24.214630309000029 ], [ 89.500781056000051, 24.217068868000069 ], [ 89.504414845000042, 24.215448224000056 ], [ 89.504463326000064, 24.212541244000079 ], [ 89.508576447000053, 24.204569247000052 ], [ 89.512018604000048, 24.202485473000024 ], [ 89.509692569000038, 24.201512158000071 ], [ 89.510072468000033, 24.200017469000045 ], [ 89.515632891000052, 24.197327929000039 ], [ 89.518303507000041, 24.201666068000065 ], [ 89.520991130000084, 24.203807201000075 ], [ 89.523931975000039, 24.203579894000029 ], [ 89.526688412000055, 24.207539944000075 ], [ 89.519527653000068, 24.218235570000047 ], [ 89.516196818000083, 24.220668151000041 ], [ 89.515145441000072, 24.225722096000027 ], [ 89.517905348000056, 24.225703764000059 ], [ 89.527667189000056, 24.239449836000063 ], [ 89.532671275000041, 24.236665401000039 ], [ 89.534875643000078, 24.237377768000044 ], [ 89.536402295000073, 24.240539634000072 ], [ 89.543806781000058, 24.23914908200004 ], [ 89.543515541000033, 24.244081875000063 ], [ 89.551849788000084, 24.242687512000032 ], [ 89.550815745000079, 24.246305122000024 ], [ 89.546772897000039, 24.24982121100004 ], [ 89.548125062000054, 24.251783458000034 ], [ 89.556575685000041, 24.249096499000075 ], [ 89.561125319000041, 24.251476610000054 ], [ 89.564394207000078, 24.249056988000063 ], [ 89.570504189000076, 24.254992507000054 ], [ 89.57629610400005, 24.252658199000052 ], [ 89.577662534000069, 24.253802840000048 ], [ 89.586979391000057, 24.252220175000048 ], [ 89.591729199000042, 24.256528797000044 ], [ 89.597590198000034, 24.267064323000056 ], [ 89.59878606400008, 24.263022885000055 ], [ 89.597555072000034, 24.259348164000073 ], [ 89.594519131000084, 24.258321753000075 ], [ 89.593207539000048, 24.253326994000076 ], [ 89.593071510000073, 24.251379123000049 ], [ 89.594966060000047, 24.250182935000055 ], [ 89.594431434000057, 24.24432882800005 ], [ 89.597275958000068, 24.246603394000033 ], [ 89.600724215000071, 24.243562513000029 ], [ 89.605659461000073, 24.243185880000055 ], [ 89.605323002000034, 24.234806194000043 ], [ 89.609105928000076, 24.235396257000048 ], [ 89.612332858000059, 24.232880644000033 ], [ 89.619693363000067, 24.236662712000054 ], [ 89.616959046000034, 24.240903693000064 ], [ 89.61791812000007, 24.246188094000047 ], [ 89.615479614000037, 24.25935727600006 ], [ 89.61669329700004, 24.26507472000003 ], [ 89.623532667000063, 24.272518295000054 ], [ 89.62773091300005, 24.269727045000025 ], [ 89.630731707000052, 24.269892986000059 ], [ 89.632896731000073, 24.271833880000031 ], [ 89.634620348000055, 24.281723460000023 ], [ 89.632835691000082, 24.283966410000062 ], [ 89.635047297000085, 24.291249754000034 ], [ 89.639133015000084, 24.288964281000062 ], [ 89.640720532000046, 24.290233073000024 ], [ 89.639894464000065, 24.293791378000037 ], [ 89.636421557000062, 24.293435944000066 ], [ 89.637981404000072, 24.296218669000041 ], [ 89.632839520000061, 24.296018355000058 ], [ 89.632466082000064, 24.301970028000028 ] ] ] } }
]
}
