{"type": "Feature", "properties": {}, "geometry": {"type": "MultiPolygon", "coordinates": [[[[89.32243675013041, 24.369567683881073], [89.30513888888889, 24.389027777777777], [89.28819444444444, 24.37597222222222], [89.28347222222223, 24.379027777777775], [89.2851388888889, 24.420416666666664], [89.27180555555556, 24.42736111111111], [89.2598611111111, 24.423194444444444], [89.24708333333334, 24.42736111111111], [89.25125, 24.436249999999998], [89.27541666666667, 24.44847222222222], [89.28375, 24.462083333333332], [89.27902777777778, 24.466527777777777], [89.2851388888889, 24.470972222222223], [89.28347222222223, 24.484583333333333], [89.29319444444445, 24.480138888888888], [89.29486111111112, 24.49236111111111], [89.33763888888889, 24.544305555555553], [89.34236111111112, 24.533194444444444], [89.33652777777777, 24.52847222222222], [89.33541666666667, 24.518194444444443], [89.34069444444445, 24.517916666666665], [89.34236111111112, 24.52875], [89.3476388888889, 24.521805555555556], [89.35013888888889, 24.533749999999998], [89.34847222222223, 24.519305555555555], [89.35902777777778, 24.52486111111111], [89.35902777777778, 24.498194444444444], [89.36041666666667, 24.507916666666667], [89.36569444444444, 24.507916666666667], [89.3601388888889, 24.50958333333333], [89.35930555555557, 24.535138888888888], [89.38347222222222, 24.53486111111111], [89.37902777777778, 24.532083333333333], [89.38847222222222, 24.526805555555555], [89.39041666666667, 24.511527777777776], [89.39763888888889, 24.51597222222222], [89.39930555555556, 24.50958333333333], [89.39847222222222, 24.517916666666665], [89.40513888888889, 24.52236111111111], [89.39819444444444, 24.52847222222222], [89.40875, 24.524305555555554], [89.40652777777778, 24.532916666666665], [89.41680555555556, 24.524027777777775], [89.42819444444444, 24.53763888888889], [89.42291666666667, 24.541527777777777], [89.43152777777777, 24.539861111111108], [89.42486111111111, 24.53013888888889], [89.43125, 24.527083333333334], [89.41736111111112, 24.51986111111111], [89.43791666666667, 24.49236111111111], [89.43375, 24.484305555555554], [89.44236111111111, 24.482916666666664], [89.43375, 24.474305555555553], [89.43708333333333, 24.464027777777776], [89.44680555555556, 24.47486111111111], [89.44402777777778, 24.463194444444444], [89.45430555555556, 24.459305555555556], [89.45541666666666, 24.450694444444444], [89.46180555555556, 24.455694444444443], [89.45486111111111, 24.456805555555555], [89.45930555555556, 24.46013888888889], [89.45263888888888, 24.46847222222222], [89.45875000000001, 24.474027777777778], [89.45263888888888, 24.479027777777777], [89.46819444444445, 24.484027777777776], [89.4551388888889, 24.47986111111111], [89.4551388888889, 24.48708333333333], [89.46236111111111, 24.489305555555553], [89.46736111111112, 24.50263888888889], [89.47533051099228, 24.502364081996433], [89.47847222222222, 24.48875], [89.46680555555555, 24.490694444444443], [89.46930555555556, 24.498194444444444], [89.46458333333334, 24.48847222222222], [89.47458333333334, 24.485416666666666], [89.46652777777778, 24.481805555555553], [89.48152777777779, 24.483472222222222], [89.4851388888889, 24.491249999999997], [89.48819444444445, 24.484027777777776], [89.48680555555556, 24.49597222222222], [89.48152777777779, 24.49375], [89.47875, 24.499305555555555], [89.49208333333334, 24.50208333333333], [89.48208333333334, 24.50847222222222], [89.48652777777778, 24.51486111111111], [89.49347222222222, 24.50986111111111], [89.49097222222223, 24.521527777777777], [89.49930555555555, 24.52375], [89.50736111111111, 24.514305555555556], [89.50097222222223, 24.51097222222222], [89.50736111111111, 24.50958333333333], [89.50680555555556, 24.50208333333333], [89.49402777777777, 24.49597222222222], [89.50930555555556, 24.490972222222222], [89.50291666666666, 24.487916666666667], [89.5001388888889, 24.47236111111111], [89.50958333333334, 24.46875], [89.50597222222223, 24.480138888888888], [89.51458333333333, 24.483749999999997], [89.51291666666667, 24.477638888888887], [89.52930555555555, 24.472638888888888], [89.52291666666667, 24.467916666666664], [89.51986111111111, 24.47236111111111], [89.51486111111112, 24.461805555555554], [89.50930555555556, 24.462083333333332], [89.51180555555555, 24.455972222222222], [89.52708333333334, 24.470694444444444], [89.53375, 24.463749999999997], [89.52875, 24.456805555555555], [89.53541666666666, 24.452916666666667], [89.53569444444445, 24.46013888888889], [89.54208333333334, 24.457638888888887], [89.54652777777778, 24.44763888888889], [89.54013888888889, 24.442916666666665], [89.54180555555556, 24.42625], [89.53643979833926, 24.4226339462238], [89.54375, 24.41986111111111], [89.54013888888889, 24.42347222222222], [89.54791666666667, 24.42375], [89.54680555555557, 24.428194444444443], [89.5523096707819, 24.42373873211836], [89.52958333333333, 24.412916666666664], [89.53038898434518, 24.41855622374952], [89.52949555769642, 24.41795413187754], [89.52680555555555, 24.411805555555553], [89.5130028453835, 24.40954693025467], [89.51180555555555, 24.422916666666666], [89.52347222222222, 24.429027777777776], [89.5098611111111, 24.422083333333333], [89.51125, 24.432916666666664], [89.50847222222222, 24.436249999999998], [89.5098611111111, 24.428194444444443], [89.49902777777778, 24.425694444444442], [89.50347222222223, 24.421527777777776], [89.50708333333334, 24.42597222222222], [89.50736111111111, 24.416527777777777], [89.50152777777778, 24.414305555555554], [89.50930555555556, 24.41097222222222], [89.50625000000001, 24.400972222222222], [89.51347222222222, 24.404305555555553], [89.5131013235061, 24.408447257885566], [89.5176388888889, 24.40597222222222], [89.51513888888888, 24.40986111111111], [89.52736111111112, 24.411527777777778], [89.52902777777778, 24.403194444444445], [89.53208333333333, 24.41263888888889], [89.53847222222223, 24.41069444444444], [89.54930555555556, 24.416805555555555], [89.54569444444445, 24.41069444444444], [89.55097222222223, 24.406805555555554], [89.54152777777779, 24.399583333333332], [89.5501388888889, 24.400972222222222], [89.56347222222223, 24.415138888888887], [89.55402777777778, 24.41597222222222], [89.55597222222222, 24.419583333333332], [89.56486111111111, 24.423194444444444], [89.55291666666668, 24.424027777777777], [89.5524287878788, 24.423795454545452], [89.549116575592, 24.428891165755918], [89.55569444444444, 24.427916666666665], [89.5557100938967, 24.429027777777776], [89.55597222222222, 24.44763888888889], [89.54652777777778, 24.449027777777776], [89.54485483364721, 24.458348466505246], [89.53597222222223, 24.462916666666665], [89.53069444444445, 24.456805555555555], [89.53402777777778, 24.464027777777776], [89.53930555555556, 24.46597222222222], [89.54470941402498, 24.45915866154339], [89.54263888888889, 24.470694444444444], [89.52569444444444, 24.47847222222222], [89.53125, 24.48763888888889], [89.52549195593596, 24.491303098747817], [89.52122529200359, 24.489769766397124], [89.51625, 24.49375], [89.53541666666666, 24.49347222222222], [89.51875, 24.498472222222222], [89.52597222222222, 24.506527777777777], [89.52811856368564, 24.50405948509485], [89.53597222222223, 24.506527777777777], [89.52847222222222, 24.509027777777778], [89.53041666666667, 24.517083333333332], [89.53763888888889, 24.517638888888886], [89.53402777777778, 24.520416666666666], [89.54101711560045, 24.518702300785634], [89.54208333333334, 24.51097222222222], [89.55208333333334, 24.514027777777777], [89.55402777777778, 24.518749999999997], [89.54675350350351, 24.522946696696696], [89.54958333333333, 24.526805555555555], [89.55069444444445, 24.521805555555556], [89.55097222222223, 24.52847222222222], [89.54458333333334, 24.529027777777777], [89.54487313034188, 24.535113514957263], [89.54236111111112, 24.52986111111111], [89.53402777777778, 24.541249999999998], [89.54152777777779, 24.547083333333333], [89.53680555555556, 24.55125], [89.54458333333334, 24.552638888888886], [89.54402777777779, 24.544305555555553], [89.53847222222223, 24.54375], [89.54519606518998, 24.541895146767512], [89.54541666666667, 24.546527777777776], [89.55513888888889, 24.555138888888887], [89.56097222222222, 24.554027777777776], [89.56152777777778, 24.545694444444443], [89.56375, 24.55125], [89.57875, 24.545694444444443], [89.5676388888889, 24.54486111111111], [89.5651388888889, 24.53597222222222], [89.57347222222222, 24.532083333333333], [89.58125, 24.536527777777778], [89.57736111111112, 24.524583333333332], [89.58273888888888, 24.525927777777778], [89.58069444444445, 24.531805555555554], [89.58791666666667, 24.52736111111111], [89.58291666666666, 24.525416666666665], [89.58284829059829, 24.525613247863244], [89.58180555555556, 24.520138888888887], [89.58958333333334, 24.527638888888887], [89.58986111111112, 24.538194444444443], [89.59069444444445, 24.528194444444445], [89.59254403794039, 24.527269647696478], [89.58486111111111, 24.51986111111111], [89.58930555555555, 24.524027777777775], [89.59254629629629, 24.52726851851852], [89.59847222222223, 24.524305555555554], [89.5826388888889, 24.519027777777776], [89.57652777777778, 24.503194444444443], [89.58236111111111, 24.501805555555553], [89.58208333333333, 24.51013888888889], [89.58430555555556, 24.503194444444443], [89.5826388888889, 24.51347222222222], [89.59208333333333, 24.512083333333333], [89.58375000000001, 24.489583333333332], [89.58902777777779, 24.48236111111111], [89.58875, 24.489027777777775], [89.59541666666667, 24.489027777777775], [89.58541666666667, 24.47208333333333], [89.59319444444445, 24.47597222222222], [89.59569444444445, 24.465416666666666], [89.58597222222222, 24.46097222222222], [89.59486111111111, 24.460416666666664], [89.59430555555556, 24.455138888888886], [89.61010052179252, 24.457686464088397], [89.60875, 24.461805555555554], [89.61430555555556, 24.465694444444445], [89.61208333333333, 24.479027777777777], [89.61680555555556, 24.47847222222222], [89.61125, 24.489305555555553], [89.62208333333334, 24.490416666666665], [89.61125, 24.49375], [89.61569444444444, 24.514027777777777], [89.60208333333334, 24.519027777777776], [89.59347222222223, 24.54513888888889], [89.59847222222223, 24.54347222222222], [89.59041666666667, 24.554027777777776], [89.59652777777778, 24.559305555555554], [89.59777425267907, 24.558279046813308], [89.60208333333334, 24.560972222222222], [89.6126388888889, 24.551805555555553], [89.6101388888889, 24.547638888888887], [89.60112663221983, 24.55524923896499], [89.59736111111111, 24.55013888888889], [89.60347222222222, 24.551527777777775], [89.5976388888889, 24.546527777777776], [89.60263888888889, 24.545694444444443], [89.60430555555556, 24.518472222222222], [89.61041666666667, 24.517916666666665], [89.60847222222222, 24.52486111111111], [89.61819444444444, 24.51736111111111], [89.61236111111111, 24.49597222222222], [89.62236111111112, 24.498749999999998], [89.62625, 24.50986111111111], [89.63430555555556, 24.50736111111111], [89.63847222222222, 24.513194444444444], [89.63263888888889, 24.512638888888887], [89.63347222222222, 24.518194444444443], [89.63930555555555, 24.52347222222222], [89.63986111111112, 24.50819444444444], [89.64625000000001, 24.506527777777777], [89.62486111111112, 24.499305555555555], [89.62597222222223, 24.487916666666667], [89.61680555555556, 24.484583333333333], [89.62263888888889, 24.47597222222222], [89.62097222222222, 24.45736111111111], [89.62986111111111, 24.46597222222222], [89.62708333333333, 24.477916666666665], [89.63680555555555, 24.47458333333333], [89.63652777777779, 24.48708333333333], [89.64236111111111, 24.485416666666666], [89.64180555555556, 24.48986111111111], [89.65319444444445, 24.48625], [89.63930555555555, 24.47513888888889], [89.64236111111111, 24.461805555555554], [89.65736111111111, 24.474027777777778], [89.65680555555556, 24.467916666666664], [89.66347222222223, 24.46708333333333], [89.65652777777778, 24.460416666666664], [89.66597222222222, 24.45986111111111], [89.66951139884905, 24.46666722000886], [89.66875, 24.461527777777775], [89.67625, 24.462083333333332], [89.66736111111112, 24.475694444444443], [89.66414782886335, 24.474182311621963], [89.66193518518519, 24.477185185185185], [89.66041666666666, 24.476805555555554], [89.65948427885337, 24.490391777977887], [89.66597222222222, 24.478194444444444], [89.66360663082435, 24.477603046594975], [89.68041666666667, 24.47986111111111], [89.67152777777778, 24.48875], [89.67847222222223, 24.50597222222222], [89.67125, 24.512638888888887], [89.67875000000001, 24.507638888888888], [89.68013888888889, 24.496527777777775], [89.67347222222223, 24.48736111111111], [89.68402777777779, 24.477638888888887], [89.66986111111112, 24.472916666666666], [89.67375, 24.466805555555553], [89.67875000000001, 24.471249999999998], [89.678760829543, 24.470708522850334], [89.68152777777777, 24.474305555555553], [89.68569444444445, 24.46847222222222], [89.67876118268028, 24.47069086598676], [89.67902777777778, 24.45736111111111], [89.68069444444444, 24.465416666666666], [89.68680555555555, 24.462083333333332], [89.68125, 24.457083333333333], [89.68736111111112, 24.455972222222222], [89.67375, 24.44708333333333], [89.66236111111111, 24.45958333333333], [89.65736111111111, 24.45847222222222], [89.66236111111111, 24.457083333333333], [89.65902777777778, 24.451527777777777], [89.62013888888889, 24.45208333333333], [89.61819444444444, 24.44763888888889], [89.63041666666668, 24.44763888888889], [89.61347222222223, 24.437083333333334], [89.62708333333333, 24.435972222222222], [89.62736111111111, 24.43097222222222], [89.61569444444444, 24.43125], [89.62597222222223, 24.430416666666666], [89.62486111111112, 24.420416666666664], [89.63347222222222, 24.435972222222222], [89.64069444444445, 24.43208333333333], [89.63736111111112, 24.420694444444443], [89.64958333333334, 24.420416666666664], [89.64930555555556, 24.42597222222222], [89.65930555555556, 24.42375], [89.66402777777778, 24.43486111111111], [89.67652777777778, 24.440416666666664], [89.67236111111112, 24.444027777777777], [89.68680555555555, 24.451805555555556], [89.68263888888889, 24.44347222222222], [89.68791666666667, 24.44236111111111], [89.67708333333334, 24.44013888888889], [89.68458333333334, 24.435694444444444], [89.67708333333334, 24.428749999999997], [89.67430555555556, 24.43875], [89.67291666666667, 24.425694444444442], [89.66740412186381, 24.421984077750206], [89.67097222222222, 24.41375], [89.67847222222223, 24.427916666666665], [89.68180555555556, 24.424027777777777], [89.68375, 24.42986111111111], [89.68652777777778, 24.42347222222222], [89.69541666666667, 24.428472222222222], [89.68819444444445, 24.42236111111111], [89.69430555555556, 24.422638888888887], [89.69708333333334, 24.414305555555554], [89.69208333333333, 24.41236111111111], [89.6926388888889, 24.400694444444444], [89.68430555555555, 24.399305555555554], [89.68791666666667, 24.395416666666666], [89.68109848484846, 24.39554292929293], [89.68791666666667, 24.39486111111111], [89.67680555555556, 24.38597222222222], [89.68125, 24.382638888888888], [89.68423157453937, 24.38617950865438], [89.68652777777778, 24.38319444444444], [89.69402777777778, 24.37763888888889], [89.69347222222223, 24.38486111111111], [89.68461336336337, 24.386632882882882], [89.6901388888889, 24.393194444444443], [89.70208333333333, 24.384027777777778], [89.69914006168014, 24.37645936495526], [89.67986111111111, 24.375138888888888], [89.68541666666667, 24.37013888888889], [89.69896927980945, 24.376020211573493], [89.69819444444445, 24.374027777777776], [89.70545319108035, 24.369620681605976], [89.71152777777777, 24.37847222222222], [89.69180555555556, 24.394583333333333], [89.69584896983076, 24.39934878587196], [89.70097222222222, 24.39986111111111], [89.69986111111112, 24.393749999999997], [89.69375000000001, 24.394305555555555], [89.70319444444445, 24.392638888888886], [89.71263888888889, 24.379583333333333], [89.70680555555556, 24.366527777777776], [89.71986111111111, 24.37125], [89.70097222222222, 24.344305555555554], [89.71347222222222, 24.356527777777778], [89.71593819759487, 24.338991952905594], [89.71680555555555, 24.339583333333334], [89.71541666666667, 24.353194444444444], [89.7226388888889, 24.35347222222222], [89.72180555555556, 24.38236111111111], [89.71541666666667, 24.39125], [89.74263888888889, 24.39236111111111], [89.74208333333334, 24.38375], [89.74930555555555, 24.384027777777778], [89.75375, 24.39875], [89.74736111111112, 24.41208333333333], [89.74486111111112, 24.400416666666665], [89.73013888888889, 24.395694444444445], [89.70652777777778, 24.394583333333333], [89.70013888888889, 24.403194444444445], [89.69672994740303, 24.400387080867848], [89.69958333333334, 24.40375], [89.70680555555556, 24.40347222222222], [89.70625, 24.396527777777777], [89.70958333333334, 24.40625], [89.71291666666667, 24.398194444444442], [89.71180555555556, 24.43125], [89.72097222222223, 24.463472222222222], [89.71347222222222, 24.47958333333333], [89.69291666666668, 24.485694444444444], [89.6876388888889, 24.480138888888888], [89.68958333333333, 24.490694444444443], [89.67930555555556, 24.50708333333333], [89.6876388888889, 24.518194444444443], [89.68513888888889, 24.52847222222222], [89.67958333333334, 24.52486111111111], [89.68236111111112, 24.54208333333333], [89.67013888888889, 24.55236111111111], [89.66319444444444, 24.58458333333333], [89.6575726010101, 24.591502525252526], [89.66541666666667, 24.587916666666665], [89.66236111111111, 24.607916666666664], [89.65158632286996, 24.606300448430492], [89.65395000000001, 24.609583333333333], [89.66152777777778, 24.609583333333333], [89.66069444444445, 24.623749999999998], [89.65919388609716, 24.620688860971516], [89.66236111111111, 24.65236111111111], [89.65069444444444, 24.669583333333332], [89.63819444444445, 24.674305555555556], [89.63208333333334, 24.691805555555554], [89.63791666666667, 24.696805555555553], [89.65958333333333, 24.678472222222222], [89.66486111111111, 24.686805555555555], [89.66736111111112, 24.683194444444442], [89.66680555555556, 24.69013888888889], [89.65458333333333, 24.69347222222222], [89.65375, 24.71236111111111], [89.64680555555556, 24.71763888888889], [89.65513888888889, 24.71236111111111], [89.65708333333333, 24.692916666666665], [89.66625, 24.69236111111111], [89.65541666666667, 24.745694444444442], [89.66652777777779, 24.74736111111111], [89.66597222222222, 24.75597222222222], [89.72319444444445, 24.734583333333333], [89.72375000000001, 24.761527777777776], [89.70597222222223, 24.770694444444445], [89.7201388888889, 24.767916666666665], [89.69541666666667, 24.77986111111111], [89.71986111111111, 24.775972222222222], [89.73041666666667, 24.76597222222222], [89.73875, 24.742638888888887], [89.73180555555555, 24.71986111111111], [89.74319444444444, 24.697916666666664], [89.79208333333334, 24.676805555555553], [89.79430555555555, 24.685416666666665], [89.79736111111112, 24.678194444444443], [89.78236111111111, 24.671527777777776], [89.78458333333333, 24.62597222222222], [89.76347222222222, 24.645416666666666], [89.73541666666667, 24.69013888888889], [89.72069444444445, 24.69458333333333], [89.72847222222222, 24.69597222222222], [89.71791666666667, 24.707916666666666], [89.69847222222222, 24.68236111111111], [89.70236111111112, 24.679583333333333], [89.7076388888889, 24.694027777777777], [89.70458333333333, 24.67597222222222], [89.7076388888889, 24.679305555555555], [89.71597222222222, 24.624583333333334], [89.75319444444445, 24.596805555555555], [89.75125, 24.587916666666665], [89.73875, 24.579583333333332], [89.74986111111112, 24.56986111111111], [89.751790750141, 24.578828257191194], [89.75400929697518, 24.57345110130497], [89.7501388888889, 24.569027777777777], [89.75763888888889, 24.562638888888888], [89.75414215686276, 24.5731290849673], [89.7676388888889, 24.540416666666665], [89.75180555555556, 24.53736111111111], [89.75097222222223, 24.553194444444443], [89.7526388888889, 24.54513888888889], [89.75541666666668, 24.554027777777776], [89.74541666666667, 24.567638888888887], [89.73597222222223, 24.566527777777775], [89.74652777777779, 24.555416666666666], [89.74763888888889, 24.543194444444442], [89.7201388888889, 24.493194444444445], [89.73319444444445, 24.47319444444444], [89.72986111111112, 24.48097222222222], [89.73986111111111, 24.476527777777775], [89.73013888888889, 24.484583333333333], [89.73625, 24.480416666666667], [89.73736111111111, 24.488194444444442], [89.75402777777778, 24.479305555555555], [89.74236111111111, 24.470694444444444], [89.74236111111111, 24.455694444444443], [89.7551388888889, 24.455416666666665], [89.74625, 24.430416666666666], [89.76597222222223, 24.37569444444444], [89.75736111111111, 24.365972222222222], [89.75347222222223, 24.381249999999998], [89.72763888888889, 24.37708333333333], [89.72430555555556, 24.369305555555552], [89.73236111111112, 24.364305555555553], [89.73625, 24.377916666666664], [89.73652777777778, 24.37097222222222], [89.74319444444444, 24.37597222222222], [89.7526388888889, 24.371527777777775], [89.75680555555556, 24.365138888888886], [89.75180555555556, 24.350416666666664], [89.77125000000001, 24.330972222222222], [89.77402777777777, 24.301805555555553], [89.78708333333334, 24.28847222222222], [89.79041666666667, 24.262916666666666], [89.78402777777778, 24.24347222222222], [89.77569444444444, 24.23708333333333], [89.78291666666667, 24.24236111111111], [89.78013888888889, 24.22958333333333], [89.78486111111111, 24.224305555555553], [89.78013888888889, 24.220138888888886], [89.7851388888889, 24.22375], [89.79847222222223, 24.174305555555556], [89.78013888888889, 24.166249999999998], [89.78763888888889, 24.157916666666665], [89.7976388888889, 24.159305555555555], [89.79819444444445, 24.152916666666666], [89.80347222222223, 24.158194444444444], [89.80625, 24.139305555555556], [89.82013888888889, 24.140694444444442], [89.8151388888889, 24.103194444444444], [89.8180948303016, 24.098802760059847], [89.8151388888889, 24.094027777777775], [89.81208333333333, 24.10013888888889], [89.81541666666666, 24.091805555555553], [89.81822935733172, 24.0986028913294], [89.82486111111112, 24.088749999999997], [89.81708333333333, 24.06347222222222], [89.78430555555556, 24.04097222222222], [89.77708333333334, 24.029027777777777], [89.72180555555556, 24.01347222222222], [89.70291666666667, 24.02375], [89.69875, 24.03847222222222], [89.68291666666667, 24.034305555555555], [89.68458333333334, 24.05847222222222], [89.6601388888889, 24.075416666666666], [89.63736111111112, 24.086805555555554], [89.62986111111111, 24.083194444444445], [89.61652777777778, 24.096805555555555], [89.60458333333334, 24.096527777777776], [89.58069444444445, 24.111527777777777], [89.55930555555555, 24.11125], [89.55541666666667, 24.119027777777777], [89.56708333333333, 24.115972222222222], [89.56152777777778, 24.117638888888887], [89.56430555555556, 24.12236111111111], [89.55069444444445, 24.129583333333333], [89.54569444444445, 24.125416666666666], [89.55347222222223, 24.13513888888889], [89.53291666666667, 24.130138888888887], [89.52180555555556, 24.154305555555553], [89.52930555555555, 24.158749999999998], [89.52319444444444, 24.16847222222222], [89.53347222222223, 24.166527777777777], [89.5351388888889, 24.172916666666666], [89.5176388888889, 24.179027777777776], [89.51708333333333, 24.18875], [89.52513888888889, 24.19125], [89.52236111111111, 24.19736111111111], [89.51041666666667, 24.199583333333333], [89.50208333333333, 24.21708333333333], [89.48930555555556, 24.21708333333333], [89.48597222222223, 24.20375], [89.46930555555556, 24.20097222222222], [89.47097222222223, 24.212916666666665], [89.46152777777777, 24.22458333333333], [89.47375000000001, 24.219305555555554], [89.47819444444444, 24.22958333333333], [89.47152777777778, 24.234583333333333], [89.45430555555556, 24.227638888888887], [89.44652777777777, 24.23125], [89.45652777777778, 24.233749999999997], [89.46319444444444, 24.250138888888888], [89.46097222222222, 24.261805555555554], [89.45236111111112, 24.266805555555553], [89.4401388888889, 24.260694444444443], [89.43930555555556, 24.25236111111111], [89.42458333333333, 24.250416666666666], [89.42930555555556, 24.26736111111111], [89.41763888888889, 24.292916666666667], [89.41902777777779, 24.304583333333333], [89.42541666666666, 24.306805555555552], [89.41875, 24.324305555555554], [89.40013888888889, 24.321527777777778], [89.39986111111111, 24.33597222222222], [89.38180555555556, 24.34236111111111], [89.3751388888889, 24.338194444444444], [89.37819444444445, 24.34819444444444], [89.36625000000001, 24.353749999999998], [89.35347222222222, 24.34819444444444], [89.32152777777777, 24.350694444444443], [89.32125, 24.355694444444442], [89.3151388888889, 24.351805555555554], [89.3176388888889, 24.370694444444442], [89.31375, 24.367638888888887], [89.30902777777779, 24.377916666666664], [89.32243675013041, 24.369567683881073]], [[89.32371360153257, 24.36813122605363], [89.32319444444445, 24.359305555555554], [89.32513888888889, 24.366527777777776], [89.32371360153257, 24.36813122605363]], [[89.70506761695906, 24.369058845029233], [89.69375000000001, 24.365972222222222], [89.70180555555555, 24.364305555555553], [89.70506761695906, 24.369058845029233]], [[89.65988307493541, 24.41692183462532], [89.65847222222223, 24.41597222222222], [89.6598792573981, 24.416939558905636], [89.65847222222223, 24.42347222222222], [89.63875, 24.415416666666665], [89.64986111111111, 24.411805555555553], [89.64763888888889, 24.40236111111111], [89.64181967984935, 24.40405838041431], [89.64708333333334, 24.401527777777776], [89.64236111111111, 24.394027777777776], [89.64763888888889, 24.401527777777776], [89.65902777777778, 24.39847222222222], [89.64763888888889, 24.391805555555553], [89.66541666666667, 24.39736111111111], [89.65989232035278, 24.401004828892614], [89.66791666666667, 24.40375], [89.66236111111111, 24.405416666666664], [89.65988307493541, 24.41692183462532]], [[89.64100335547255, 24.404450844057006], [89.6426388888889, 24.41208333333333], [89.63263888888889, 24.408472222222223], [89.64100335547255, 24.404450844057006]], [[89.61052692143011, 24.456385945193748], [89.60680555555555, 24.450694444444444], [89.61097222222223, 24.44847222222222], [89.59902777777778, 24.441805555555554], [89.61430555555556, 24.44486111111111], [89.61052692143011, 24.456385945193748]], [[89.54515364382858, 24.541004298178084], [89.54069444444444, 24.539305555555554], [89.54494187801933, 24.536557216183574], [89.54515364382858, 24.541004298178084]], [[89.52953242585215, 24.41803840194776], [89.53041480238629, 24.418736950037285], [89.53069444444445, 24.420694444444443], [89.52953242585215, 24.41803840194776]], [[89.67337006717044, 24.39631577106073], [89.68041666666667, 24.40597222222222], [89.6859189059501, 24.407210226060993], [89.68125, 24.412916666666664], [89.67180555555557, 24.396527777777777], [89.66569444444444, 24.39708333333333], [89.67337006717044, 24.39631577106073]], [[89.68619986922407, 24.407273442797635], [89.69152777777778, 24.408472222222223], [89.68552472167649, 24.41357481990832], [89.68619986922407, 24.407273442797635]], [[89.68380847953217, 24.41503362573099], [89.68041666666667, 24.417916666666667], [89.68291666666667, 24.423194444444444], [89.6776388888889, 24.421527777777776], [89.67680555555556, 24.40958333333333], [89.67847222222223, 24.416527777777777], [89.68380847953217, 24.41503362573099]], [[89.71574511803237, 24.33886030774935], [89.70625, 24.34347222222222], [89.71402777777779, 24.339027777777776], [89.70986111111111, 24.33458333333333], [89.71458333333334, 24.329583333333332], [89.70430555555556, 24.322916666666664], [89.70791666666666, 24.31847222222222], [89.69791666666667, 24.315694444444443], [89.70125, 24.32347222222222], [89.69763888888889, 24.31958333333333], [89.69791666666667, 24.329027777777778], [89.69236111111111, 24.327916666666667], [89.69763888888889, 24.330694444444443], [89.69875, 24.325138888888887], [89.70097222222222, 24.346527777777776], [89.69347222222223, 24.329583333333332], [89.69486111111111, 24.346805555555555], [89.68902777777778, 24.339305555555555], [89.67791666666668, 24.338194444444444], [89.67652777777778, 24.327638888888888], [89.68402777777779, 24.329305555555553], [89.68125, 24.318749999999998], [89.68597222222222, 24.324583333333333], [89.69458333333334, 24.31736111111111], [89.67680555555556, 24.311805555555555], [89.67986111111111, 24.303749999999997], [89.68486111111112, 24.311249999999998], [89.68986111111111, 24.305138888888887], [89.67236111111112, 24.297916666666666], [89.67986111111111, 24.29347222222222], [89.67291666666667, 24.289305555555554], [89.67569444444445, 24.284027777777776], [89.68097222222222, 24.283749999999998], [89.66652777777779, 24.279305555555553], [89.67402777777778, 24.27375], [89.67236111111112, 24.27958333333333], [89.68097222222222, 24.27986111111111], [89.6761544205496, 24.27022550776583], [89.67180555555557, 24.269305555555555], [89.66097222222223, 24.259027777777778], [89.66375000000001, 24.245694444444442], [89.65597222222223, 24.248749999999998], [89.64986111111111, 24.241249999999997], [89.63986111111112, 24.24513888888889], [89.63541666666667, 24.235694444444444], [89.6426388888889, 24.242083333333333], [89.64763888888889, 24.234583333333333], [89.6451388888889, 24.242083333333333], [89.65097222222222, 24.23263888888889], [89.65847222222223, 24.245416666666664], [89.67013888888889, 24.245416666666664], [89.67430555555556, 24.230694444444442], [89.66458333333334, 24.226805555555554], [89.66597222222222, 24.21597222222222], [89.66291666666667, 24.20486111111111], [89.67402777777778, 24.21236111111111], [89.66819444444445, 24.21597222222222], [89.67319444444445, 24.215694444444445], [89.67875000000001, 24.230416666666667], [89.68347222222222, 24.225416666666664], [89.67986111111111, 24.234583333333333], [89.68319444444445, 24.230694444444442], [89.68791666666667, 24.23708333333333], [89.6973611111111, 24.231805555555553], [89.68875, 24.219305555555554], [89.67458333333333, 24.212916666666665], [89.68819444444445, 24.215694444444445], [89.68569444444445, 24.20875], [89.67625, 24.209305555555556], [89.67847222222223, 24.20375], [89.69097222222223, 24.208194444444445], [89.68902777777778, 24.21486111111111], [89.69180555555556, 24.20875], [89.69847222222222, 24.22208333333333], [89.70486111111111, 24.215694444444445], [89.70375, 24.276249999999997], [89.69597222222222, 24.269583333333333], [89.70097222222222, 24.26458333333333], [89.69569444444444, 24.266527777777778], [89.6876388888889, 24.25236111111111], [89.67958333333334, 24.25486111111111], [89.67968522561864, 24.255487020863654], [89.67430555555556, 24.257638888888888], [89.68152777777777, 24.24986111111111], [89.66597222222222, 24.256527777777777], [89.67097222222222, 24.26486111111111], [89.68013888888889, 24.265416666666667], [89.67989965443913, 24.256804226475225], [89.68152777777777, 24.266805555555553], [89.69625, 24.27486111111111], [89.69739130434783, 24.28236111111111], [89.70625, 24.28236111111111], [89.70330241460542, 24.28572978013349], [89.69741897005595, 24.282542914335856], [89.69819444444445, 24.28763888888889], [89.7028554613936, 24.28624058380414], [89.70041666666667, 24.289027777777775], [89.70708333333333, 24.286805555555553], [89.70819444444444, 24.300416666666667], [89.70263888888888, 24.30236111111111], [89.70875000000001, 24.304027777777776], [89.70930555555556, 24.318749999999998], [89.71486111111112, 24.321527777777778], [89.71513888888889, 24.335416666666664], [89.71069444444444, 24.335416666666664], [89.71574511803237, 24.33886030774935]], [[89.79486111111112, 24.122083333333332], [89.79097222222222, 24.131527777777777], [89.79541666666667, 24.137916666666666], [89.8001388888889, 24.136527777777776], [89.79914846743296, 24.13166570881226], [89.80291666666668, 24.13597222222222], [89.81180555555555, 24.12986111111111], [89.80486111111111, 24.122083333333332], [89.81013888888889, 24.11736111111111], [89.8151388888889, 24.12875], [89.80152777777778, 24.13958333333333], [89.80513888888889, 24.142083333333332], [89.79791666666667, 24.150694444444444], [89.78875000000001, 24.137361111111108], [89.78791666666667, 24.124027777777776], [89.79208333333334, 24.12875], [89.79486111111112, 24.122083333333332]], [[89.79910823069793, 24.131468183022115], [89.79708333333333, 24.121527777777775], [89.78736111111111, 24.116805555555555], [89.78791666666667, 24.10986111111111], [89.80125, 24.104027777777777], [89.79347222222222, 24.115416666666665], [89.8001388888889, 24.11236111111111], [89.80041666666666, 24.119305555555552], [89.80652777777777, 24.113194444444442], [89.79875, 24.125138888888888], [89.80652777777777, 24.12597222222222], [89.79910823069793, 24.131468183022115]], [[89.79875, 24.06986111111111], [89.79430555555555, 24.074027777777776], [89.80347222222223, 24.080416666666665], [89.80236111111111, 24.08625], [89.79097222222222, 24.084027777777777], [89.79513888888889, 24.07875], [89.78930555555556, 24.062083333333334], [89.79652777777778, 24.067916666666665], [89.79180555555556, 24.06319444444444], [89.79680555555557, 24.059583333333332], [89.79875, 24.06986111111111]], [[89.79125, 24.053749999999997], [89.79875, 24.05097222222222], [89.79680555555557, 24.059027777777775], [89.79125, 24.053749999999997]], [[89.79013888888889, 24.08625], [89.79319444444445, 24.103194444444444], [89.78847222222223, 24.104027777777777], [89.79013888888889, 24.08625]], [[89.77680555555555, 24.645694444444445], [89.78291666666667, 24.638749999999998], [89.77958333333333, 24.66097222222222], [89.76375, 24.664583333333333], [89.77680555555555, 24.645694444444445]], [[89.7551388888889, 24.678472222222222], [89.76430555555555, 24.66708333333333], [89.76597222222223, 24.670972222222222], [89.77708333333334, 24.665416666666665], [89.77736111111112, 24.670416666666664], [89.77402777777777, 24.66708333333333], [89.76986111111111, 24.674305555555556], [89.7551388888889, 24.678472222222222]], [[89.74625, 24.35013888888889], [89.74597222222222, 24.34263888888889], [89.74680555555555, 24.34986111111111], [89.75486111111111, 24.346249999999998], [89.74402777777777, 24.356527777777778], [89.74402777777777, 24.344027777777775], [89.74625, 24.35013888888889]], [[89.75125, 24.326805555555556], [89.75125, 24.331527777777776], [89.74625, 24.31847222222222], [89.75125, 24.326805555555556]], [[89.74402777777777, 24.200694444444444], [89.74958333333333, 24.19625], [89.75041666666667, 24.201249999999998], [89.74402777777777, 24.200694444444444]], [[89.72923744146445, 24.594815346956157], [89.73625, 24.586527777777775], [89.73375, 24.60097222222222], [89.73736111111111, 24.58986111111111], [89.74263888888889, 24.59486111111111], [89.73875, 24.589027777777776], [89.74625, 24.59708333333333], [89.71097222222222, 24.622916666666665], [89.71013888888889, 24.605138888888888], [89.72923744146445, 24.594815346956157]], [[89.74097222222223, 24.300694444444442], [89.74430555555556, 24.303194444444443], [89.73652777777778, 24.29847222222222], [89.74097222222223, 24.300694444444442]], [[89.73569444444445, 24.58597222222222], [89.72986111111112, 24.57736111111111], [89.73375, 24.567638888888887], [89.74125000000001, 24.568749999999998], [89.73569444444445, 24.58597222222222]], [[89.72375000000001, 24.38958333333333], [89.73097222222222, 24.387638888888887], [89.72569444444444, 24.384305555555553], [89.73958333333334, 24.387916666666666], [89.72375000000001, 24.38958333333333]], [[89.73152777777779, 24.733194444444443], [89.73541666666667, 24.747916666666665], [89.72958333333334, 24.741527777777776], [89.73152777777779, 24.733194444444443]], [[89.72319444444445, 24.261527777777776], [89.72430555555556, 24.256527777777777], [89.72736111111111, 24.263194444444444], [89.72847222222222, 24.257638888888888], [89.73041991933385, 24.259261969815253], [89.73119532366195, 24.26168823497088], [89.72541666666667, 24.269305555555555], [89.72319444444445, 24.261527777777776]], [[89.73430555555557, 24.277638888888887], [89.72930555555556, 24.276249999999997], [89.73041666666667, 24.28097222222222], [89.72041666666667, 24.27347222222222], [89.72652777777778, 24.27736111111111], [89.72375000000001, 24.270416666666666], [89.72958333333334, 24.274305555555554], [89.73013888888889, 24.268194444444443], [89.73430555555557, 24.277638888888887]], [[89.73069444444445, 24.582916666666666], [89.73069444444445, 24.590138888888887], [89.71680555555555, 24.594027777777775], [89.72402777777778, 24.579305555555553], [89.72319444444445, 24.58513888888889], [89.72652777777778, 24.577638888888888], [89.73041666666667, 24.587638888888886], [89.73069444444445, 24.582916666666666]], [[89.72486111111111, 24.40513888888889], [89.72236111111111, 24.39763888888889], [89.72902777777779, 24.408472222222223], [89.72486111111111, 24.40513888888889]], [[89.72430555555556, 24.721249999999998], [89.72041666666667, 24.722638888888888], [89.72041666666667, 24.71236111111111], [89.72652777777778, 24.70847222222222], [89.72430555555556, 24.721249999999998]], [[89.71569444444445, 24.430138888888887], [89.71375, 24.401527777777776], [89.72041666666667, 24.41097222222222], [89.71736111111112, 24.416527777777777], [89.72347222222223, 24.417638888888888], [89.71708333333333, 24.41986111111111], [89.72097222222223, 24.42513888888889], [89.71569444444445, 24.43958333333333], [89.71569444444445, 24.430138888888887]], [[89.71763888888889, 24.581527777777776], [89.71736111111112, 24.589305555555555], [89.70819444444444, 24.59208333333333], [89.70791666666666, 24.58597222222222], [89.71763888888889, 24.581527777777776]], [[89.71263888888889, 24.59263888888889], [89.70458333333333, 24.60763888888889], [89.70680555555556, 24.594583333333333], [89.71263888888889, 24.59263888888889]], [[89.69236111111111, 24.70375], [89.69430555555556, 24.685972222222222], [89.69902777777779, 24.703194444444442], [89.69375000000001, 24.70875], [89.69458333333334, 24.731527777777778], [89.70097222222222, 24.70347222222222], [89.70902777777778, 24.71486111111111], [89.70486111111111, 24.727361111111108], [89.71236111111111, 24.726527777777775], [89.70291666666667, 24.73486111111111], [89.67708333333334, 24.73625], [89.69236111111111, 24.70375]], [[89.70347222222223, 24.625416666666666], [89.70125, 24.616249999999997], [89.70875000000001, 24.606805555555553], [89.70986111111111, 24.625138888888888], [89.70347222222223, 24.625416666666666]], [[89.70847222222223, 24.629027777777775], [89.70625, 24.636805555555554], [89.70263888888888, 24.626805555555553], [89.70847222222223, 24.629027777777775]], [[89.69763888888889, 24.360416666666666], [89.69236111111111, 24.355694444444442], [89.69680555555556, 24.352638888888887], [89.70819444444444, 24.365416666666665], [89.69763888888889, 24.360416666666666]], [[89.69125, 24.61986111111111], [89.69152777777778, 24.608194444444443], [89.70652777777778, 24.587916666666665], [89.69986111111112, 24.601527777777775], [89.69819444444445, 24.636805555555554], [89.69402777777778, 24.637638888888887], [89.69125, 24.61986111111111]], [[89.69875, 24.554305555555555], [89.70486111111111, 24.562638888888888], [89.70291666666667, 24.57347222222222], [89.69875, 24.554305555555555]], [[89.70263888888888, 24.48486111111111], [89.6973611111111, 24.499305555555555], [89.69680555555556, 24.48875], [89.70263888888888, 24.48486111111111]], [[89.70180555555555, 24.640694444444442], [89.69763888888889, 24.664305555555554], [89.69125, 24.64486111111111], [89.70180555555555, 24.640694444444442]], [[89.6973611111111, 24.539583333333333], [89.68986111111111, 24.54097222222222], [89.70013888888889, 24.52375], [89.6973611111111, 24.539583333333333]], [[89.69069444444445, 24.419305555555553], [89.68597222222222, 24.417916666666667], [89.69513888888889, 24.417638888888888], [89.69069444444445, 24.419305555555553]], [[89.6901388888889, 24.199305555555554], [89.69402777777778, 24.204305555555553], [89.68541666666667, 24.199027777777776], [89.6901388888889, 24.199305555555554]], [[89.69125, 24.49597222222222], [89.69375000000001, 24.49236111111111], [89.69319444444444, 24.500416666666666], [89.69125, 24.49597222222222]], [[89.68708333333333, 24.17986111111111], [89.6926388888889, 24.17236111111111], [89.68625, 24.18986111111111], [89.68708333333333, 24.17986111111111]], [[89.68541666666667, 24.359027777777776], [89.69208333333333, 24.361805555555556], [89.68680555555555, 24.365138888888886], [89.68541666666667, 24.359027777777776]], [[89.69208333333333, 24.50097222222222], [89.69069444444445, 24.50736111111111], [89.68986111111111, 24.49236111111111], [89.69208333333333, 24.50097222222222]], [[89.69041666666666, 24.343194444444443], [89.68569444444445, 24.351527777777775], [89.68291666666667, 24.346249999999998], [89.68819444444445, 24.343194444444443], [89.68180555555556, 24.34486111111111], [89.67430555555556, 24.336805555555554], [89.69041666666666, 24.343194444444443]], [[89.68597222222222, 24.554305555555555], [89.68930555555556, 24.55125], [89.68097222222222, 24.560416666666665], [89.68597222222222, 24.554305555555555]], [[89.68569444444445, 24.584027777777777], [89.68458333333334, 24.590416666666666], [89.68930555555556, 24.588472222222222], [89.67708333333334, 24.596249999999998], [89.68569444444445, 24.584027777777777]], [[89.68402777777779, 24.703194444444442], [89.68875, 24.694305555555555], [89.68847222222223, 24.704027777777778], [89.68402777777779, 24.703194444444442]], [[89.68625, 24.166249999999998], [89.68263888888889, 24.17013888888889], [89.68430555555555, 24.16263888888889], [89.68625, 24.166249999999998]], [[89.67291666666667, 24.19125], [89.67097222222222, 24.185972222222222], [89.68569444444445, 24.191527777777775], [89.67291666666667, 24.19125]], [[89.67708333333334, 24.622083333333332], [89.68319444444445, 24.615138888888886], [89.67791666666668, 24.623749999999998], [89.68541666666667, 24.619305555555552], [89.68263888888889, 24.646527777777777], [89.67708333333334, 24.622083333333332]], [[89.63986111111112, 24.363194444444442], [89.64069444444445, 24.345694444444444], [89.64625000000001, 24.36263888888889], [89.64902777777777, 24.35625], [89.67041666666667, 24.354027777777777], [89.67569444444445, 24.343194444444443], [89.67986111111111, 24.356527777777778], [89.67569444444445, 24.36263888888889], [89.66958333333334, 24.358472222222222], [89.66069444444445, 24.36125], [89.66208333333334, 24.365416666666665], [89.63986111111112, 24.363194444444442]], [[89.6726388888889, 24.63625], [89.67347222222223, 24.630138888888887], [89.67708333333334, 24.645694444444445], [89.6726388888889, 24.63625]], [[89.66402777777778, 24.143749999999997], [89.65402777777778, 24.135416666666664], [89.66486111111111, 24.141527777777778], [89.67069444444445, 24.138749999999998], [89.66847222222222, 24.131805555555555], [89.67680555555556, 24.15236111111111], [89.66402777777778, 24.143749999999997]], [[89.66736111111112, 24.31847222222222], [89.65652777777778, 24.324305555555554], [89.65541666666667, 24.31736111111111], [89.67236111111112, 24.314305555555553], [89.67652777777778, 24.329027777777778], [89.66736111111112, 24.31847222222222]], [[89.66625, 24.172083333333333], [89.65930555555556, 24.170416666666664], [89.67597222222223, 24.169027777777778], [89.66625, 24.172083333333333]], [[89.63069444444444, 24.375138888888888], [89.64097222222223, 24.36347222222222], [89.63878831417625, 24.371934865900382], [89.64597222222223, 24.37013888888889], [89.6451388888889, 24.380138888888887], [89.65402777777778, 24.388194444444444], [89.65902777777778, 24.376527777777778], [89.65986111111111, 24.387638888888887], [89.67597222222223, 24.379583333333333], [89.67041666666667, 24.393749999999997], [89.65319444444445, 24.38958333333333], [89.64125, 24.382916666666667], [89.6384845584482, 24.37311191934661], [89.63652777777779, 24.380694444444444], [89.63069444444444, 24.375138888888888]], [[89.66791666666667, 24.36847222222222], [89.6751388888889, 24.371805555555554], [89.6601388888889, 24.376805555555553], [89.66791666666667, 24.36847222222222]], [[89.67152777777778, 24.308194444444442], [89.66402777777778, 24.29958333333333], [89.67097222222222, 24.29875], [89.67152777777778, 24.308194444444442]], [[89.66875, 24.27125], [89.65958333333333, 24.281527777777775], [89.66208333333334, 24.268749999999997], [89.66875, 24.27125]], [[89.66180555555556, 24.67736111111111], [89.66875, 24.672916666666666], [89.66736111111112, 24.678749999999997], [89.66180555555556, 24.67736111111111]], [[89.66180555555556, 24.11958333333333], [89.66736111111112, 24.122916666666665], [89.66486111111111, 24.132638888888888], [89.66180555555556, 24.11958333333333]], [[89.66708333333334, 24.23125], [89.66347222222223, 24.23708333333333], [89.65875, 24.234583333333333], [89.66708333333334, 24.23125]], [[89.66041666666666, 24.07986111111111], [89.66375000000001, 24.075416666666666], [89.66652777777779, 24.080972222222222], [89.66319444444444, 24.089583333333334], [89.66041666666666, 24.07986111111111]], [[89.65569444444445, 24.338749999999997], [89.66430555555556, 24.347638888888888], [89.65847222222223, 24.349305555555553], [89.65569444444445, 24.338749999999997]], [[89.66180555555556, 24.293194444444442], [89.65958333333333, 24.300416666666667], [89.65180555555555, 24.294583333333332], [89.66180555555556, 24.293194444444442]], [[89.64875, 24.209027777777777], [89.65902777777778, 24.19347222222222], [89.65347222222222, 24.211527777777775], [89.64875, 24.209027777777777]], [[89.65375, 24.135416666666664], [89.65041666666667, 24.130416666666665], [89.65597222222223, 24.131527777777777], [89.65375, 24.135416666666664]], [[89.65208333333334, 24.34986111111111], [89.65097222222222, 24.345138888888886], [89.65569444444445, 24.346249999999998], [89.65208333333334, 24.34986111111111]], [[89.65569444444445, 24.164305555555554], [89.65013888888889, 24.16597222222222], [89.65125, 24.16097222222222], [89.65569444444445, 24.164305555555554]], [[89.63541666666667, 24.21736111111111], [89.62930555555556, 24.221249999999998], [89.63680555555555, 24.22625], [89.63069444444444, 24.23486111111111], [89.62041666666667, 24.217916666666664], [89.62430555555555, 24.220416666666665], [89.63597222222222, 24.20736111111111], [89.63263888888889, 24.21875], [89.64041666666667, 24.213194444444444], [89.64791666666667, 24.219305555555554], [89.64875, 24.214583333333334], [89.65513888888889, 24.22347222222222], [89.63541666666667, 24.21736111111111]], [[89.64930555555556, 24.280694444444443], [89.64708333333334, 24.276805555555555], [89.65319444444445, 24.284305555555555], [89.64930555555556, 24.280694444444443]], [[89.64875, 24.317638888888887], [89.65319444444445, 24.32597222222222], [89.64402777777778, 24.320138888888888], [89.64597222222223, 24.31347222222222], [89.64875, 24.317638888888887]], [[89.65180555555555, 24.295972222222222], [89.64680555555556, 24.29847222222222], [89.64708333333334, 24.28847222222222], [89.65180555555555, 24.295972222222222]], [[89.64486111111111, 24.16236111111111], [89.65097222222222, 24.15986111111111], [89.64819444444444, 24.16597222222222], [89.64486111111111, 24.16236111111111]], [[89.6451388888889, 24.265138888888888], [89.64347222222223, 24.26097222222222], [89.64986111111111, 24.262083333333333], [89.64763888888889, 24.27125], [89.6451388888889, 24.265138888888888]], [[89.64930555555556, 24.256527777777777], [89.64152777777778, 24.25736111111111], [89.64847222222222, 24.25236111111111], [89.64930555555556, 24.256527777777777]], [[89.63958333333333, 24.14236111111111], [89.64541666666666, 24.149027777777775], [89.63541666666667, 24.145694444444445], [89.63958333333333, 24.14236111111111]], [[89.63902777777778, 24.323194444444443], [89.6451388888889, 24.32236111111111], [89.63680555555555, 24.324305555555554], [89.63958333333333, 24.318749999999998], [89.63902777777778, 24.323194444444443]], [[89.63680555555555, 24.33347222222222], [89.63930555555555, 24.32736111111111], [89.64486111111111, 24.332916666666666], [89.63736111111112, 24.338749999999997], [89.63680555555555, 24.33347222222222]], [[89.63875, 24.282638888888886], [89.63902777777778, 24.276249999999997], [89.64430555555556, 24.29097222222222], [89.63875, 24.282638888888886]], [[89.61708333333334, 24.16097222222222], [89.63513888888889, 24.164583333333333], [89.64208333333333, 24.154027777777777], [89.63652777777779, 24.162916666666664], [89.64430555555556, 24.165694444444444], [89.60930555555557, 24.17236111111111], [89.60541666666667, 24.164583333333333], [89.60958333333333, 24.16986111111111], [89.6126388888889, 24.158472222222223], [89.6126388888889, 24.166249999999998], [89.61708333333334, 24.16097222222222]], [[89.63708333333334, 24.310138888888886], [89.63736111111112, 24.305694444444445], [89.64208333333333, 24.309583333333332], [89.63236111111111, 24.31597222222222], [89.63708333333334, 24.310138888888886]], [[89.63958333333333, 24.303194444444443], [89.63652777777779, 24.296805555555554], [89.64180555555556, 24.29847222222222], [89.63958333333333, 24.303194444444443]], [[89.63402777777777, 24.469305555555554], [89.62958333333333, 24.456805555555555], [89.63541666666667, 24.466805555555553], [89.63930555555555, 24.464583333333334], [89.63291666666667, 24.47458333333333], [89.63402777777777, 24.469305555555554]], [[89.63458333333334, 24.199583333333333], [89.63791666666667, 24.203194444444442], [89.63069444444444, 24.202638888888888], [89.63458333333334, 24.199583333333333]], [[89.63097222222223, 24.414583333333333], [89.62791666666666, 24.419305555555553], [89.63375, 24.418194444444442], [89.63569444444445, 24.42513888888889], [89.62680555555556, 24.422638888888887], [89.62708333333333, 24.413194444444443], [89.63097222222223, 24.414583333333333]], [[89.62125, 24.40458333333333], [89.62734636650869, 24.402252369668243], [89.6251388888889, 24.38597222222222], [89.63347222222222, 24.38097222222222], [89.62739779874214, 24.402232704402515], [89.63069444444444, 24.400972222222222], [89.63180555555556, 24.407916666666665], [89.62347222222222, 24.40958333333333], [89.62125, 24.40458333333333]], [[89.62486111111112, 24.323194444444443], [89.62791666666666, 24.317083333333333], [89.63291666666667, 24.324861111111108], [89.62486111111112, 24.32986111111111], [89.62486111111112, 24.323194444444443]], [[89.62652777777778, 24.26625], [89.62708333333333, 24.25819444444444], [89.63125000000001, 24.260416666666664], [89.62652777777778, 24.26625]], [[89.62458333333333, 24.344027777777775], [89.63069444444444, 24.361527777777777], [89.62458333333333, 24.36486111111111], [89.62041666666667, 24.345694444444444], [89.62458333333333, 24.344027777777775]], [[89.62597222222223, 24.29097222222222], [89.6301388888889, 24.28625], [89.62541666666667, 24.302083333333332], [89.62597222222223, 24.29097222222222]], [[89.62097222222222, 24.33236111111111], [89.6276388888889, 24.335694444444442], [89.61375, 24.332916666666666], [89.62097222222222, 24.33236111111111]], [[89.62652777777778, 24.306805555555552], [89.62347222222222, 24.318194444444444], [89.62041666666667, 24.305694444444445], [89.62597222222223, 24.302638888888886], [89.62652777777778, 24.306805555555552]], [[89.59526135510511, 24.411663851351292], [89.59430555555556, 24.419583333333332], [89.60736111111112, 24.42236111111111], [89.60430555555556, 24.43125], [89.62263888888889, 24.434027777777775], [89.61291666666666, 24.437083333333334], [89.60013888888889, 24.430138888888887], [89.59263888888889, 24.42375], [89.59526135510511, 24.411663851351292]], [[89.5963417794853, 24.406684504207824], [89.59902777777778, 24.394305555555555], [89.5976388888889, 24.410416666666666], [89.60902777777778, 24.407916666666665], [89.61430555555556, 24.414861111111108], [89.59652777777778, 24.413194444444443], [89.5963417794853, 24.406684504207824]], [[89.62180555555555, 24.36347222222222], [89.61736111111111, 24.36236111111111], [89.62152777777779, 24.355416666666667], [89.62180555555555, 24.36347222222222]], [[89.61708333333334, 24.290138888888887], [89.62125, 24.290694444444444], [89.61819444444444, 24.299305555555556], [89.61236111111111, 24.291527777777777], [89.61708333333334, 24.290138888888887]], [[89.62069444444445, 24.32375], [89.62041666666667, 24.32986111111111], [89.61458333333334, 24.327638888888888], [89.62069444444445, 24.32375]], [[89.6151388888889, 24.337083333333332], [89.62041666666667, 24.33986111111111], [89.59902777777778, 24.338194444444444], [89.6151388888889, 24.337083333333332]], [[89.62013888888889, 24.413194444444443], [89.61986111111112, 24.41875], [89.61486111111111, 24.416527777777777], [89.62013888888889, 24.413194444444443]], [[89.61208333333333, 24.151527777777776], [89.61736111111111, 24.151805555555555], [89.61375, 24.158194444444444], [89.61208333333333, 24.151527777777776]], [[89.61430555555556, 24.367916666666666], [89.61097222222223, 24.370694444444442], [89.61541666666668, 24.362916666666667], [89.61430555555556, 24.367916666666666]], [[89.61458333333334, 24.212083333333332], [89.6151388888889, 24.21986111111111], [89.61041666666667, 24.21763888888889], [89.61458333333334, 24.212083333333332]], [[89.61131862745098, 24.199812091503272], [89.60736111111112, 24.202638888888888], [89.61152777777778, 24.19458333333333], [89.61131862745098, 24.199812091503272]], [[89.60680555555555, 24.326249999999998], [89.61125, 24.332083333333333], [89.60097222222223, 24.325694444444444], [89.61180555555556, 24.324305555555554], [89.60875, 24.316527777777775], [89.61319444444445, 24.318194444444444], [89.61486111111111, 24.326527777777777], [89.60680555555555, 24.326249999999998]], [[89.61347222222223, 24.384027777777778], [89.60819444444445, 24.38847222222222], [89.61069444444445, 24.38097222222222], [89.61347222222223, 24.384027777777778]], [[89.60152777777778, 24.344305555555554], [89.61236111111111, 24.34958333333333], [89.59625, 24.349305555555553], [89.60402777777779, 24.347916666666666], [89.60152777777778, 24.344305555555554]], [[89.59402777777778, 24.28847222222222], [89.60013888888889, 24.28458333333333], [89.61152777777778, 24.291249999999998], [89.59847222222223, 24.290138888888887], [89.60185137457044, 24.303204944635358], [89.60625, 24.30125], [89.60819444444445, 24.30597222222222], [89.60198933248839, 24.303738381918038], [89.60263888888889, 24.30625], [89.59458333333333, 24.29958333333333], [89.59402777777778, 24.28847222222222]], [[89.60680555555555, 24.243051075268816], [89.60680555555555, 24.236527777777777], [89.61125, 24.243194444444445], [89.60680555555555, 24.243051075268816]], [[89.60069444444444, 24.25875], [89.61125, 24.25597222222222], [89.60847222222222, 24.26125], [89.60069444444444, 24.25875]], [[89.59708333333333, 24.365138888888886], [89.60819444444445, 24.367916666666666], [89.60930555555557, 24.362916666666667], [89.61097222222223, 24.36875], [89.59708333333333, 24.365138888888886]], [[89.60930555555557, 24.269583333333333], [89.60291666666667, 24.272916666666664], [89.60402777777779, 24.26458333333333], [89.60930555555557, 24.269583333333333]], [[89.60375, 24.144583333333333], [89.60708333333334, 24.139305555555556], [89.60736111111112, 24.153194444444445], [89.60375, 24.144583333333333]], [[89.60097222222223, 24.407916666666665], [89.60652777777779, 24.395416666666666], [89.60736111111112, 24.40347222222222], [89.60097222222223, 24.407916666666665]], [[89.60347222222222, 24.16263888888889], [89.60097222222223, 24.15597222222222], [89.60569444444445, 24.155416666666664], [89.60347222222222, 24.16263888888889]], [[89.58152777777778, 24.17013888888889], [89.59152777777778, 24.17347222222222], [89.59450163398694, 24.16775326797386], [89.59680555555556, 24.17236111111111], [89.60208333333334, 24.170694444444443], [89.59819444444445, 24.166527777777777], [89.60430555555556, 24.17013888888889], [89.59819444444445, 24.200694444444444], [89.59208333333333, 24.19625], [89.59791666666666, 24.192083333333333], [89.59097222222222, 24.18847222222222], [89.59236111111112, 24.178749999999997], [89.58152777777778, 24.17013888888889]], [[89.59397509578544, 24.166700191570882], [89.58763888888889, 24.167638888888888], [89.59263888888889, 24.164027777777775], [89.59397509578544, 24.166700191570882]], [[89.59652777777778, 24.22236111111111], [89.59347222222223, 24.216527777777777], [89.60347222222222, 24.203194444444442], [89.59652777777778, 24.22236111111111]], [[89.59847222222223, 24.275972222222222], [89.60291666666667, 24.27347222222222], [89.60180555555556, 24.280416666666664], [89.59847222222223, 24.275972222222222]], [[89.59819444444445, 24.37625], [89.60152777777778, 24.389305555555556], [89.59430555555556, 24.387638888888887], [89.59819444444445, 24.37625]], [[89.59569444444445, 24.31958333333333], [89.59375, 24.32597222222222], [89.59208333333333, 24.312638888888888], [89.59569444444445, 24.31958333333333]], [[89.58652777777777, 24.21847222222222], [89.59458333333333, 24.221249999999998], [89.58541666666667, 24.225416666666664], [89.58652777777777, 24.21847222222222]], [[89.57792047184171, 24.400831430745814], [89.57319444444445, 24.41069444444444], [89.57208333333334, 24.40375], [89.57792047184171, 24.400831430745814]], [[89.5780365497076, 24.40058918128655], [89.57069444444444, 24.395694444444445], [89.57597222222222, 24.39736111111111], [89.57652777777778, 24.386805555555554], [89.58930555555555, 24.386805555555554], [89.57708333333333, 24.376805555555553], [89.58625, 24.372638888888886], [89.58347222222223, 24.364583333333332], [89.57680555555555, 24.36486111111111], [89.58097222222223, 24.361527777777777], [89.59152777777778, 24.372638888888886], [89.59430555555556, 24.387916666666666], [89.57958333333333, 24.39736111111111], [89.5780365497076, 24.40058918128655]], [[89.59375, 24.271805555555556], [89.59208333333333, 24.280416666666664], [89.58347222222223, 24.282638888888886], [89.58736111111111, 24.271805555555556], [89.59375, 24.271805555555556]], [[89.59097222222222, 24.296527777777776], [89.59319444444445, 24.293194444444442], [89.59291666666667, 24.29958333333333], [89.58430555555556, 24.295416666666664], [89.58736111111111, 24.291805555555555], [89.59097222222222, 24.296527777777776]], [[89.5839039162113, 24.258763661202185], [89.57958333333333, 24.23986111111111], [89.58513888888889, 24.248472222222222], [89.5839039162113, 24.258763661202185]], [[89.58494384177077, 24.263313335524874], [89.58808950617284, 24.265348765432098], [89.58625, 24.269027777777776], [89.58494384177077, 24.263313335524874]], [[89.58819444444444, 24.163194444444443], [89.59236111111112, 24.162916666666664], [89.58236111111111, 24.166805555555555], [89.58152777777778, 24.160138888888888], [89.58819444444444, 24.163194444444443]], [[89.58041666666666, 24.459027777777777], [89.58958333333334, 24.442916666666665], [89.59152777777778, 24.456527777777776], [89.58597222222222, 24.455138888888886], [89.58513888888889, 24.46486111111111], [89.58041666666666, 24.459027777777777]], [[89.58291666666666, 24.14597222222222], [89.58652777777777, 24.150138888888886], [89.58986111111112, 24.141527777777778], [89.58152777777778, 24.13486111111111], [89.59069444444445, 24.131805555555555], [89.58597222222222, 24.137638888888887], [89.59152777777778, 24.138194444444444], [89.58875, 24.151249999999997], [89.58375000000001, 24.15375], [89.58291666666666, 24.14597222222222]], [[89.5501388888889, 24.309027777777775], [89.53319444444445, 24.305416666666666], [89.52652777777779, 24.294305555555553], [89.53069444444445, 24.290416666666665], [89.53402777777778, 24.303749999999997], [89.54041666666667, 24.29958333333333], [89.55652777777777, 24.306527777777777], [89.54819444444445, 24.294027777777778], [89.55597222222222, 24.29958333333333], [89.56652777777778, 24.291805555555555], [89.55763888888889, 24.296805555555554], [89.5501388888889, 24.28847222222222], [89.56041666666667, 24.29097222222222], [89.55958333333334, 24.285138888888888], [89.56680555555556, 24.283194444444444], [89.57430555555555, 24.287916666666664], [89.56875000000001, 24.27375], [89.56041666666667, 24.27958333333333], [89.56486111111111, 24.269027777777776], [89.55319444444444, 24.271527777777777], [89.55819444444445, 24.26347222222222], [89.56736111111111, 24.267638888888886], [89.56819444444444, 24.262638888888887], [89.55791666666667, 24.261527777777776], [89.56958333333334, 24.26125], [89.56486111111111, 24.255694444444444], [89.57291666666667, 24.25125], [89.56708333333333, 24.244027777777777], [89.56115737125255, 24.246809351815696], [89.55513888888889, 24.236527777777777], [89.56041666666667, 24.244027777777777], [89.56847222222223, 24.239583333333332], [89.57513888888889, 24.24347222222222], [89.57708333333333, 24.254583333333333], [89.56902777777778, 24.26347222222222], [89.57625, 24.26597222222222], [89.57375, 24.275694444444444], [89.5826388888889, 24.27875], [89.57847222222223, 24.28625], [89.58486111111111, 24.28763888888889], [89.57763888888888, 24.291805555555555], [89.57819444444445, 24.27986111111111], [89.57125, 24.29958333333333], [89.56430555555556, 24.295972222222222], [89.56097222222222, 24.303472222222222], [89.56736111111111, 24.301527777777775], [89.57013888888889, 24.307916666666664], [89.57791666666667, 24.300694444444442], [89.58180555555556, 24.303749999999997], [89.57958333333333, 24.296249999999997], [89.58375000000001, 24.302916666666665], [89.58375000000001, 24.298194444444444], [89.59069444444445, 24.30013888888889], [89.57486111111112, 24.30875], [89.58152777777778, 24.30736111111111], [89.57819444444445, 24.31625], [89.57208333333334, 24.311527777777776], [89.57847222222223, 24.32347222222222], [89.56541666666666, 24.32375], [89.56847222222223, 24.334027777777777], [89.56180555555555, 24.332916666666666], [89.5626388888889, 24.32097222222222], [89.55069444444445, 24.31847222222222], [89.55819444444445, 24.317916666666665], [89.55791666666667, 24.310138888888886], [89.55347222222223, 24.310972222222222], [89.55819444444445, 24.30625], [89.5501388888889, 24.309027777777775]], [[89.57114130434783, 24.430624568668044], [89.56347222222223, 24.425694444444442], [89.57069444444444, 24.417916666666667], [89.58402777777778, 24.424305555555556], [89.58152777777778, 24.41375], [89.59041666666667, 24.42347222222222], [89.59013888888889, 24.428749999999997], [89.57961538461538, 24.426820690883186], [89.58958333333334, 24.431527777777777], [89.58208333333333, 24.436249999999998], [89.58097222222223, 24.43097222222222], [89.56791666666668, 24.43208333333333], [89.57114130434783, 24.430624568668044]], [[89.58930555555555, 24.358749999999997], [89.59013888888889, 24.36347222222222], [89.58375000000001, 24.359305555555554], [89.58930555555555, 24.358749999999997]], [[89.58541666666667, 24.12625], [89.58930555555555, 24.117916666666666], [89.58763888888889, 24.127916666666664], [89.57930555555556, 24.129583333333333], [89.58541666666667, 24.12625]], [[89.58513888888889, 24.400416666666665], [89.58930555555555, 24.399305555555554], [89.58680555555556, 24.40625], [89.58513888888889, 24.400416666666665]], [[89.58791666666667, 24.206805555555555], [89.58125, 24.210694444444442], [89.58069444444445, 24.203194444444442], [89.58791666666667, 24.206805555555555]], [[89.58069444444445, 24.22375], [89.58513888888889, 24.226805555555554], [89.57819444444445, 24.228749999999998], [89.58069444444445, 24.22375]], [[89.56569444444445, 24.18347222222222], [89.57986111111111, 24.18208333333333], [89.57319444444445, 24.19013888888889], [89.5826388888889, 24.199583333333333], [89.56986111111111, 24.195138888888888], [89.5723611111111, 24.18736111111111], [89.56569444444445, 24.18347222222222]], [[89.57013888888889, 24.216805555555553], [89.56625, 24.220972222222223], [89.56097222222222, 24.215694444444445], [89.56791666666668, 24.216527777777777], [89.56736111111111, 24.212083333333332], [89.57319444444445, 24.219583333333333], [89.58097222222223, 24.210416666666664], [89.57291666666667, 24.22236111111111], [89.57875, 24.22958333333333], [89.57402777777779, 24.240138888888886], [89.57347222222222, 24.23097222222222], [89.56347222222223, 24.227083333333333], [89.57013888888889, 24.216805555555553]], [[89.58097222222223, 24.352361111111108], [89.57986111111111, 24.35763888888889], [89.57152777777777, 24.35347222222222], [89.57652777777778, 24.347638888888888], [89.56791666666668, 24.350694444444443], [89.57541666666667, 24.33375], [89.58097222222223, 24.352361111111108]], [[89.5801388888889, 24.51458333333333], [89.57652777777778, 24.519027777777776], [89.57541666666667, 24.51347222222222], [89.5801388888889, 24.51458333333333]], [[89.56680555555556, 24.379305555555554], [89.57763888888888, 24.38513888888889], [89.57041666666667, 24.38625], [89.56680555555556, 24.379305555555554]], [[89.57513888888889, 24.434583333333332], [89.56680555555556, 24.444305555555555], [89.56736111111111, 24.435416666666665], [89.57513888888889, 24.434583333333332]], [[89.57513888888889, 24.411527777777778], [89.57430555555555, 24.41708333333333], [89.56875000000001, 24.41597222222222], [89.57513888888889, 24.411527777777778]], [[89.57513888888889, 24.360138888888887], [89.57152777777777, 24.36375], [89.56402777777778, 24.356805555555553], [89.57513888888889, 24.360138888888887]], [[89.56958333333334, 24.154305555555553], [89.5723611111111, 24.159027777777776], [89.56291666666667, 24.15986111111111], [89.56958333333334, 24.154305555555553]], [[89.56486111111111, 24.494027777777777], [89.55736111111112, 24.489027777777775], [89.56819444444444, 24.48847222222222], [89.56291666666667, 24.498472222222222], [89.56486111111111, 24.494027777777777]], [[89.5676388888889, 24.44875], [89.56180555555555, 24.450138888888887], [89.56180555555555, 24.444305555555555], [89.5676388888889, 24.44875]], [[89.56236111111112, 24.511527777777776], [89.55930555555555, 24.514305555555556], [89.56208333333333, 24.507638888888888], [89.56680555555556, 24.515694444444442], [89.56236111111112, 24.511527777777776]], [[89.55819444444445, 24.392638888888886], [89.56013888888889, 24.38347222222222], [89.56597222222223, 24.384027777777778], [89.55819444444445, 24.392638888888886]], [[89.5651388888889, 24.539861111111108], [89.56569444444445, 24.544305555555553], [89.56208333333333, 24.53597222222222], [89.5651388888889, 24.539861111111108]], [[89.56430555555556, 24.33986111111111], [89.56013888888889, 24.345694444444444], [89.55763888888889, 24.337083333333332], [89.56430555555556, 24.33986111111111]], [[89.55652777777777, 24.50875], [89.55930555555555, 24.498472222222222], [89.56291666666667, 24.50597222222222], [89.55652777777777, 24.50875]], [[89.55791666666667, 24.35486111111111], [89.56180555555555, 24.35763888888889], [89.55736111111112, 24.36236111111111], [89.5526388888889, 24.35597222222222], [89.55791666666667, 24.35486111111111]], [[89.55569444444444, 24.549027777777777], [89.55708333333334, 24.54097222222222], [89.56069444444445, 24.544583333333332], [89.55569444444444, 24.549027777777777]], [[89.55819444444445, 24.44847222222222], [89.56013888888889, 24.444305555555555], [89.56013888888889, 24.45347222222222], [89.55819444444445, 24.44847222222222]], [[89.55625, 24.347916666666666], [89.55236111111111, 24.340416666666666], [89.55930555555555, 24.350694444444443], [89.55625, 24.347916666666666]], [[89.54930555555556, 24.497916666666665], [89.54986111111111, 24.489027777777775], [89.55097222222223, 24.494305555555552], [89.55819444444445, 24.49375], [89.54930555555556, 24.497916666666665]], [[89.54902777777778, 24.375416666666666], [89.55291666666668, 24.368194444444445], [89.55819444444445, 24.37486111111111], [89.54902777777778, 24.375416666666666]], [[89.54291666666667, 24.390138888888888], [89.55791666666667, 24.395138888888887], [89.54319444444445, 24.39708333333333], [89.54291666666667, 24.390138888888888]], [[89.55041666666666, 24.456805555555555], [89.55541666666667, 24.45347222222222], [89.54958333333333, 24.46125], [89.55291666666668, 24.468194444444443], [89.5501388888889, 24.464027777777776], [89.54569444444445, 24.469027777777775], [89.55041666666666, 24.456805555555555]], [[89.55402777777778, 24.228194444444444], [89.55041666666666, 24.23597222222222], [89.5476388888889, 24.227361111111108], [89.55402777777778, 24.228194444444444]], [[89.54652777777778, 24.200694444444444], [89.55152777777778, 24.205694444444443], [89.54208333333334, 24.20208333333333], [89.54652777777778, 24.200694444444444]], [[89.54430555555555, 24.372083333333332], [89.54458333333334, 24.36208333333333], [89.55125, 24.367638888888887], [89.54430555555555, 24.372083333333332]], [[89.54208333333334, 24.389027777777777], [89.54125, 24.38486111111111], [89.54847222222223, 24.386805555555554], [89.54208333333334, 24.389027777777777]], [[89.54152777777779, 24.33347222222222], [89.54180555555556, 24.32875], [89.5476388888889, 24.33486111111111], [89.54152777777779, 24.33347222222222]], [[89.54013888888889, 24.28236111111111], [89.54541666666667, 24.281805555555554], [89.54708333333333, 24.289583333333333], [89.54013888888889, 24.28236111111111]], [[89.53986111111111, 24.344027777777775], [89.54652777777778, 24.34347222222222], [89.53958333333334, 24.34819444444444], [89.53986111111111, 24.344027777777775]], [[89.5306291531448, 24.482305864626795], [89.52708333333334, 24.479305555555555], [89.54236111111112, 24.474027777777778], [89.54430555555555, 24.478749999999998], [89.5306291531448, 24.482305864626795]], [[89.53079337899544, 24.48244482496195], [89.53791666666667, 24.484027777777776], [89.53875000000001, 24.490972222222222], [89.53319444444445, 24.492916666666666], [89.53430555555556, 24.485416666666666], [89.53079337899544, 24.48244482496195]], [[89.53986111111111, 24.45236111111111], [89.52819444444445, 24.453194444444442], [89.53291666666667, 24.44597222222222], [89.53986111111111, 24.45236111111111]], [[89.53208333333333, 24.336805555555554], [89.52597222222222, 24.331805555555555], [89.53680555555556, 24.336805555555554], [89.53013888888889, 24.34486111111111], [89.52597222222222, 24.34208333333333], [89.53208333333333, 24.336805555555554]], [[89.53319444444445, 24.33236111111111], [89.52541666666667, 24.330694444444443], [89.53291666666667, 24.327916666666667], [89.53319444444445, 24.33236111111111]], [[89.53291666666667, 24.388194444444444], [89.52625, 24.392916666666665], [89.52875, 24.385416666666664], [89.53291666666667, 24.388194444444444]], [[89.51569444444445, 24.437083333333334], [89.52597222222222, 24.433194444444442], [89.5326388888889, 24.441805555555554], [89.52347222222222, 24.437638888888888], [89.52375, 24.44458333333333], [89.52291666666667, 24.43736111111111], [89.51569444444445, 24.437083333333334]], [[89.52513888888889, 24.312638888888888], [89.52930555555555, 24.312916666666666], [89.52541666666667, 24.316527777777775], [89.51986111111111, 24.310694444444444], [89.52513888888889, 24.312638888888888]], [[89.52375, 24.291527777777777], [89.51597222222223, 24.285416666666666], [89.52319444444444, 24.290138888888887], [89.52902777777778, 24.285416666666666], [89.52375, 24.297083333333333], [89.52375, 24.291527777777777]], [[89.52208333333334, 24.351527777777775], [89.52763888888889, 24.35597222222222], [89.51902777777778, 24.358472222222222], [89.52208333333334, 24.351527777777775]], [[89.51652777777778, 24.419027777777778], [89.52402777777777, 24.415416666666665], [89.52166502301118, 24.41943334976989], [89.51652777777778, 24.419027777777778]], [[89.52291666666667, 24.46097222222222], [89.51791666666666, 24.449027777777776], [89.52597222222222, 24.44486111111111], [89.52291666666667, 24.46097222222222]], [[89.52125000000001, 24.280694444444443], [89.52569444444444, 24.28125], [89.51958333333333, 24.281527777777775], [89.52125000000001, 24.275972222222222], [89.52125000000001, 24.280694444444443]], [[89.52236111111111, 24.400416666666665], [89.52513888888889, 24.40347222222222], [89.52041666666666, 24.403194444444445], [89.52347222222222, 24.39486111111111], [89.52236111111111, 24.400416666666665]], [[89.50291666666666, 24.360138888888887], [89.49736111111112, 24.365694444444443], [89.48875, 24.36347222222222], [89.49791666666667, 24.364305555555553], [89.49625, 24.360416666666666], [89.50819444444444, 24.35597222222222], [89.51875, 24.360138888888887], [89.50291666666666, 24.360138888888887]], [[89.51625, 24.225416666666664], [89.51347222222222, 24.229027777777777], [89.51847222222223, 24.221249999999998], [89.51625, 24.225416666666664]], [[89.50652777777778, 24.38375], [89.51625, 24.380694444444444], [89.51597222222223, 24.38597222222222], [89.50652777777778, 24.38375]], [[89.51458333333333, 24.29375], [89.51125, 24.29875], [89.50902777777777, 24.29375], [89.51458333333333, 24.29375]], [[89.51013888888889, 24.39763888888889], [89.50736111111111, 24.39236111111111], [89.51430555555555, 24.387361111111108], [89.51013888888889, 24.39763888888889]], [[89.50791666666667, 24.44486111111111], [89.50541666666668, 24.45986111111111], [89.50708333333334, 24.445416666666667], [89.50041666666667, 24.445416666666667], [89.51402777777778, 24.436805555555555], [89.50680555555556, 24.460694444444442], [89.50791666666667, 24.44486111111111]], [[89.50847222222222, 24.367083333333333], [89.5051388888889, 24.37097222222222], [89.50430555555556, 24.365138888888886], [89.50847222222222, 24.367083333333333]], [[89.49960429769392, 24.32420711421019], [89.50486111111111, 24.32375], [89.50569444444444, 24.330694444444443], [89.49960429769392, 24.32420711421019]], [[89.49915222222222, 24.32372555555555], [89.49291666666667, 24.317083333333333], [89.50791666666667, 24.31625], [89.49915222222222, 24.32372555555555]], [[89.48125, 24.40347222222222], [89.47736111111111, 24.410138888888888], [89.47680555555556, 24.39986111111111], [89.48263888888889, 24.398194444444442], [89.45791666666666, 24.390416666666667], [89.45986111111111, 24.39597222222222], [89.45375, 24.395694444444445], [89.45069444444445, 24.387916666666666], [89.46069444444444, 24.38486111111111], [89.46263888888889, 24.370694444444442], [89.46847222222223, 24.381249999999998], [89.45597222222223, 24.389305555555556], [89.46513888888889, 24.38625], [89.46347222222222, 24.391805555555553], [89.47041666666667, 24.388194444444444], [89.46736111111112, 24.392638888888886], [89.48486111111112, 24.39847222222222], [89.48791666666666, 24.392638888888886], [89.48208333333334, 24.38847222222222], [89.49347222222222, 24.387361111111108], [89.48402777777778, 24.381527777777777], [89.48875, 24.374305555555555], [89.50097222222223, 24.37847222222222], [89.49180555555556, 24.367916666666666], [89.49597222222222, 24.365972222222222], [89.50486111111111, 24.377916666666664], [89.48875, 24.381805555555555], [89.49625, 24.38625], [89.48875, 24.389305555555556], [89.49375, 24.39763888888889], [89.48819444444445, 24.39986111111111], [89.49513888888889, 24.402083333333334], [89.48125, 24.40347222222222]], [[89.50152777777778, 24.505138888888887], [89.49791666666667, 24.50708333333333], [89.50375, 24.501805555555553], [89.50152777777778, 24.505138888888887]], [[89.5026388888889, 24.463749999999997], [89.49847222222222, 24.471527777777776], [89.49986111111112, 24.45375], [89.5026388888889, 24.463749999999997]], [[89.49819444444445, 24.25986111111111], [89.50236111111111, 24.262916666666666], [89.49680555555555, 24.268749999999997], [89.49819444444445, 24.25986111111111]], [[89.50125, 24.341805555555553], [89.5001388888889, 24.352361111111108], [89.49708333333334, 24.338749999999997], [89.50125, 24.341805555555553]], [[89.49513888888889, 24.324305555555554], [89.49958333333333, 24.327638888888888], [89.49069444444444, 24.32986111111111], [89.49513888888889, 24.324305555555554]], [[89.49263888888889, 24.34263888888889], [89.49708333333334, 24.340138888888887], [89.49847222222222, 24.34736111111111], [89.49263888888889, 24.34263888888889]], [[89.49791666666667, 24.30847222222222], [89.48069444444445, 24.300694444444442], [89.48263888888889, 24.295416666666664], [89.49791666666667, 24.30847222222222]], [[89.49736111111112, 24.312638888888888], [89.48541666666667, 24.31513888888889], [89.48847222222223, 24.30986111111111], [89.49736111111112, 24.312638888888888]], [[89.48791666666666, 24.43208333333333], [89.49430555555556, 24.43819444444444], [89.48652777777778, 24.445138888888888], [89.48208333333334, 24.44347222222222], [89.48875, 24.433194444444442], [89.48013888888889, 24.429305555555555], [89.48791666666666, 24.43208333333333]], [[89.49347222222222, 24.454027777777778], [89.48930555555556, 24.457638888888887], [89.48625, 24.448194444444443], [89.49347222222222, 24.454027777777778]], [[89.48319444444445, 24.474027777777778], [89.4876388888889, 24.477083333333333], [89.47069444444445, 24.47236111111111], [89.46236111111111, 24.477916666666665], [89.46180555555556, 24.46736111111111], [89.46791666666667, 24.464305555555555], [89.46875, 24.47347222222222], [89.47236111111111, 24.46847222222222], [89.48152777777779, 24.47375], [89.49041666666668, 24.470416666666665], [89.49291666666667, 24.47597222222222], [89.48319444444445, 24.474027777777778]], [[89.48986111111111, 24.25208333333333], [89.48680555555556, 24.255138888888887], [89.48875, 24.248194444444444], [89.48986111111111, 24.25208333333333]], [[89.48736111111111, 24.345138888888886], [89.48347222222222, 24.347638888888888], [89.48069444444445, 24.339305555555555], [89.48736111111111, 24.345138888888886]], [[89.47646099496708, 24.439921118854038], [89.46902777777778, 24.435972222222222], [89.47597222222223, 24.43347222222222], [89.47597222222223, 24.425416666666667], [89.47763888888889, 24.42986111111111], [89.48236111111112, 24.432916666666664], [89.47486111111111, 24.436805555555555], [89.47646099496708, 24.439921118854038]], [[89.47892094017097, 24.444711538461576], [89.48013888888889, 24.44708333333333], [89.48625, 24.446805555555553], [89.47930555555556, 24.44763888888889], [89.48097222222222, 24.46013888888889], [89.47597222222223, 24.462916666666665], [89.46958333333333, 24.455416666666665], [89.47763888888889, 24.447916666666664], [89.46875, 24.44708333333333], [89.47902777777779, 24.445138888888888], [89.47892094017097, 24.444711538461576]], [[89.48236111111112, 24.459305555555556], [89.48319444444445, 24.46847222222222], [89.47402777777778, 24.469027777777775], [89.48236111111112, 24.459305555555556]], [[89.48041666666667, 24.332083333333333], [89.47847222222222, 24.34236111111111], [89.47319444444445, 24.339583333333334], [89.48041666666667, 24.332083333333333]], [[89.46875, 24.34708333333333], [89.4726388888889, 24.345972222222223], [89.46791666666667, 24.351527777777775], [89.46875, 24.34708333333333]], [[89.46736111111112, 24.340138888888887], [89.46263888888889, 24.33486111111111], [89.47208333333333, 24.344027777777775], [89.46736111111112, 24.340138888888887]], [[89.45902777777778, 24.362916666666667], [89.45625, 24.37097222222222], [89.45347222222223, 24.358194444444443], [89.45541666666666, 24.365138888888886], [89.46486111111112, 24.35597222222222], [89.45263888888888, 24.35347222222222], [89.46513888888889, 24.351805555555554], [89.46458333333334, 24.361527777777777], [89.47041666666667, 24.364305555555553], [89.45902777777778, 24.362916666666667]], [[89.46236111111111, 24.40375], [89.46402777777779, 24.397916666666664], [89.46902777777778, 24.40958333333333], [89.46236111111111, 24.40375]], [[89.46458333333334, 24.409027777777776], [89.46819444444445, 24.415138888888887], [89.46180555555556, 24.415694444444444], [89.45902777777778, 24.407916666666665], [89.46458333333334, 24.409027777777776]], [[89.45791666666666, 24.435694444444444], [89.45236111111112, 24.43208333333333], [89.46291666666667, 24.436805555555555], [89.46208333333334, 24.449305555555554], [89.4551388888889, 24.44736111111111], [89.45791666666666, 24.435694444444444]], [[89.45347222222223, 24.428472222222222], [89.46125, 24.42513888888889], [89.4576388888889, 24.431805555555552], [89.45347222222223, 24.428472222222222]], [[89.45347222222223, 24.407083333333333], [89.45791666666666, 24.410138888888888], [89.45097222222222, 24.411805555555553], [89.45347222222223, 24.407083333333333]], [[89.41263888888889, 24.42013888888889], [89.42069444444445, 24.415416666666665], [89.41708333333334, 24.428194444444443], [89.42847222222223, 24.439305555555553], [89.43402777777779, 24.43347222222222], [89.4276388888889, 24.428749999999997], [89.43347222222222, 24.41847222222222], [89.45402777777778, 24.42458333333333], [89.44486111111111, 24.435416666666665], [89.43986111111111, 24.42236111111111], [89.42958333333334, 24.428194444444443], [89.43652777777778, 24.427916666666665], [89.43180555555556, 24.43847222222222], [89.4401388888889, 24.435138888888886], [89.43791666666667, 24.462638888888886], [89.42847222222223, 24.459305555555556], [89.43569444444445, 24.45875], [89.43541666666667, 24.44125], [89.42375, 24.442083333333333], [89.43041666666667, 24.447916666666664], [89.42680555555556, 24.45347222222222], [89.41930555555555, 24.439027777777778], [89.42430555555556, 24.435972222222222], [89.41736111111112, 24.428749999999997], [89.41902777777779, 24.436527777777776], [89.41486111111111, 24.435416666666665], [89.40569444444445, 24.425694444444442], [89.40930555555556, 24.416805555555555], [89.40069444444444, 24.414861111111108], [89.40847222222223, 24.41208333333333], [89.41263888888889, 24.42013888888889]], [[89.45041666666667, 24.395694444444445], [89.44986111111112, 24.404305555555553], [89.44513888888889, 24.401249999999997], [89.45041666666667, 24.395694444444445]], [[89.44902777777779, 24.283194444444444], [89.44458333333334, 24.28486111111111], [89.44652777777777, 24.278194444444445], [89.44902777777779, 24.283194444444444]], [[89.44875, 24.434583333333332], [89.44680555555556, 24.44569444444444], [89.44347222222223, 24.436805555555555], [89.44875, 24.434583333333332]], [[89.44069444444445, 24.456527777777776], [89.44097222222223, 24.44736111111111], [89.44569444444444, 24.44847222222222], [89.44708333333334, 24.457083333333333], [89.43986111111111, 24.461805555555554], [89.44069444444445, 24.456527777777776]], [[89.43652777777778, 24.407916666666665], [89.44041666666666, 24.41208333333333], [89.43486111111112, 24.41597222222222], [89.43652777777778, 24.407916666666665]], [[89.42875000000001, 24.381805555555555], [89.43736111111112, 24.380416666666665], [89.43041666666667, 24.387916666666666], [89.42875000000001, 24.381805555555555]], [[89.42902777777778, 24.371527777777775], [89.43347222222222, 24.369027777777777], [89.42402777777778, 24.378194444444443], [89.42902777777778, 24.371527777777775]], [[89.41791666666667, 24.340694444444445], [89.41958333333334, 24.33625], [89.43041666666667, 24.34097222222222], [89.41986111111112, 24.34486111111111], [89.41791666666667, 24.340694444444445]], [[89.42958333333334, 24.465138888888887], [89.42152777777778, 24.46736111111111], [89.42875000000001, 24.465138888888887], [89.42430555555556, 24.46236111111111], [89.42958333333334, 24.465138888888887]], [[89.42013888888889, 24.351527777777775], [89.41902777777779, 24.36236111111111], [89.41680555555556, 24.346249999999998], [89.42930555555556, 24.346249999999998], [89.42013888888889, 24.351527777777775]], [[89.41375000000001, 24.376805555555553], [89.42847222222223, 24.381527777777777], [89.41736111111112, 24.380138888888887], [89.42625, 24.38236111111111], [89.41763888888889, 24.385416666666664], [89.41375000000001, 24.376805555555553]], [[89.41625, 24.50875], [89.41875, 24.499027777777776], [89.41958333333334, 24.50847222222222], [89.4101388888889, 24.518749999999997], [89.40263888888889, 24.512638888888887], [89.41625, 24.50875]], [[89.41319444444444, 24.365972222222222], [89.41736111111112, 24.371805555555554], [89.41291666666667, 24.37486111111111], [89.41319444444444, 24.365972222222222]], [[89.41708333333334, 24.38458333333333], [89.41125000000001, 24.389305555555556], [89.41152777777778, 24.38347222222222], [89.41708333333334, 24.38458333333333]], [[89.39736111111111, 24.498749999999998], [89.39708333333334, 24.490694444444443], [89.40375, 24.486805555555556], [89.41319444444444, 24.490416666666665], [89.40125, 24.494027777777777], [89.40625, 24.50125], [89.40041666666667, 24.504583333333333], [89.39736111111111, 24.498749999999998]], [[89.41152777777778, 24.39708333333333], [89.40486111111112, 24.399305555555554], [89.40291666666667, 24.38958333333333], [89.41152777777778, 24.39708333333333]], [[89.39041666666667, 24.47347222222222], [89.39763888888889, 24.477916666666665], [89.38847222222222, 24.47958333333333], [89.39041666666667, 24.47347222222222]], [[89.38902777777778, 24.415694444444444], [89.39569444444444, 24.41597222222222], [89.39291666666666, 24.42513888888889], [89.38902777777778, 24.415694444444444]], [[89.3848611111111, 24.41375], [89.37958333333333, 24.411805555555553], [89.39458333333333, 24.408749999999998], [89.3848611111111, 24.41375]], [[89.39236111111111, 24.460694444444442], [89.39347222222223, 24.46625], [89.38791666666667, 24.46736111111111], [89.39236111111111, 24.460694444444442]], [[89.39041666666667, 24.448194444444443], [89.39152777777778, 24.444027777777777], [89.38958333333333, 24.455694444444443], [89.39041666666667, 24.448194444444443]], [[89.38986111111112, 24.342916666666664], [89.38208333333334, 24.35125], [89.37875, 24.34819444444444], [89.38986111111112, 24.342916666666664]], [[89.38180555555556, 24.395138888888887], [89.37930555555556, 24.387361111111108], [89.38652777777779, 24.39597222222222], [89.38625, 24.38458333333333], [89.38763888888889, 24.401249999999997], [89.38180555555556, 24.395138888888887]], [[89.38263888888889, 24.37763888888889], [89.38680555555555, 24.374583333333334], [89.38402777777777, 24.38597222222222], [89.38263888888889, 24.37763888888889]], [[89.36902777777777, 24.431527777777777], [89.36402777777778, 24.434305555555554], [89.36763888888889, 24.42375], [89.37736111111111, 24.42625], [89.38167896497443, 24.43548127377673], [89.36902777777777, 24.431527777777777]], [[89.38205233023302, 24.43627950295029], [89.38541666666667, 24.44347222222222], [89.37708333333333, 24.44569444444444], [89.38205233023302, 24.43627950295029]], [[89.37902777777778, 24.475416666666664], [89.37486111111112, 24.47319444444444], [89.37958333333333, 24.469583333333333], [89.37902777777778, 24.475416666666664]], [[89.36652777777778, 24.495694444444442], [89.36347222222223, 24.492638888888887], [89.37902777777778, 24.49486111111111], [89.36652777777778, 24.495694444444442]], [[89.37875, 24.481527777777778], [89.37486111111112, 24.485416666666666], [89.3751388888889, 24.479305555555555], [89.37875, 24.481527777777778]], [[89.37680555555556, 24.353749999999998], [89.37208333333334, 24.352916666666665], [89.37708333333333, 24.349027777777778], [89.37680555555556, 24.353749999999998]], [[89.37375, 24.512083333333333], [89.36986111111112, 24.506249999999998], [89.37652777777778, 24.504583333333333], [89.37375, 24.512083333333333]], [[89.36902777777777, 24.37986111111111], [89.36597222222223, 24.373472222222222], [89.37180555555555, 24.373194444444444], [89.3751388888889, 24.377916666666664], [89.36902777777777, 24.37986111111111]], [[89.36458333333334, 24.388749999999998], [89.37125, 24.399583333333332], [89.36486111111111, 24.39763888888889], [89.36458333333334, 24.388749999999998]], [[89.35569444444445, 24.35736111111111], [89.35986111111112, 24.354305555555555], [89.36180555555556, 24.36263888888889], [89.35569444444445, 24.35736111111111]], [[89.35125000000001, 24.45486111111111], [89.35652777777779, 24.45736111111111], [89.34569444444445, 24.46486111111111], [89.34402777777778, 24.455694444444443], [89.35125000000001, 24.45486111111111]], [[89.35180555555556, 24.477916666666665], [89.35625, 24.477916666666665], [89.35430555555556, 24.483194444444443], [89.35180555555556, 24.477916666666665]], [[89.34041666666667, 24.50958333333333], [89.35291666666667, 24.501527777777778], [89.34958333333334, 24.505138888888887], [89.35625, 24.509027777777778], [89.34402777777778, 24.51458333333333], [89.34041666666667, 24.50958333333333]], [[89.33763888888889, 24.495694444444442], [89.34069444444445, 24.489027777777775], [89.33486111111111, 24.486805555555556], [89.34486111111111, 24.47986111111111], [89.34652777777778, 24.492083333333333], [89.33763888888889, 24.495694444444442]], [[89.32152777777777, 24.510694444444443], [89.32847222222223, 24.50847222222222], [89.32430555555555, 24.517083333333332], [89.32152777777777, 24.510694444444443]], [[89.32208333333334, 24.45958333333333], [89.32680555555555, 24.464305555555555], [89.31819444444444, 24.45847222222222], [89.32208333333334, 24.45958333333333]], [[89.31486111111111, 24.47375], [89.31569444444445, 24.480138888888888], [89.31097222222222, 24.477361111111108], [89.31486111111111, 24.47375]], [[89.29291666666667, 24.467916666666664], [89.28902777777778, 24.471249999999998], [89.28541666666666, 24.46625], [89.29291666666667, 24.467916666666664]]], [[[89.65134230769232, 24.605961538461536], [89.65492738296673, 24.594758178228982], [89.64875, 24.602361111111108], [89.65134230769232, 24.605961538461536]]], [[[89.65708372129113, 24.40285730912477], [89.65236111111112, 24.40597222222222], [89.65597222222223, 24.41375], [89.65708372129113, 24.40285730912477]]], [[[89.61433261183262, 24.54898088023088], [89.61708333333334, 24.54986111111111], [89.61486111111111, 24.55736111111111], [89.60180555555556, 24.56236111111111], [89.60375, 24.576805555555556], [89.60791666666667, 24.564305555555553], [89.61180555555556, 24.57097222222222], [89.61569444444444, 24.561527777777776], [89.62347222222222, 24.561527777777776], [89.61708333333334, 24.559305555555554], [89.62097222222222, 24.553194444444443], [89.62958333333333, 24.55597222222222], [89.62375, 24.54958333333333], [89.63763888888889, 24.560694444444444], [89.63708333333334, 24.552916666666665], [89.62791666666666, 24.549027777777777], [89.63513888888889, 24.54986111111111], [89.64819444444444, 24.562638888888888], [89.63569444444445, 24.545694444444443], [89.61433261183262, 24.54898088023088]]], [[[89.51782244248653, 24.48854686735193], [89.51375, 24.48708333333333], [89.51375, 24.50347222222222], [89.52513888888889, 24.511805555555554], [89.51236111111112, 24.51625], [89.51180555555555, 24.52347222222222], [89.53384668508288, 24.526547728667897], [89.52125000000001, 24.520138888888887], [89.52708333333334, 24.510694444444443], [89.51486111111112, 24.50097222222222], [89.51597222222223, 24.488194444444442], [89.51782244248653, 24.48854686735193]]], [[[89.53496379364334, 24.527116082146023], [89.52458333333334, 24.531527777777775], [89.53041666666667, 24.544305555555553], [89.523143939394, 24.539154040404078], [89.53097222222223, 24.545416666666664], [89.52625, 24.532083333333333], [89.53541666666666, 24.533194444444444], [89.53708333333334, 24.528194444444445], [89.53496379364334, 24.527116082146023]]], [[[89.47577612675241, 24.50339720194647], [89.48013888888889, 24.51597222222222], [89.48125, 24.505138888888887], [89.47577612675241, 24.50339720194647]]], [[[89.65941219062665, 24.49144220642443], [89.65847222222223, 24.505138888888887], [89.66208333333334, 24.497638888888886], [89.66541666666667, 24.50097222222222], [89.67180555555557, 24.497638888888886], [89.65941219062665, 24.49144220642443]]], [[[89.67630805805807, 24.270258008008007], [89.68208333333334, 24.277083333333334], [89.68625, 24.27236111111111], [89.67630805805807, 24.270258008008007]]], [[[89.78152777777778, 24.579027777777778], [89.77152777777778, 24.60097222222222], [89.78569444444445, 24.575138888888887], [89.7826388888889, 24.569027777777777], [89.78152777777778, 24.579027777777778]]], [[[89.74430555555556, 24.486805555555556], [89.73152777777779, 24.505138888888887], [89.74319444444444, 24.49513888888889], [89.74041666666668, 24.514027777777777], [89.75625000000001, 24.497083333333332], [89.75236111111111, 24.490416666666665], [89.74791666666667, 24.494027777777777], [89.75097222222223, 24.48847222222222], [89.74319444444444, 24.489583333333332], [89.74736111111112, 24.482916666666664], [89.74430555555556, 24.486805555555556]], [[89.74902777777778, 24.494027777777777], [89.75458333333333, 24.495416666666664], [89.74652777777779, 24.497638888888886], [89.74902777777778, 24.494027777777777]]], [[[89.70986111111111, 24.413194444444443], [89.70986111111111, 24.407916666666665], [89.70597222222223, 24.413194444444443], [89.69652777777777, 24.41069444444444], [89.71069444444444, 24.42458333333333], [89.70986111111111, 24.413194444444443]]], [[[89.70986111111111, 24.37875], [89.7051388888889, 24.37013888888889], [89.70263888888888, 24.38513888888889], [89.70986111111111, 24.37875]]], [[[89.70597222222223, 24.30875], [89.69291666666668, 24.30486111111111], [89.68736111111112, 24.30986111111111], [89.69430555555556, 24.314027777777778], [89.69791666666667, 24.309027777777775], [89.69486111111111, 24.31486111111111], [89.70680555555556, 24.317916666666665], [89.70597222222223, 24.30875]]], [[[89.68708333333333, 24.479027777777777], [89.70097222222222, 24.46847222222222], [89.68680555555555, 24.472916666666666], [89.68347222222222, 24.485694444444444], [89.68708333333333, 24.479027777777777]]], [[[89.69541666666667, 24.435138888888886], [89.68986111111111, 24.428749999999997], [89.68819444444445, 24.434583333333332], [89.69541666666667, 24.435138888888886]]], [[[89.68875, 24.294583333333332], [89.69375000000001, 24.291527777777777], [89.68236111111112, 24.28569444444444], [89.68875, 24.294583333333332]]], [[[89.68125, 24.243194444444445], [89.68402777777779, 24.25236111111111], [89.68875, 24.240138888888886], [89.67958333333334, 24.23486111111111], [89.67541666666666, 24.24458333333333], [89.68125, 24.243194444444445]]], [[[89.66625, 24.50958333333333], [89.66347222222223, 24.504027777777775], [89.65097222222222, 24.512361111111108], [89.66236111111111, 24.51986111111111], [89.65986111111111, 24.51347222222222], [89.66625, 24.50958333333333]]], [[[89.65847222222223, 24.546527777777776], [89.66319444444444, 24.542638888888888], [89.65708333333333, 24.53597222222222], [89.65902777777778, 24.542638888888888], [89.65291666666667, 24.545972222222222], [89.65847222222223, 24.546527777777776]]], [[[89.65902777777778, 24.436805555555555], [89.65041666666667, 24.42736111111111], [89.65375, 24.44625], [89.65902777777778, 24.436805555555555]]], [[[89.64763888888889, 24.501527777777778], [89.64041666666667, 24.498749999999998], [89.64986111111111, 24.50875], [89.64763888888889, 24.501527777777778]]], [[[89.64180555555556, 24.469027777777775], [89.64708333333334, 24.477361111111108], [89.64875, 24.47236111111111], [89.64180555555556, 24.469027777777775]]], [[[89.64013888888888, 24.57597222222222], [89.64208333333333, 24.56736111111111], [89.63625, 24.57069444444444], [89.64013888888888, 24.57597222222222]]], [[[89.63208333333334, 24.443194444444444], [89.64069444444445, 24.43236111111111], [89.6301388888889, 24.440416666666664], [89.62402777777778, 24.437083333333334], [89.63430555555556, 24.446805555555553], [89.63208333333334, 24.443194444444444]]], [[[89.6151388888889, 24.54486111111111], [89.62319444444445, 24.544027777777778], [89.61097222222223, 24.53847222222222], [89.6151388888889, 24.54486111111111]]], [[[89.61236111111111, 24.644583333333333], [89.60986111111112, 24.63625], [89.60597222222222, 24.644027777777776], [89.61236111111111, 24.644583333333333]]], [[[89.60875, 24.60125], [89.60930555555557, 24.58375], [89.60402777777779, 24.579305555555553], [89.60291666666667, 24.587638888888886], [89.60597222222222, 24.581805555555555], [89.60819444444445, 24.588194444444444], [89.59930555555556, 24.59486111111111], [89.60791666666667, 24.591527777777777], [89.60875, 24.60125]]], [[[89.60875, 24.46875], [89.60569444444445, 24.459027777777777], [89.59652777777778, 24.46097222222222], [89.60152777777778, 24.462638888888886], [89.59930555555556, 24.47958333333333], [89.60486111111112, 24.479305555555555], [89.60875, 24.46875]]], [[[89.5628022875817, 24.6238112745098], [89.58236111111111, 24.626527777777778], [89.59152777777778, 24.614027777777775], [89.5947284411277, 24.62322968490877], [89.59680555555556, 24.611805555555556], [89.58986111111112, 24.610694444444444], [89.58236111111111, 24.624583333333334], [89.5628022875817, 24.6238112745098]]], [[[89.59847222222223, 24.638194444444444], [89.60152777777778, 24.63347222222222], [89.59569444444445, 24.630694444444444], [89.59208333333333, 24.638749999999998], [89.59847222222223, 24.638194444444444]]], [[[89.59652777777778, 24.492638888888887], [89.59208333333333, 24.490972222222222], [89.59236111111112, 24.50097222222222], [89.59652777777778, 24.492638888888887]]], [[[89.55958333333334, 24.311527777777776], [89.56541666666666, 24.32097222222222], [89.56847222222223, 24.31513888888889], [89.55958333333334, 24.311527777777776]]], [[[89.5590095296026, 24.6546599756691], [89.55652777777777, 24.65375], [89.55097222222223, 24.665694444444444], [89.55625, 24.666249999999998], [89.5590095296026, 24.6546599756691]]], [[[89.55914719226162, 24.654710451977405], [89.5676388888889, 24.66375], [89.56319444444445, 24.64597222222222], [89.55597222222222, 24.644305555555555], [89.5626388888889, 24.646527777777777], [89.56486111111111, 24.656805555555554], [89.55914719226162, 24.654710451977405]]], [[[89.52236111111111, 24.479305555555555], [89.51569444444445, 24.48597222222222], [89.52763888888889, 24.489583333333332], [89.52236111111111, 24.479305555555555]]], [[[89.51097222222222, 24.532083333333333], [89.51097222222222, 24.518194444444443], [89.50041666666667, 24.524027777777775], [89.51097222222222, 24.532083333333333]]], [[[89.47795054200543, 24.546717479674797], [89.47680555555556, 24.546805555555554], [89.47625000000001, 24.541527777777777], [89.47347222222223, 24.54847222222222], [89.47930555555556, 24.554305555555555], [89.47795054200543, 24.546717479674797]]], [[[89.47804824561405, 24.546709964012596], [89.48152777777779, 24.551527777777775], [89.48782992318898, 24.54886687193749], [89.4901388888889, 24.551805555555553], [89.49847222222222, 24.54513888888889], [89.47804824561405, 24.546709964012596]]], [[[89.43847222222223, 24.513194444444444], [89.44819444444445, 24.511805555555554], [89.45125, 24.520694444444445], [89.44680555555556, 24.50597222222222], [89.45347222222223, 24.49986111111111], [89.43819444444445, 24.491805555555555], [89.43263888888889, 24.504027777777775], [89.43402777777779, 24.514305555555556], [89.43847222222223, 24.513194444444444]]], [[[89.34291666666667, 24.54875], [89.33597222222222, 24.545694444444443], [89.34541666666667, 24.55875], [89.34847222222223, 24.548194444444444], [89.34291666666667, 24.54875]]], [[[89.30236111111111, 24.370416666666664], [89.31028145508034, 24.364532982575234], [89.30791666666667, 24.374583333333334], [89.28875000000001, 24.374583333333334], [89.29930555555556, 24.38319444444444], [89.29625, 24.37763888888889], [89.30847222222222, 24.375138888888888], [89.31402777777778, 24.366527777777776], [89.31347222222223, 24.35097222222222], [89.31141812865498, 24.35970211988306], [89.31097222222222, 24.35736111111111], [89.29013888888889, 24.36958333333333], [89.30236111111111, 24.370416666666664]]], [[[89.30736111111112, 24.37625], [89.2976388888889, 24.379027777777775], [89.30652777777777, 24.380694444444444], [89.30736111111112, 24.37625]]]]}}