{"type": "Feature", "properties": {}, "geometry": {"type": "MultiPolygon", "coordinates": [[[[89.33902777777779, 24.559305555555554], [89.34541666666667, 24.56347222222222], [89.34541666666667, 24.556527777777777], [89.35319444444444, 24.559027777777775], [89.36125, 24.549027777777777], [89.36041666666667, 24.559027777777775], [89.3751388888889, 24.554027777777776], [89.39208333333333, 24.55736111111111], [89.39736111111111, 24.550416666666667], [89.40875, 24.554027777777776], [89.40986111111111, 24.560972222222222], [89.4251388888889, 24.560694444444444], [89.43736111111112, 24.54486111111111], [89.43902777777778, 24.55013888888889], [89.45930555555556, 24.54236111111111], [89.46541666666667, 24.545416666666664], [89.47040481481481, 24.53927740740741], [89.46819444444445, 24.534027777777776], [89.47402777777778, 24.53597222222222], [89.4727085895859, 24.537189934399336], [89.47430555555556, 24.55236111111111], [89.48708333333333, 24.545972222222222], [89.48013888888889, 24.553749999999997], [89.48375, 24.55625], [89.49902777777778, 24.552916666666665], [89.50847222222222, 24.542916666666667], [89.50736111111111, 24.549305555555556], [89.51982594936709, 24.549859548366932], [89.5176388888889, 24.54208333333333], [89.51625, 24.536805555555553], [89.51983354163603, 24.549859885801105], [89.51986111111111, 24.54986111111111], [89.51983659371668, 24.549871004094832], [89.5201388888889, 24.55097222222222], [89.51982992778599, 24.549873693856334], [89.50402777777778, 24.55625], [89.50847222222222, 24.556805555555552], [89.52236111111111, 24.551527777777775], [89.52152777777778, 24.53625], [89.53208333333333, 24.546805555555554], [89.53069444444445, 24.56347222222222], [89.54791666666667, 24.547083333333333], [89.55513888888889, 24.555416666666666], [89.56375, 24.553472222222222], [89.5651388888889, 24.546805555555554], [89.59041666666667, 24.550416666666667], [89.60430555555556, 24.569305555555555], [89.60271154346272, 24.604905158962357], [89.58902777777779, 24.610694444444444], [89.58069444444445, 24.621527777777775], [89.55958333333334, 24.62569444444444], [89.55430555555556, 24.64125], [89.56291666666667, 24.651805555555555], [89.55319444444444, 24.651527777777776], [89.55402777777778, 24.658472222222223], [89.54875, 24.65958333333333], [89.55486111111111, 24.667916666666667], [89.54986111111111, 24.67625], [89.55930555555555, 24.680416666666666], [89.56125, 24.68847222222222], [89.5723611111111, 24.687083333333334], [89.55652777777777, 24.69597222222222], [89.56402777777778, 24.702638888888888], [89.58069444444445, 24.678749999999997], [89.57875, 24.671805555555554], [89.55708333333334, 24.66347222222222], [89.5676388888889, 24.664027777777775], [89.57013888888889, 24.65486111111111], [89.56125, 24.64486111111111], [89.56152777777778, 24.63513888888889], [89.57152777777777, 24.62486111111111], [89.58402777777778, 24.626527777777778], [89.59152777777778, 24.615138888888886], [89.59319444444445, 24.621805555555554], [89.58402777777778, 24.629305555555554], [89.59819444444445, 24.62486111111111], [89.60375, 24.63513888888889], [89.59486111111111, 24.629305555555554], [89.58402777777778, 24.64097222222222], [89.58819444444444, 24.643749999999997], [89.59152777777778, 24.637361111111108], [89.59486111111111, 24.642083333333332], [89.58847222222222, 24.646527777777777], [89.59930555555556, 24.643749999999997], [89.60208333333334, 24.654305555555553], [89.58236111111111, 24.644305555555555], [89.58152777777778, 24.65236111111111], [89.58708333333334, 24.65347222222222], [89.58236111111111, 24.65486111111111], [89.59125, 24.657916666666665], [89.58180555555556, 24.664305555555554], [89.60152777777778, 24.664861111111108], [89.60430555555556, 24.66986111111111], [89.59847222222223, 24.67597222222222], [89.58875, 24.66708333333333], [89.5826388888889, 24.692916666666665], [89.59319444444445, 24.69347222222222], [89.59097222222222, 24.679583333333333], [89.59875000000001, 24.696527777777778], [89.60486111111112, 24.69458333333333], [89.60736111111112, 24.68208333333333], [89.60736111111112, 24.687083333333334], [89.61819444444444, 24.68875], [89.61486111111111, 24.680416666666666], [89.61958333333334, 24.674305555555556], [89.6126388888889, 24.670694444444443], [89.61319444444445, 24.66263888888889], [89.62430555555555, 24.66847222222222], [89.62458333333333, 24.659027777777776], [89.63402777777777, 24.674305555555556], [89.63875, 24.652083333333334], [89.63930555555555, 24.665138888888887], [89.64597222222223, 24.664305555555554], [89.64097222222223, 24.65486111111111], [89.64375, 24.650416666666665], [89.64680555555556, 24.656805555555554], [89.65375, 24.654305555555553], [89.65402777777778, 24.646805555555556], [89.64430555555556, 24.642638888888886], [89.64402777777778, 24.64986111111111], [89.63930555555555, 24.64763888888889], [89.64064964157706, 24.645398745519724], [89.62958333333333, 24.66208333333333], [89.62791666666666, 24.655416666666664], [89.63458333333334, 24.643194444444443], [89.62263888888889, 24.642638888888886], [89.63902777777778, 24.642083333333332], [89.63708333333334, 24.634305555555553], [89.64569444444444, 24.624583333333334], [89.64763888888889, 24.63486111111111], [89.64460571951066, 24.639434197250598], [89.65013888888889, 24.641805555555553], [89.65847222222223, 24.63486111111111], [89.65152777777779, 24.629305555555554], [89.65263888888889, 24.615972222222222], [89.64736111111111, 24.620694444444442], [89.65152777777779, 24.614305555555553], [89.64708333333334, 24.603749999999998], [89.65847222222223, 24.616249999999997], [89.65347222222222, 24.61958333333333], [89.65847222222223, 24.617916666666666], [89.66208333333334, 24.641805555555553], [89.65791666666667, 24.64986111111111], [89.66097222222223, 24.64625], [89.66263888888889, 24.650694444444444], [89.63458333333334, 24.681805555555552], [89.63180555555556, 24.691527777777775], [89.64597222222223, 24.700138888888887], [89.64569444444444, 24.71097222222222], [89.65319444444445, 24.700138888888887], [89.65319444444445, 24.71236111111111], [89.63736111111112, 24.716527777777777], [89.64791666666667, 24.719583333333333], [89.65541666666667, 24.712083333333332], [89.65930555555556, 24.692638888888887], [89.66347222222223, 24.69875], [89.66180174341771, 24.702250050828507], [89.66458333333334, 24.70958333333333], [89.65597222222223, 24.747916666666665], [89.66652777777779, 24.74736111111111], [89.66402777777778, 24.75486111111111], [89.67097222222222, 24.754583333333333], [89.67458333333333, 24.765416666666667], [89.67291666666667, 24.754305555555554], [89.68819444444445, 24.749583333333334], [89.68847222222223, 24.75819444444444], [89.68875, 24.749305555555555], [89.69652777777777, 24.74625], [89.69319444444444, 24.753194444444443], [89.69930555555555, 24.745416666666664], [89.69164713937917, 24.77156091499292], [89.69625, 24.763749999999998], [89.69513888888889, 24.77986111111111], [89.72208333333333, 24.775138888888886], [89.73930555555556, 24.741249999999997], [89.73180555555555, 24.722638888888888], [89.7376388888889, 24.705972222222222], [89.74819444444445, 24.695416666666667], [89.74486111111112, 24.707638888888887], [89.75367630385486, 24.695885298563887], [89.75458333333333, 24.693749999999998], [89.75708333333334, 24.69708333333333], [89.76347222222222, 24.689305555555553], [89.76125, 24.697916666666664], [89.77402777777777, 24.69875], [89.76041666666667, 24.699027777777776], [89.75652777777778, 24.708194444444445], [89.77763888888889, 24.701805555555556], [89.77152777777778, 24.708194444444445], [89.77625, 24.707638888888887], [89.77736111111112, 24.715694444444445], [89.77986111111112, 24.703194444444442], [89.78986111111111, 24.697916666666664], [89.77902777777778, 24.701249999999998], [89.77986111111112, 24.693194444444444], [89.79208333333334, 24.680138888888887], [89.78208333333333, 24.69486111111111], [89.78819444444444, 24.696805555555553], [89.79736111111112, 24.678194444444443], [89.78319444444445, 24.669305555555553], [89.7851388888889, 24.62569444444444], [89.77402777777777, 24.624305555555555], [89.77069444444444, 24.63847222222222], [89.76430555555555, 24.62597222222222], [89.77041666666666, 24.60458333333333], [89.75958333333334, 24.613194444444442], [89.75847222222222, 24.624583333333334], [89.74402777777777, 24.616249999999997], [89.75763888888889, 24.620416666666664], [89.75180555555556, 24.615416666666665], [89.7526388888889, 24.605416666666667], [89.75708333333334, 24.616249999999997], [89.75541666666668, 24.59819444444444], [89.76013888888889, 24.61097222222222], [89.76152777777779, 24.595416666666665], [89.76708333333333, 24.601805555555554], [89.76902777777778, 24.595416666666665], [89.77152777777778, 24.601805555555554], [89.78902777777778, 24.57208333333333], [89.76819444444445, 24.55763888888889], [89.76069444444445, 24.56236111111111], [89.76236111111112, 24.553749999999997], [89.7676388888889, 24.55597222222222], [89.76375, 24.54736111111111], [89.76791666666666, 24.544305555555553], [89.76875, 24.54875], [89.76958333333333, 24.539861111111108], [89.74625, 24.53736111111111], [89.74763888888889, 24.520416666666666], [89.73819444444445, 24.522916666666664], [89.73930555555556, 24.527916666666666], [89.73430555555557, 24.517638888888886], [89.75569444444444, 24.506249999999998], [89.75763888888889, 24.499027777777776], [89.74736111111112, 24.483194444444443], [89.75763888888889, 24.482916666666664], [89.74236111111111, 24.470694444444444], [89.74236111111111, 24.455694444444443], [89.7551388888889, 24.455416666666665], [89.74652777777779, 24.430416666666666], [89.76597222222223, 24.37708333333333], [89.7526388888889, 24.36097222222222], [89.75180555555556, 24.350416666666664], [89.77125000000001, 24.330972222222222], [89.77402777777777, 24.301805555555553], [89.79013888888889, 24.276527777777776], [89.78069444444445, 24.233472222222222], [89.79847222222223, 24.174305555555556], [89.78013888888889, 24.166249999999998], [89.78763888888889, 24.157916666666665], [89.80291666666668, 24.15958333333333], [89.80486111111111, 24.146805555555556], [89.82013888888889, 24.140694444444442], [89.81569444444445, 24.103194444444444], [89.82486111111112, 24.087083333333332], [89.81708333333333, 24.06347222222222], [89.78430555555556, 24.04097222222222], [89.77708333333334, 24.029027777777777], [89.72180555555556, 24.01347222222222], [89.70291666666667, 24.02375], [89.69875, 24.03847222222222], [89.68291666666667, 24.034305555555555], [89.68125, 24.062083333333334], [89.63736111111112, 24.086805555555554], [89.62986111111111, 24.083194444444445], [89.61652777777778, 24.096805555555555], [89.60458333333334, 24.096527777777776], [89.59013888888889, 24.107916666666664], [89.55930555555555, 24.11125], [89.55541666666667, 24.119027777777777], [89.56430555555556, 24.12236111111111], [89.55763888888889, 24.12736111111111], [89.54986111111111, 24.129583333333333], [89.54680555555557, 24.124027777777776], [89.54597222222222, 24.131527777777777], [89.53291666666667, 24.130138888888887], [89.52180555555556, 24.154305555555553], [89.52930555555555, 24.158749999999998], [89.52319444444444, 24.16847222222222], [89.53347222222223, 24.166527777777777], [89.5351388888889, 24.172916666666666], [89.5176388888889, 24.179027777777776], [89.51708333333333, 24.18875], [89.52513888888889, 24.19125], [89.52236111111111, 24.19736111111111], [89.51041666666667, 24.199583333333333], [89.50097222222223, 24.21708333333333], [89.48930555555556, 24.21708333333333], [89.48597222222223, 24.20375], [89.46930555555556, 24.20097222222222], [89.46152777777777, 24.22458333333333], [89.47375000000001, 24.219305555555554], [89.47819444444444, 24.22958333333333], [89.47152777777778, 24.234583333333333], [89.45430555555556, 24.227638888888887], [89.44652777777777, 24.23125], [89.45652777777778, 24.233749999999997], [89.46319444444444, 24.250138888888888], [89.45236111111112, 24.266805555555553], [89.4401388888889, 24.260694444444443], [89.43930555555556, 24.25236111111111], [89.42458333333333, 24.250416666666666], [89.42930555555556, 24.26736111111111], [89.41763888888889, 24.292638888888888], [89.41902777777779, 24.304583333333333], [89.42541666666666, 24.306805555555552], [89.41763888888889, 24.32347222222222], [89.40013888888889, 24.321527777777778], [89.39763888888889, 24.337638888888886], [89.3751388888889, 24.338194444444444], [89.37819444444445, 24.34819444444444], [89.36625000000001, 24.353749999999998], [89.35347222222222, 24.34819444444444], [89.31486111111111, 24.351805555555554], [89.31652777777778, 24.36958333333333], [89.30875, 24.377916666666664], [89.31791666666668, 24.37486111111111], [89.31041666666667, 24.381527777777777], [89.29875, 24.376805555555553], [89.30847222222222, 24.375138888888888], [89.31402777777778, 24.366527777777776], [89.31319444444445, 24.35097222222222], [89.3126388888889, 24.36263888888889], [89.31041666666667, 24.35736111111111], [89.30041666666666, 24.367083333333333], [89.29319444444445, 24.36486111111111], [89.28902777777778, 24.374027777777776], [89.30625, 24.37486111111111], [89.28875000000001, 24.374583333333334], [89.29986111111111, 24.38458333333333], [89.28819444444444, 24.37569444444444], [89.28347222222223, 24.379027777777775], [89.2851388888889, 24.420416666666664], [89.27180555555556, 24.42736111111111], [89.2526388888889, 24.42375], [89.24819444444445, 24.432916666666664], [89.28125, 24.456527777777776], [89.28347222222223, 24.484583333333333], [89.29152777777779, 24.48486111111111], [89.32069444444444, 24.519027777777776], [89.32125, 24.52986111111111], [89.33041666666666, 24.53486111111111], [89.34430555555556, 24.55875], [89.33902777777779, 24.559305555555554]], [[89.60313605271939, 24.604725558892223], [89.60486111111112, 24.59847222222222], [89.61069444444445, 24.601527777777775], [89.60313605271939, 24.604725558892223]], [[89.80652777777777, 24.140416666666667], [89.81541666666666, 24.137083333333333], [89.81708333333333, 24.141805555555553], [89.80402777777778, 24.14708333333333], [89.80652777777777, 24.140416666666667]], [[89.80958333333334, 24.121527777777775], [89.81069444444445, 24.11736111111111], [89.81291666666667, 24.12597222222222], [89.80958333333334, 24.121527777777775]], [[89.80069444444445, 24.13486111111111], [89.81180555555555, 24.130138888888887], [89.80458333333334, 24.13847222222222], [89.79736111111112, 24.137638888888887], [89.80069444444445, 24.13486111111111]], [[89.79986111111111, 24.123472222222222], [89.80402777777778, 24.130416666666665], [89.79708333333333, 24.12875], [89.79319444444445, 24.115416666666665], [89.80347222222223, 24.118194444444445], [89.79986111111111, 24.123472222222222]], [[89.8026388888889, 24.081249999999997], [89.79791666666667, 24.084305555555556], [89.79375, 24.073194444444443], [89.8026388888889, 24.081249999999997]], [[89.79263888888889, 24.137638888888887], [89.8001388888889, 24.146805555555556], [89.78875000000001, 24.137361111111108], [89.79125, 24.13347222222222], [89.79263888888889, 24.137638888888887]], [[89.77097222222223, 24.594305555555554], [89.76541666666667, 24.59125], [89.77237043251306, 24.586382363907532], [89.77097222222223, 24.594305555555554]], [[89.77290702769015, 24.58334165790395], [89.7701388888889, 24.576527777777777], [89.77359576220425, 24.579438828990714], [89.77290702769015, 24.58334165790395]], [[89.76958333333333, 24.56458333333333], [89.77430555555556, 24.571805555555553], [89.76458333333333, 24.560416666666665], [89.76958333333333, 24.56458333333333]], [[89.7076388888889, 24.667638888888888], [89.7113340783312, 24.659533312047675], [89.70791666666666, 24.66097222222222], [89.71263888888889, 24.64125], [89.71180555555556, 24.65486111111111], [89.71680555555555, 24.643194444444443], [89.71475417318726, 24.652031168492467], [89.71625, 24.64875], [89.71375, 24.66236111111111], [89.71819444444445, 24.655416666666664], [89.71597222222222, 24.66347222222222], [89.72541666666667, 24.658194444444444], [89.71402777777779, 24.670416666666664], [89.72652777777778, 24.658194444444444], [89.71597222222222, 24.637083333333333], [89.72375000000001, 24.622916666666665], [89.72041666666667, 24.637638888888887], [89.72875, 24.63097222222222], [89.72847222222222, 24.637916666666666], [89.73263888888889, 24.62763888888889], [89.72958333333334, 24.639305555555556], [89.73375, 24.63986111111111], [89.73680555555556, 24.62847222222222], [89.7376388888889, 24.64847222222222], [89.74248814941221, 24.649794747819488], [89.74041666666668, 24.638194444444444], [89.73986111111111, 24.630416666666665], [89.74986111111112, 24.64986111111111], [89.75347222222223, 24.645416666666666], [89.74541666666667, 24.637361111111108], [89.75430555555556, 24.636527777777776], [89.75347222222223, 24.649583333333332], [89.74319444444444, 24.65375], [89.74251112891737, 24.64992343304843], [89.73736111111111, 24.649027777777775], [89.72819444444444, 24.659027777777776], [89.72856878430154, 24.671880112871488], [89.73097222222222, 24.67625], [89.7351388888889, 24.670694444444443], [89.73291666666667, 24.686527777777776], [89.73680555555556, 24.672916666666666], [89.73680555555556, 24.68486111111111], [89.74180555555556, 24.68125], [89.74291666666667, 24.66069444444444], [89.74652777777779, 24.665694444444444], [89.74236111111111, 24.65486111111111], [89.74819444444445, 24.65236111111111], [89.74430555555556, 24.65597222222222], [89.75125, 24.66097222222222], [89.74958333333333, 24.654027777777777], [89.75512816831305, 24.653601252010105], [89.74625, 24.676805555555553], [89.72930555555556, 24.69486111111111], [89.71569444444445, 24.69486111111111], [89.71291666666667, 24.678194444444443], [89.71097222222222, 24.689305555555553], [89.7076388888889, 24.667638888888888]], [[89.70689841213273, 24.38771016472638], [89.71375, 24.389027777777777], [89.71013888888889, 24.367916666666666], [89.7201388888889, 24.370694444444442], [89.70152777777778, 24.34236111111111], [89.71236111111111, 24.358194444444443], [89.71402777777779, 24.35125], [89.71652777777778, 24.360694444444444], [89.72069444444445, 24.358194444444443], [89.72180555555556, 24.38208333333333], [89.71513888888889, 24.391805555555553], [89.74097222222223, 24.39097222222222], [89.75041666666667, 24.387916666666666], [89.75291666666666, 24.392638888888886], [89.74708333333334, 24.41208333333333], [89.74430555555556, 24.39986111111111], [89.70263888888888, 24.394305555555555], [89.70689841213273, 24.38771016472638]], [[89.74680555555555, 24.352083333333333], [89.74513888888889, 24.356527777777778], [89.74486111111112, 24.346805555555555], [89.74680555555555, 24.352083333333333]], [[89.74486111111112, 24.609583333333333], [89.73958333333334, 24.61347222222222], [89.73819444444445, 24.608472222222222], [89.74486111111112, 24.609583333333333]], [[89.73069444444445, 24.659027777777776], [89.74236111111111, 24.65986111111111], [89.7401388888889, 24.67347222222222], [89.73069444444445, 24.659027777777776]], [[89.7376388888889, 24.624027777777776], [89.73263888888889, 24.62736111111111], [89.7401388888889, 24.617638888888887], [89.7376388888889, 24.624027777777776]], [[89.72763888888889, 24.370694444444442], [89.73180555555555, 24.367083333333333], [89.73236111111112, 24.372083333333332], [89.72763888888889, 24.370694444444442]], [[89.72597222222223, 24.304583333333333], [89.72708333333334, 24.30847222222222], [89.72347222222223, 24.300416666666667], [89.72597222222223, 24.304583333333333]], [[89.70701837606838, 24.7486047008547], [89.7076388888889, 24.742916666666666], [89.71263888888889, 24.741249999999997], [89.71541666666667, 24.756527777777777], [89.71847222222223, 24.751527777777778], [89.72097222222223, 24.755416666666665], [89.72097222222223, 24.739583333333332], [89.72208333333333, 24.755694444444444], [89.72291666666666, 24.762361111111108], [89.69791666666667, 24.776805555555555], [89.70152777777778, 24.74486111111111], [89.70701837606838, 24.7486047008547]], [[89.71902777777778, 24.60486111111111], [89.72236111111111, 24.602361111111108], [89.71263888888889, 24.61236111111111], [89.71902777777778, 24.60486111111111]], [[89.66625, 24.444027777777777], [89.68680555555555, 24.45208333333333], [89.68347222222222, 24.44347222222222], [89.69291666666668, 24.442638888888887], [89.67902777777778, 24.439305555555553], [89.68541666666667, 24.437083333333334], [89.67791666666668, 24.427638888888886], [89.68402777777779, 24.42986111111111], [89.68680555555555, 24.42375], [89.69236111111111, 24.439027777777778], [89.69569444444444, 24.426527777777775], [89.68847222222223, 24.422638888888887], [89.69625, 24.416805555555555], [89.70152777777778, 24.434583333333332], [89.70430555555556, 24.427083333333332], [89.69875, 24.41847222222222], [89.71089637208986, 24.426225225683837], [89.70847222222223, 24.43875], [89.71180555555556, 24.43125], [89.72069444444445, 24.45958333333333], [89.71347222222222, 24.47958333333333], [89.69236111111111, 24.485416666666666], [89.68819444444445, 24.479305555555555], [89.69291666666668, 24.481805555555553], [89.70125, 24.470694444444444], [89.69569444444444, 24.47208333333333], [89.70875000000001, 24.46763888888889], [89.69513888888889, 24.469027777777775], [89.69597222222222, 24.463749999999997], [89.6776388888889, 24.470416666666665], [89.68819444444445, 24.461805555555554], [89.68125, 24.45736111111111], [89.68902777777778, 24.45736111111111], [89.67319444444445, 24.446805555555553], [89.66263888888889, 24.455416666666665], [89.66263888888889, 24.44847222222222], [89.65486111111112, 24.44625], [89.66180555555556, 24.448194444444443], [89.66402777777778, 24.440416666666664], [89.67069444444445, 24.44013888888889], [89.66625, 24.444027777777777]], [[89.71847222222223, 24.61263888888889], [89.71263888888889, 24.616805555555555], [89.71930555555556, 24.608472222222222], [89.71847222222223, 24.61263888888889]], [[89.71208333333334, 24.341805555555553], [89.71597222222222, 24.339027777777776], [89.71875, 24.350694444444443], [89.71208333333334, 24.341805555555553]], [[89.68513888888889, 24.325694444444444], [89.69041666666666, 24.321527777777778], [89.69161738351254, 24.32347894265233], [89.69458333333334, 24.316805555555554], [89.68430555555555, 24.311805555555555], [89.68958333333333, 24.303472222222222], [89.68263888888889, 24.297916666666666], [89.67791666666668, 24.30125], [89.68263888888889, 24.296805555555554], [89.67375, 24.28875], [89.68236111111112, 24.283749999999998], [89.67291666666667, 24.282083333333333], [89.68652777777778, 24.273194444444442], [89.68625, 24.28236111111111], [89.69101049240975, 24.275737817323638], [89.69097222222223, 24.275694444444444], [89.69104166666668, 24.275694444444444], [89.6926388888889, 24.27347222222222], [89.69232142857143, 24.275694444444444], [89.69513888888889, 24.275694444444444], [89.69513888888889, 24.280416666666664], [89.69213342440801, 24.277010473588337], [89.69125, 24.283194444444444], [89.70208333333333, 24.28708333333333], [89.70069444444445, 24.29347222222222], [89.70736111111111, 24.28875], [89.70402777777778, 24.305694444444445], [89.70902777777778, 24.30847222222222], [89.6926388888889, 24.304583333333333], [89.68791666666667, 24.312638888888888], [89.70031056270864, 24.31600679542203], [89.69625, 24.315694444444443], [89.69167531120331, 24.323573075149838], [89.69486111111111, 24.32875], [89.68458333333334, 24.330694444444443], [89.68152777777777, 24.31958333333333], [89.68513888888889, 24.325694444444444]], [[89.70431799336652, 24.317095771144277], [89.71347222222222, 24.31958333333333], [89.71458333333334, 24.32736111111111], [89.70431799336652, 24.317095771144277]], [[89.71263888888889, 24.696805555555553], [89.71263888888889, 24.701805555555556], [89.70902777777778, 24.692638888888887], [89.71263888888889, 24.696805555555553]], [[89.70152777777778, 24.410416666666666], [89.69708333333334, 24.415694444444444], [89.69208333333333, 24.408194444444444], [89.71013888888889, 24.403194444444445], [89.70597222222223, 24.412916666666664], [89.70152777777778, 24.410416666666666]], [[89.70291666666667, 24.364027777777775], [89.69486111111111, 24.35458333333333], [89.70625, 24.360138888888887], [89.70291666666667, 24.364027777777775]], [[89.68902777777778, 24.216805555555553], [89.69430555555556, 24.214305555555555], [89.6973611111111, 24.22208333333333], [89.70597222222223, 24.22319444444444], [89.70319444444445, 24.23625], [89.68902777777778, 24.216805555555553]], [[89.69763888888889, 24.270694444444445], [89.69875, 24.265694444444442], [89.70286676646708, 24.268987857618104], [89.70347222222223, 24.27236111111111], [89.69763888888889, 24.270694444444445]], [[89.69180555555556, 24.23847222222222], [89.70208333333333, 24.239583333333332], [89.6926388888889, 24.254305555555554], [89.69708333333334, 24.262916666666666], [89.68402777777779, 24.25208333333333], [89.68513888888889, 24.242638888888887], [89.69319444444444, 24.240694444444443], [89.67986111111111, 24.234583333333333], [89.69180555555556, 24.23847222222222]], [[89.68625, 24.376527777777778], [89.68236111111112, 24.371805555555554], [89.68652777777778, 24.37013888888889], [89.70013888888889, 24.376805555555553], [89.68958333333333, 24.372083333333332], [89.68625, 24.376527777777778]], [[89.69319444444444, 24.406805555555554], [89.68680555555555, 24.39486111111111], [89.69763888888889, 24.387361111111108], [89.69069444444445, 24.393749999999997], [89.69319444444444, 24.406805555555554]], [[89.69458333333334, 24.68875], [89.69708333333334, 24.707083333333333], [89.6926388888889, 24.705138888888886], [89.69458333333334, 24.68875]], [[89.69458333333334, 24.46486111111111], [89.6901388888889, 24.471805555555555], [89.68791666666667, 24.46736111111111], [89.69458333333334, 24.46486111111111]], [[89.68958333333333, 24.38347222222222], [89.69402777777778, 24.38319444444444], [89.68736111111112, 24.385416666666664], [89.68652777777778, 24.37875], [89.68958333333333, 24.38347222222222]], [[89.68125, 24.722638888888888], [89.68152777777777, 24.727916666666665], [89.68652777777778, 24.715138888888887], [89.68597222222222, 24.72319444444444], [89.69319444444444, 24.725694444444443], [89.68263888888889, 24.727361111111108], [89.69097222222223, 24.729027777777777], [89.68291666666667, 24.735138888888887], [89.6901388888889, 24.73486111111111], [89.67708333333334, 24.73625], [89.68125, 24.722638888888888]], [[89.6776388888889, 24.494027777777777], [89.68041666666667, 24.48236111111111], [89.68180555555556, 24.488194444444442], [89.69097222222223, 24.484583333333333], [89.68930555555556, 24.490694444444443], [89.68375, 24.487916666666667], [89.6776388888889, 24.494027777777777]], [[89.67239137338414, 24.396557479638346], [89.67315329218107, 24.396466049382713], [89.67477182539683, 24.398893849206356], [89.67239137338414, 24.396557479638346]], [[89.6810935054773, 24.405098461137193], [89.68430555555555, 24.404027777777777], [89.68986111111111, 24.406527777777775], [89.68736111111112, 24.41125], [89.6810935054773, 24.405098461137193]], [[89.68208333333334, 24.384027777777778], [89.68708333333333, 24.390416666666667], [89.68069444444444, 24.389305555555556], [89.68208333333334, 24.384027777777778]], [[89.68319444444445, 24.265138888888888], [89.68708333333333, 24.27263888888889], [89.66319444444444, 24.260416666666664], [89.68041666666667, 24.265694444444442], [89.68013888888889, 24.25597222222222], [89.68319444444445, 24.265138888888888]], [[89.68097222222222, 24.47597222222222], [89.68680555555555, 24.472916666666666], [89.68486111111112, 24.481805555555553], [89.68513888888889, 24.47597222222222], [89.6726388888889, 24.47625], [89.67291666666667, 24.46736111111111], [89.68097222222222, 24.47597222222222]], [[89.66958333333334, 24.53625], [89.67875000000001, 24.535138888888888], [89.67902777777778, 24.516805555555553], [89.68625, 24.526805555555555], [89.67958333333334, 24.52486111111111], [89.68263888888889, 24.53625], [89.67652777777778, 24.54097222222222], [89.68097222222222, 24.544305555555553], [89.67625, 24.541805555555555], [89.67680555555556, 24.546527777777776], [89.66958333333334, 24.53625]], [[89.68569444444445, 24.492916666666666], [89.68597222222222, 24.497916666666665], [89.67986111111111, 24.49597222222222], [89.68569444444445, 24.492916666666666]], [[89.68402777777779, 24.50125], [89.67902777777778, 24.50263888888889], [89.68125, 24.496805555555554], [89.68402777777779, 24.50125]], [[89.68291666666667, 24.64125], [89.68263888888889, 24.64597222222222], [89.67902777777778, 24.636805555555554], [89.68291666666667, 24.64125]], [[89.67875000000001, 24.416805555555555], [89.68236111111112, 24.414305555555554], [89.68263888888889, 24.423194444444444], [89.67875000000001, 24.416805555555555]], [[89.64848325693914, 24.36231421356421], [89.64958333333334, 24.35763888888889], [89.65875, 24.36097222222222], [89.65791666666667, 24.35625], [89.67125, 24.357916666666664], [89.67652777777778, 24.352083333333333], [89.67986111111111, 24.356805555555553], [89.67541666666666, 24.361527777777777], [89.66291666666667, 24.359305555555554], [89.66180555555556, 24.365416666666665], [89.64848325693914, 24.36231421356421]], [[89.66486111111111, 24.42013888888889], [89.67097222222222, 24.41965], [89.67097222222222, 24.423194444444444], [89.67847222222223, 24.42597222222222], [89.66125000000001, 24.420972222222222], [89.66291666666667, 24.415416666666665], [89.66486111111111, 24.42013888888889]], [[89.67041666666667, 24.50486111111111], [89.6751388888889, 24.50125], [89.66791666666667, 24.49486111111111], [89.67152777777778, 24.490416666666665], [89.67791666666668, 24.50486111111111], [89.67041666666667, 24.50486111111111]], [[89.67791666666668, 24.245416666666664], [89.67791666666668, 24.250416666666666], [89.67013888888889, 24.24486111111111], [89.67430555555556, 24.234305555555554], [89.67791666666668, 24.245416666666664]], [[89.67013888888889, 24.518749999999997], [89.6776388888889, 24.53013888888889], [89.67236111111112, 24.526805555555555], [89.67125, 24.531805555555554], [89.67013888888889, 24.518749999999997]], [[89.67208333333333, 24.428749999999997], [89.67708333333334, 24.429583333333333], [89.67569444444445, 24.436527777777776], [89.67208333333333, 24.428749999999997]], [[89.67708333333334, 24.347916666666666], [89.67402777777778, 24.351527777777775], [89.67347222222223, 24.34236111111111], [89.67708333333334, 24.347916666666666]], [[89.66513888888889, 24.38486111111111], [89.67458333333333, 24.381249999999998], [89.67625, 24.385416666666664], [89.66875, 24.387638888888887], [89.67013888888889, 24.39236111111111], [89.65541666666667, 24.389305555555556], [89.65680555555556, 24.37847222222222], [89.6601388888889, 24.387916666666666], [89.66513888888889, 24.38486111111111]], [[89.67041666666667, 24.324861111111108], [89.66736111111112, 24.318194444444444], [89.65625, 24.32347222222222], [89.65541666666667, 24.317916666666665], [89.67208333333333, 24.315694444444443], [89.67569444444445, 24.328194444444442], [89.67041666666667, 24.324861111111108]], [[89.66958333333334, 24.552083333333332], [89.67541666666666, 24.54486111111111], [89.66819444444445, 24.55763888888889], [89.66958333333334, 24.552083333333332]], [[89.66625, 24.37597222222222], [89.66569444444444, 24.36986111111111], [89.66715038314176, 24.370627394636017], [89.67069444444445, 24.367083333333333], [89.67458333333333, 24.372083333333332], [89.66738333333332, 24.370749999999994], [89.67097222222222, 24.372638888888886], [89.66625, 24.37597222222222]], [[89.67430555555556, 24.275138888888886], [89.67402777777778, 24.280694444444443], [89.66680555555556, 24.27958333333333], [89.67430555555556, 24.275138888888886]], [[89.6576388888889, 24.240416666666665], [89.65804398148148, 24.2440625], [89.64875, 24.241527777777776], [89.65180555555555, 24.235138888888887], [89.6576388888889, 24.240416666666665]], [[89.66413446260356, 24.246201197366926], [89.67291666666667, 24.24736111111111], [89.66736111111112, 24.261527777777776], [89.66413446260356, 24.246201197366926]], [[89.66930555555555, 24.482916666666664], [89.67236111111112, 24.479305555555555], [89.66680555555556, 24.490694444444443], [89.66930555555555, 24.482916666666664]], [[89.66986111111112, 24.303194444444443], [89.66402777777778, 24.29986111111111], [89.67180555555557, 24.29958333333333], [89.67152777777778, 24.307916666666664], [89.66986111111112, 24.303194444444443]], [[89.66625, 24.513194444444444], [89.67152777777778, 24.511527777777776], [89.66513888888889, 24.518472222222222], [89.66041666666666, 24.514305555555556], [89.66625, 24.513194444444444]], [[89.65208333333334, 24.693749999999998], [89.65986111111111, 24.678749999999997], [89.65569444444445, 24.687638888888888], [89.66180555555556, 24.682916666666664], [89.66335027100271, 24.68703590785908], [89.66736111111112, 24.684027777777775], [89.66652777777779, 24.69013888888889], [89.65951705809091, 24.690622386798328], [89.64763888888889, 24.700416666666666], [89.65208333333334, 24.693749999999998]], [[89.66263888888889, 24.27208333333333], [89.66736111111112, 24.27236111111111], [89.66041666666666, 24.28097222222222], [89.66263888888889, 24.27208333333333]], [[89.65680555555556, 24.589027777777776], [89.64847222222222, 24.593194444444443], [89.66041666666666, 24.577638888888888], [89.64569444444444, 24.57236111111111], [89.65513888888889, 24.575416666666666], [89.65541666666667, 24.55875], [89.66069444444445, 24.556805555555552], [89.65902777777778, 24.574861111111108], [89.66680555555556, 24.557916666666664], [89.66375000000001, 24.580694444444443], [89.65680555555556, 24.589027777777776]], [[89.66458333333334, 24.542638888888888], [89.66625, 24.546805555555554], [89.65930555555556, 24.547083333333333], [89.66458333333334, 24.542638888888888]], [[89.66486111111111, 24.432916666666664], [89.66152777777778, 24.43736111111111], [89.66041666666666, 24.427638888888886], [89.66486111111111, 24.432916666666664]], [[89.66319444444444, 24.520138888888887], [89.65791666666667, 24.52208333333333], [89.6576388888889, 24.51597222222222], [89.66319444444444, 24.520138888888887]], [[89.64069444444445, 24.416527777777777], [89.65013888888889, 24.41263888888889], [89.65263888888889, 24.400694444444444], [89.64458333333333, 24.40236111111111], [89.65708333333333, 24.399305555555554], [89.65125, 24.407916666666665], [89.65930555555556, 24.41236111111111], [89.65791666666667, 24.419305555555553], [89.64069444444445, 24.416527777777777]], [[89.65513888888889, 24.429583333333333], [89.65236111111112, 24.426527777777775], [89.65902777777778, 24.424027777777777], [89.65875, 24.436805555555555], [89.65513888888889, 24.429583333333333]], [[89.62930555555556, 24.54486111111111], [89.62263888888889, 24.547916666666666], [89.61847222222222, 24.539027777777775], [89.61041666666667, 24.537916666666664], [89.60902777777778, 24.547638888888887], [89.60763888888889, 24.52986111111111], [89.61208333333333, 24.53763888888889], [89.6151388888889, 24.534027777777776], [89.60875, 24.51986111111111], [89.61680555555556, 24.534305555555555], [89.61902777777777, 24.52375], [89.62569444444445, 24.539861111111108], [89.63402777777777, 24.533472222222223], [89.63236111111111, 24.540416666666665], [89.65625, 24.541249999999998], [89.64930555555556, 24.524305555555554], [89.65902777777778, 24.540416666666665], [89.63993565717142, 24.5485242795269], [89.65263888888889, 24.560416666666665], [89.64541666666666, 24.559583333333332], [89.63978503476034, 24.548588242468593], [89.63875, 24.549027777777777], [89.62930555555556, 24.54486111111111]], [[89.65236111111112, 24.495694444444442], [89.63958333333333, 24.49625], [89.63625, 24.48875], [89.65362799099739, 24.494097074153043], [89.65236111111112, 24.495694444444442]], [[89.64208333333333, 24.511805555555554], [89.6451388888889, 24.50347222222222], [89.64875, 24.51125], [89.65875, 24.501527777777778], [89.65097222222222, 24.512638888888887], [89.64216185708676, 24.51208824106792], [89.64208333333333, 24.511805555555554]], [[89.65791666666667, 24.48486111111111], [89.64791666666667, 24.484305555555554], [89.64430555555556, 24.477916666666665], [89.65791666666667, 24.48486111111111]], [[89.65125, 24.200416666666666], [89.65791666666667, 24.193194444444444], [89.65236111111112, 24.208194444444445], [89.65125, 24.200416666666666]], [[89.65069444444444, 24.44708333333333], [89.64847222222222, 24.441527777777775], [89.65680555555556, 24.45208333333333], [89.65069444444444, 24.44708333333333]], [[89.65347222222222, 24.47486111111111], [89.64958333333334, 24.472916666666666], [89.65652777777778, 24.471249999999998], [89.65347222222222, 24.47486111111111]], [[89.64125, 24.379027777777775], [89.63847222222222, 24.371805555555554], [89.64569444444444, 24.37013888888889], [89.64597222222223, 24.38208333333333], [89.65458333333333, 24.38958333333333], [89.64125, 24.379027777777775]], [[89.64791666666667, 24.157916666666665], [89.64680555555556, 24.15347222222222], [89.65291666666667, 24.157916666666665], [89.64791666666667, 24.157916666666665]], [[89.64763888888889, 24.435416666666665], [89.65291666666667, 24.434027777777775], [89.65291666666667, 24.435138888888886], [89.64763888888889, 24.435416666666665]], [[89.64819444444444, 24.339305555555555], [89.65236111111112, 24.34097222222222], [89.64708333333334, 24.34819444444444], [89.64819444444444, 24.339305555555555]], [[89.65013888888889, 24.566527777777775], [89.64208333333333, 24.571805555555553], [89.64597222222223, 24.56375], [89.65013888888889, 24.566527777777775]], [[89.63541666666667, 24.44736111111111], [89.63041666666668, 24.440694444444443], [89.64458333333333, 24.44736111111111], [89.64097222222223, 24.437638888888888], [89.64986111111111, 24.44847222222222], [89.63541666666667, 24.44736111111111]], [[89.64930555555556, 24.318749999999998], [89.64930555555556, 24.325138888888887], [89.64652777777778, 24.31486111111111], [89.64930555555556, 24.318749999999998]], [[89.64458333333333, 24.23986111111111], [89.64847222222222, 24.241527777777776], [89.64041666666667, 24.24458333333333], [89.63625, 24.23736111111111], [89.64458333333333, 24.23986111111111]], [[89.61347222222223, 24.61208333333333], [89.60902777777778, 24.591805555555553], [89.61541666666668, 24.57986111111111], [89.6126388888889, 24.569305555555555], [89.61875, 24.574583333333333], [89.6126388888889, 24.58597222222222], [89.61986111111112, 24.600416666666664], [89.62847222222223, 24.59958333333333], [89.62791666666666, 24.59486111111111], [89.63236111111111, 24.59819444444444], [89.63791666666667, 24.584027777777777], [89.64319444444445, 24.58986111111111], [89.63652777777779, 24.580694444444443], [89.64402777777778, 24.580972222222222], [89.64486111111111, 24.59347222222222], [89.64069444444445, 24.59125], [89.63791666666667, 24.597638888888888], [89.64791666666667, 24.59486111111111], [89.64652777777778, 24.602916666666665], [89.62569444444445, 24.60013888888889], [89.62291666666667, 24.60736111111111], [89.61486111111111, 24.601805555555554], [89.61847222222222, 24.608194444444443], [89.61375, 24.61125], [89.62069444444445, 24.61125], [89.61347222222223, 24.61208333333333]], [[89.64736111111111, 24.464305555555555], [89.64291666666666, 24.475694444444443], [89.63930555555555, 24.467916666666664], [89.64736111111111, 24.464305555555555]], [[89.63736111111112, 24.42375], [89.64486111111111, 24.422083333333333], [89.64708333333334, 24.427916666666665], [89.63736111111112, 24.42375]], [[89.64180555555556, 24.52125], [89.64680555555556, 24.525694444444444], [89.6426388888889, 24.530416666666664], [89.64180555555556, 24.52125]], [[89.64125, 24.389305555555556], [89.63847222222222, 24.38597222222222], [89.64569444444444, 24.392083333333332], [89.64125, 24.389305555555556]], [[89.63958333333333, 24.327638888888888], [89.64430555555556, 24.33486111111111], [89.63930555555555, 24.336527777777775], [89.63958333333333, 24.327638888888888]], [[89.63986111111112, 24.67625], [89.64375, 24.674305555555556], [89.63708333333334, 24.681805555555552], [89.63986111111112, 24.67625]], [[89.64236111111111, 24.34958333333333], [89.64319444444445, 24.356805555555553], [89.63736111111112, 24.358194444444443], [89.63680555555555, 24.349305555555553], [89.64236111111111, 24.34958333333333]], [[89.63986111111112, 24.410138888888888], [89.63569444444445, 24.406527777777775], [89.64291666666666, 24.404305555555553], [89.63986111111112, 24.410138888888888]], [[89.63930555555555, 24.21486111111111], [89.6426388888889, 24.21708333333333], [89.63541666666667, 24.21736111111111], [89.63930555555555, 24.21486111111111]], [[89.63625, 24.56513888888889], [89.64208333333333, 24.56597222222222], [89.62152777777779, 24.565416666666664], [89.62208333333334, 24.572916666666664], [89.6151388888889, 24.562916666666666], [89.63625, 24.56513888888889]], [[89.63236111111111, 24.53125], [89.64152777777778, 24.53125], [89.62430555555555, 24.534027777777776], [89.63069444444444, 24.526527777777776], [89.63236111111111, 24.53125]], [[89.63819444444445, 24.308194444444442], [89.64125, 24.312083333333334], [89.63291666666667, 24.31513888888889], [89.63819444444445, 24.308194444444442]], [[89.63541666666667, 24.523194444444442], [89.63930555555555, 24.52097222222222], [89.63402777777777, 24.53013888888889], [89.63541666666667, 24.523194444444442]], [[89.63319444444444, 24.48125], [89.63708333333334, 24.478749999999998], [89.63902777777778, 24.485138888888887], [89.63319444444444, 24.48125]], [[89.63541666666667, 24.37708333333333], [89.6301388888889, 24.37125], [89.63875, 24.36347222222222], [89.63541666666667, 24.37708333333333]], [[89.63652777777779, 24.619027777777777], [89.63458333333334, 24.624583333333334], [89.62958333333333, 24.60097222222222], [89.63652777777779, 24.619027777777777]], [[89.63125000000001, 24.421249999999997], [89.63458333333334, 24.41875], [89.63569444444445, 24.42486111111111], [89.63125000000001, 24.421249999999997]], [[89.62549767559605, 24.22579961796925], [89.62152777777779, 24.22597222222222], [89.62069444444445, 24.218194444444443], [89.63402777777777, 24.212638888888886], [89.62549767559605, 24.22579961796925]], [[89.62791666666666, 24.31736111111111], [89.63236111111111, 24.324305555555554], [89.62569444444445, 24.329027777777778], [89.62791666666666, 24.31736111111111]], [[89.6276388888889, 24.44597222222222], [89.63208333333334, 24.44708333333333], [89.62319444444445, 24.445416666666667], [89.6276388888889, 24.44597222222222]], [[89.62708333333333, 24.40347222222222], [89.63180555555556, 24.407916666666665], [89.62375, 24.40958333333333], [89.62708333333333, 24.40347222222222]], [[89.63069444444444, 24.395694444444445], [89.62625, 24.39763888888889], [89.62208333333334, 24.387083333333333], [89.62819444444445, 24.385694444444443], [89.63069444444444, 24.395694444444445]], [[89.62569444444445, 24.475694444444443], [89.62708333333333, 24.471527777777776], [89.6251388888889, 24.48125], [89.6301388888889, 24.483749999999997], [89.61736111111111, 24.483194444444443], [89.62569444444445, 24.475694444444443]], [[89.62625, 24.359583333333333], [89.62986111111111, 24.36208333333333], [89.62458333333333, 24.36486111111111], [89.62625, 24.359583333333333]], [[89.62986111111111, 24.296527777777776], [89.62652777777778, 24.29986111111111], [89.62930555555556, 24.290694444444444], [89.62986111111111, 24.296527777777776]], [[89.61902777777777, 24.516527777777778], [89.61847222222222, 24.507638888888888], [89.62541666666667, 24.505694444444444], [89.62041666666667, 24.50875], [89.62680555555556, 24.527083333333334], [89.62125, 24.527916666666666], [89.61819444444444, 24.519305555555555], [89.62347222222222, 24.518194444444443], [89.61902777777777, 24.516527777777778]], [[89.61347222222223, 24.165416666666665], [89.62625, 24.16347222222222], [89.61236111111111, 24.170694444444443], [89.61347222222223, 24.165416666666665]], [[89.62152777777779, 24.44347222222222], [89.62486111111112, 24.437916666666666], [89.62041666666667, 24.445416666666667], [89.61375, 24.437083333333334], [89.62152777777779, 24.44347222222222]], [[89.61736111111111, 24.659305555555555], [89.61458333333334, 24.655694444444443], [89.62430555555555, 24.651805555555555], [89.61986111111112, 24.655416666666664], [89.62375, 24.65986111111111], [89.61125, 24.66125], [89.61736111111111, 24.659305555555555]], [[89.62319444444445, 24.622916666666665], [89.62375, 24.62847222222222], [89.61819444444444, 24.626527777777778], [89.62319444444445, 24.622916666666665]], [[89.61847222222222, 24.50486111111111], [89.61569444444444, 24.500138888888888], [89.62236111111112, 24.499027777777776], [89.61847222222222, 24.50486111111111]], [[89.61736111111111, 24.637638888888887], [89.62208333333334, 24.645416666666666], [89.61402777777778, 24.642083333333332], [89.61736111111111, 24.637638888888887]], [[89.6126388888889, 24.61986111111111], [89.62180555555555, 24.611805555555556], [89.60902777777778, 24.624305555555555], [89.6126388888889, 24.61986111111111]], [[89.62041666666667, 24.32986111111111], [89.61486111111111, 24.327638888888888], [89.61986111111112, 24.32069444444444], [89.62041666666667, 24.32986111111111]], [[89.61791666666667, 24.63097222222222], [89.61152777777778, 24.637361111111108], [89.61069444444445, 24.631249999999998], [89.61791666666667, 24.63097222222222]], [[89.61402777777778, 24.624305555555555], [89.61763888888889, 24.62625], [89.61041666666667, 24.62625], [89.61402777777778, 24.624305555555555]], [[89.61708333333334, 24.55013888888889], [89.61375, 24.556527777777777], [89.6126388888889, 24.54986111111111], [89.61708333333334, 24.55013888888889]], [[89.60220323741007, 24.430524580335728], [89.61597222222223, 24.43208333333333], [89.60763888888889, 24.435416666666665], [89.60220323741007, 24.430524580335728]], [[89.60736111111112, 24.680416666666666], [89.60236111111111, 24.680416666666666], [89.60791666666667, 24.677083333333332], [89.60569444444445, 24.670972222222222], [89.61541666666668, 24.674027777777777], [89.60736111111112, 24.680416666666666]], [[89.6101388888889, 24.483749999999997], [89.60875, 24.478749999999998], [89.61486111111111, 24.480694444444442], [89.61125, 24.48875], [89.6101388888889, 24.483749999999997]], [[89.60680555555555, 24.41375], [89.60180555555556, 24.411805555555553], [89.60902777777778, 24.407916666666665], [89.61402777777778, 24.414861111111108], [89.60680555555555, 24.41375]], [[89.61097222222223, 24.38319444444444], [89.61402777777778, 24.37986111111111], [89.60819444444445, 24.387361111111108], [89.61097222222223, 24.38319444444444]], [[89.61079803088049, 24.65512203166227], [89.61041666666667, 24.657083333333333], [89.60236111111111, 24.654305555555553], [89.61079803088049, 24.65512203166227]], [[89.60125000000001, 24.34847222222222], [89.60402777777779, 24.34263888888889], [89.61180555555556, 24.34958333333333], [89.59652777777778, 24.349305555555553], [89.60125000000001, 24.34847222222222]], [[89.60541666666667, 24.50208333333333], [89.6100307606264, 24.50054530201342], [89.61152777777778, 24.506805555555555], [89.60541666666667, 24.50208333333333]], [[89.59652777777778, 24.29347222222222], [89.59958333333334, 24.28597222222222], [89.61152777777778, 24.291249999999998], [89.59847222222223, 24.289861111111108], [89.60041666666667, 24.303749999999997], [89.59652777777778, 24.29347222222222]], [[89.60402777777779, 24.26486111111111], [89.60930555555557, 24.270694444444445], [89.60513888888889, 24.27375], [89.60402777777779, 24.26486111111111]], [[89.60875, 24.399027777777775], [89.60402777777779, 24.403194444444445], [89.60430555555556, 24.39625], [89.60875, 24.399027777777775]], [[89.60458333333334, 24.366249999999997], [89.60819444444445, 24.37013888888889], [89.60013888888889, 24.366249999999997], [89.60458333333334, 24.366249999999997]], [[89.60791666666667, 24.529027777777777], [89.60347222222222, 24.53125], [89.60375, 24.52347222222222], [89.60791666666667, 24.529027777777777]], [[89.59625, 24.659305555555555], [89.60680555555555, 24.661527777777778], [89.59125, 24.661527777777778], [89.59625, 24.659305555555555]], [[89.59875000000001, 24.619305555555552], [89.59375, 24.621805555555554], [89.59625, 24.615138888888886], [89.60680555555555, 24.619027777777777], [89.59875000000001, 24.619305555555552]], [[89.59981796116504, 24.172146587231538], [89.60152777777778, 24.167638888888888], [89.60625, 24.17486111111111], [89.60263888888889, 24.182916666666664], [89.58875, 24.175416666666667], [89.59981796116504, 24.172146587231538]], [[89.59986111111111, 24.50125], [89.59652777777778, 24.491249999999997], [89.60486111111112, 24.50597222222222], [89.59986111111111, 24.50125]], [[89.59347222222223, 24.47347222222222], [89.5976388888889, 24.472638888888888], [89.59208333333333, 24.468194444444443], [89.59819444444445, 24.468194444444443], [89.60319444444444, 24.476805555555554], [89.59625, 24.479027777777777], [89.59347222222223, 24.47347222222222]], [[89.59013888888889, 24.519305555555555], [89.60041666666667, 24.52208333333333], [89.60180555555556, 24.517083333333332], [89.60085808701591, 24.524527729002045], [89.59013888888889, 24.519305555555555]], [[89.60152777777778, 24.18819444444444], [89.59791666666666, 24.19125], [89.59541666666667, 24.18375], [89.60152777777778, 24.18819444444444]], [[89.59625, 24.515694444444442], [89.59125, 24.513194444444444], [89.60013888888889, 24.517638888888886], [89.59625, 24.515694444444442]], [[89.60013888888889, 24.45986111111111], [89.59902777777778, 24.46847222222222], [89.59486111111111, 24.458194444444445], [89.60013888888889, 24.45986111111111]], [[89.59291666666667, 24.193749999999998], [89.59819444444445, 24.19236111111111], [89.59736111111111, 24.19875], [89.59291666666667, 24.193749999999998]], [[89.58875, 24.544027777777778], [89.59708333333333, 24.539583333333333], [89.59208333333333, 24.55125], [89.58875, 24.544027777777778]], [[89.59625, 24.403194444444445], [89.59402777777778, 24.416249999999998], [89.59680555555556, 24.39763888888889], [89.59625, 24.403194444444445]], [[89.58680555555556, 24.277083333333334], [89.58763888888889, 24.271805555555556], [89.5951388888889, 24.275138888888886], [89.58319444444444, 24.28236111111111], [89.58680555555556, 24.277083333333334]], [[89.59236111111112, 24.490416666666665], [89.59041666666667, 24.494027777777777], [89.58791666666667, 24.485138888888887], [89.59236111111112, 24.490416666666665]], [[89.58291666666666, 24.256527777777777], [89.59236111111112, 24.267916666666665], [89.58458333333334, 24.26625], [89.5801388888889, 24.255138888888887], [89.58625, 24.246805555555554], [89.58291666666666, 24.256527777777777]], [[89.59152777777778, 24.384305555555553], [89.59097222222222, 24.388749999999998], [89.58736111111111, 24.38208333333333], [89.59152777777778, 24.384305555555553]], [[89.58569444444444, 24.53763888888889], [89.59041666666667, 24.532638888888886], [89.58319444444444, 24.542638888888888], [89.58569444444444, 24.53763888888889]], [[89.58236111111111, 24.46097222222222], [89.58930555555555, 24.44458333333333], [89.58958333333334, 24.454305555555553], [89.58236111111111, 24.46097222222222]], [[89.58930555555555, 24.37763888888889], [89.58708333333334, 24.381249999999998], [89.57791666666667, 24.372916666666665], [89.58208333333333, 24.37625], [89.58625, 24.36875], [89.58930555555555, 24.37763888888889]], [[89.58152777777778, 24.434583333333332], [89.57986111111111, 24.426805555555553], [89.58597222222222, 24.428194444444443], [89.58152777777778, 24.434583333333332]], [[89.56430555555556, 24.309027777777775], [89.55625, 24.310416666666665], [89.55291666666668, 24.297638888888887], [89.56180555555555, 24.29847222222222], [89.55986111111112, 24.304305555555555], [89.56902777777778, 24.30847222222222], [89.57925498810178, 24.304773018488003], [89.57097222222222, 24.311805555555555], [89.57263888888889, 24.326527777777777], [89.57180555555556, 24.321527777777778], [89.56319444444445, 24.323194444444443], [89.56930555555556, 24.314305555555553], [89.56430555555556, 24.309027777777775]], [[89.58175701036045, 24.3026486599665], [89.57986111111111, 24.296249999999997], [89.58290061096903, 24.3016776783177], [89.58175701036045, 24.3026486599665]], [[89.57569444444445, 24.390138888888888], [89.58513888888889, 24.386805555555554], [89.58430555555556, 24.393194444444443], [89.57569444444445, 24.390138888888888]], [[89.57875, 24.54236111111111], [89.57513888888889, 24.53875], [89.58347222222223, 24.543194444444442], [89.57875, 24.54236111111111]], [[89.58208333333333, 24.247638888888886], [89.57986111111111, 24.25263888888889], [89.5801388888889, 24.241249999999997], [89.58208333333333, 24.247638888888886]], [[89.58097222222223, 24.28875], [89.57763888888888, 24.291805555555555], [89.57791666666667, 24.284305555555555], [89.58097222222223, 24.28875]], [[89.57736111111112, 24.35013888888889], [89.58041666666666, 24.356527777777778], [89.57291666666667, 24.355138888888888], [89.57736111111112, 24.35013888888889]], [[89.57458333333334, 24.315694444444443], [89.57680555555555, 24.309583333333332], [89.57986111111111, 24.314027777777778], [89.57458333333334, 24.315694444444443]], [[89.57847222222223, 24.275972222222222], [89.57458333333334, 24.28875], [89.56208333333333, 24.267083333333332], [89.56958333333334, 24.265416666666667], [89.57208333333334, 24.27486111111111], [89.57208333333334, 24.265694444444442], [89.57291666666667, 24.275694444444444], [89.57680555555555, 24.28013888888889], [89.57847222222223, 24.275972222222222]], [[89.56652777777778, 24.42486111111111], [89.57819444444445, 24.42347222222222], [89.57125, 24.430694444444445], [89.56652777777778, 24.42486111111111]], [[89.57069444444444, 24.38208333333333], [89.57569444444445, 24.37986111111111], [89.57763888888888, 24.38513888888889], [89.57069444444444, 24.38208333333333]], [[89.57458333333334, 24.34208333333333], [89.57736111111112, 24.349027777777778], [89.57041666666667, 24.34819444444444], [89.57458333333334, 24.34208333333333]], [[89.57319444444445, 24.25097222222222], [89.57680555555555, 24.254305555555554], [89.57125, 24.256805555555555], [89.57319444444445, 24.25097222222222]], [[89.56819444444444, 24.24486111111111], [89.56902777777778, 24.23986111111111], [89.57513888888889, 24.24375], [89.56819444444444, 24.24486111111111]], [[89.57069444444444, 24.36125], [89.56652777777778, 24.359027777777776], [89.57486111111112, 24.359583333333333], [89.57069444444444, 24.36125]], [[89.56625, 24.296249999999997], [89.56931407634629, 24.294569700068166], [89.57069444444444, 24.29986111111111], [89.56180555555555, 24.297083333333333], [89.56347222222223, 24.292638888888888], [89.56625, 24.296249999999997]], [[89.56819444444444, 24.224027777777778], [89.56847222222223, 24.214583333333334], [89.57375, 24.230694444444442], [89.56819444444444, 24.224027777777778]], [[89.56958333333334, 24.255138888888887], [89.57125, 24.25986111111111], [89.56541666666666, 24.256527777777777], [89.56958333333334, 24.255138888888887]], [[89.55486111111111, 24.291249999999998], [89.56986111111111, 24.285138888888888], [89.55819444444445, 24.296249999999997], [89.55486111111111, 24.291249999999998]], [[89.56902777777778, 24.537916666666664], [89.56680555555556, 24.542638888888888], [89.56569444444445, 24.535416666666666], [89.56902777777778, 24.537916666666664]], [[89.56708333333333, 24.326527777777777], [89.56847222222223, 24.334027777777777], [89.56069444444445, 24.327916666666667], [89.56708333333333, 24.326527777777777]], [[89.56458333333333, 24.509305555555553], [89.56458333333333, 24.514027777777777], [89.55986111111112, 24.511805555555554], [89.56458333333333, 24.509305555555553]], [[89.5476388888889, 24.410138888888888], [89.55486111111111, 24.406805555555554], [89.56291666666667, 24.41736111111111], [89.5501388888889, 24.41736111111111], [89.5476388888889, 24.410138888888888]], [[89.55958333333334, 24.26347222222222], [89.56180555555555, 24.268749999999997], [89.55597222222222, 24.268472222222222], [89.55958333333334, 24.26347222222222]], [[89.55958333333334, 24.31375], [89.56152777777778, 24.32208333333333], [89.55125, 24.319305555555555], [89.55958333333334, 24.31375]], [[89.55930555555555, 24.355138888888888], [89.56069444444445, 24.361527777777777], [89.55458333333334, 24.357083333333332], [89.55930555555555, 24.355138888888888]], [[89.55291666666668, 24.424027777777777], [89.55486111111111, 24.41986111111111], [89.54791666666667, 24.418194444444442], [89.55597222222222, 24.41875], [89.55291666666668, 24.424027777777777]], [[89.54458333333334, 24.392083333333332], [89.55430555555556, 24.395694444444445], [89.54347222222222, 24.396805555555556], [89.54458333333334, 24.392083333333332]], [[89.54958333333333, 24.460416666666664], [89.55125, 24.45486111111111], [89.55180555555556, 24.464583333333334], [89.54958333333333, 24.460416666666664]], [[89.54458333333334, 24.365138888888886], [89.55125, 24.36847222222222], [89.54569444444445, 24.37097222222222], [89.54458333333334, 24.365138888888886]], [[89.55097222222223, 24.51736111111111], [89.54791666666667, 24.523194444444442], [89.5501388888889, 24.513194444444444], [89.55097222222223, 24.51736111111111]], [[89.53704462659381, 24.30425091074681], [89.54652777777778, 24.302083333333332], [89.54986111111111, 24.308194444444442], [89.53704462659381, 24.30425091074681]], [[89.54513888888889, 24.456249999999997], [89.54569444444445, 24.462638888888886], [89.54097222222222, 24.452638888888888], [89.54625, 24.44597222222222], [89.54513888888889, 24.456249999999997]], [[89.54097222222222, 24.28458333333333], [89.53819444444444, 24.27958333333333], [89.54625, 24.284027777777776], [89.54097222222222, 24.28458333333333]], [[89.54041666666667, 24.42236111111111], [89.54347222222222, 24.43375], [89.53458333333333, 24.42236111111111], [89.54041666666667, 24.42236111111111]], [[89.52513888888889, 24.520694444444445], [89.52902777777778, 24.51486111111111], [89.52657163742691, 24.521410818713452], [89.52513888888889, 24.520694444444445]], [[89.5268506006006, 24.521550300300298], [89.53847222222223, 24.52236111111111], [89.54319444444445, 24.531805555555554], [89.53402777777778, 24.536805555555553], [89.53680555555556, 24.526527777777776], [89.5268506006006, 24.521550300300298]], [[89.52461666666667, 24.469027777777775], [89.51875, 24.469027777777775], [89.52291666666667, 24.464305555555555], [89.52461666666667, 24.469027777777775]], [[89.53143750829683, 24.46945655781229], [89.53847222222223, 24.46736111111111], [89.54125, 24.461527777777775], [89.53791666666667, 24.47513888888889], [89.53041666666667, 24.474305555555553], [89.53143750829683, 24.46945655781229]], [[89.53875000000001, 24.490972222222222], [89.53319444444445, 24.492638888888887], [89.53458333333333, 24.486527777777777], [89.53875000000001, 24.490972222222222]], [[89.52791666666667, 24.368194444444445], [89.52569444444444, 24.364305555555553], [89.53069444444445, 24.371805555555554], [89.52791666666667, 24.368194444444445]], [[89.51736111111111, 24.53236111111111], [89.52458333333334, 24.52958333333333], [89.52819444444445, 24.54097222222222], [89.51736111111111, 24.53236111111111]], [[89.52125000000001, 24.47597222222222], [89.52791666666667, 24.47625], [89.52569444444444, 24.48097222222222], [89.52125000000001, 24.47597222222222]], [[89.51486111111112, 24.43736111111111], [89.52597222222222, 24.433194444444442], [89.52736111111112, 24.439305555555553], [89.51486111111112, 24.43736111111111]], [[89.51930555555556, 24.498194444444444], [89.51902777777778, 24.494027777777777], [89.52263888888889, 24.50597222222222], [89.51513888888888, 24.49458333333333], [89.51875, 24.492083333333333], [89.51930555555556, 24.498194444444444]], [[89.50541666666668, 24.483472222222222], [89.51319444444445, 24.483749999999997], [89.51083132045089, 24.487530998389683], [89.51347222222222, 24.501527777777778], [89.50236111111111, 24.49375], [89.5082215762274, 24.48886627906977], [89.50541666666668, 24.483472222222222]], [[89.50597222222223, 24.40597222222222], [89.50597222222223, 24.401249999999997], [89.51319444444445, 24.404305555555553], [89.51041666666667, 24.409305555555555], [89.50597222222223, 24.40597222222222]], [[89.50816497452278, 24.420495379876794], [89.50402777777778, 24.413194444444443], [89.51041666666667, 24.40958333333333], [89.50816497452278, 24.420495379876794]], [[89.50041666666667, 24.533749999999998], [89.50430555555556, 24.531527777777775], [89.50847222222222, 24.539861111111108], [89.50041666666667, 24.533749999999998]], [[89.5051388888889, 24.454583333333332], [89.50430555555556, 24.44708333333333], [89.50569444444444, 24.459027777777777], [89.5051388888889, 24.454583333333332]], [[89.49736111111112, 24.495416666666664], [89.50569444444444, 24.498472222222222], [89.49458333333334, 24.500138888888888], [89.49736111111112, 24.495416666666664]], [[89.49930555555555, 24.524583333333332], [89.50208333333333, 24.51986111111111], [89.50125, 24.527638888888887], [89.49486111111112, 24.524583333333332], [89.49930555555555, 24.524583333333332]], [[89.49819444444445, 24.34263888888889], [89.49847222222222, 24.338194444444444], [89.49958333333333, 24.349027777777778], [89.49819444444445, 24.34263888888889]], [[89.49513888888889, 24.459305555555556], [89.49819444444445, 24.456249999999997], [89.49652777777779, 24.465416666666666], [89.49513888888889, 24.459305555555556]], [[89.49291666666667, 24.310138888888886], [89.49708333333334, 24.31347222222222], [89.48847222222223, 24.312083333333334], [89.49291666666667, 24.310138888888886]], [[89.49291666666667, 24.53013888888889], [89.48847222222223, 24.528194444444445], [89.49375, 24.525972222222222], [89.49291666666667, 24.53013888888889]], [[89.49152777777778, 24.435416666666665], [89.48569444444445, 24.44486111111111], [89.48958333333334, 24.431805555555552], [89.49152777777778, 24.435416666666665]], [[89.48736111111111, 24.395138888888887], [89.49097222222223, 24.393194444444443], [89.48902777777778, 24.400138888888886], [89.48430555555557, 24.39875], [89.48736111111111, 24.395138888888887]], [[89.48958333333334, 24.451527777777777], [89.48875, 24.446527777777778], [89.49069444444444, 24.455694444444443], [89.48958333333334, 24.451527777777777]], [[89.48347222222222, 24.492916666666666], [89.48930555555556, 24.48875], [89.48680555555556, 24.495694444444442], [89.48347222222222, 24.492916666666666]], [[89.48180555555555, 24.52486111111111], [89.48736111111111, 24.519305555555555], [89.48819444444445, 24.532638888888886], [89.48180555555555, 24.52486111111111]], [[89.47930555555556, 24.539027777777775], [89.48680555555556, 24.539583333333333], [89.48569444444445, 24.545416666666664], [89.47569444444444, 24.541249999999998], [89.47541666666667, 24.529027777777777], [89.47930555555556, 24.539027777777775]], [[89.47847222222222, 24.34125], [89.47319444444445, 24.339305555555555], [89.48097222222222, 24.33736111111111], [89.47847222222222, 24.34125]], [[89.47902777777779, 24.427083333333332], [89.47652777777778, 24.431805555555552], [89.47291666666666, 24.428472222222222], [89.47902777777779, 24.427083333333332]], [[89.47125, 24.522916666666664], [89.46236111111111, 24.515694444444442], [89.4701388888889, 24.520694444444445], [89.47180555555556, 24.514027777777777], [89.47652777777778, 24.515694444444442], [89.47180555555556, 24.532916666666665], [89.47125, 24.522916666666664]], [[89.46819444444445, 24.465694444444445], [89.46430555555555, 24.47597222222222], [89.46347222222222, 24.466805555555553], [89.46819444444445, 24.465694444444445]], [[89.46263888888889, 24.377916666666664], [89.46736111111112, 24.377916666666664], [89.46513888888889, 24.384027777777778], [89.46263888888889, 24.377916666666664]], [[89.46430555555555, 24.50819444444444], [89.45541666666666, 24.50486111111111], [89.45347222222223, 24.495694444444442], [89.46430555555555, 24.50819444444444]], [[89.46402777777779, 24.510694444444443], [89.46125, 24.513749999999998], [89.45902777777778, 24.506527777777777], [89.46402777777779, 24.510694444444443]], [[89.45641169154229, 24.538575870646763], [89.45319444444445, 24.533749999999998], [89.45986111111111, 24.53486111111111], [89.45641169154229, 24.538575870646763]], [[89.45958333333334, 24.51097222222222], [89.45541666666666, 24.517916666666665], [89.45208333333333, 24.50847222222222], [89.45958333333334, 24.51097222222222]], [[89.45902777777778, 24.41597222222222], [89.45902777777778, 24.422916666666666], [89.45430555555556, 24.418194444444442], [89.45902777777778, 24.41597222222222]], [[89.45458333333333, 24.361527777777777], [89.45902777777778, 24.361805555555556], [89.45625, 24.370694444444442], [89.45458333333333, 24.361527777777777]], [[89.43781378600823, 24.488301897576587], [89.44458964646464, 24.485290404040406], [89.43875, 24.489027777777775], [89.44402777777778, 24.49486111111111], [89.43781378600823, 24.488301897576587]], [[89.44581393544382, 24.484746275605215], [89.44680555555556, 24.484305555555554], [89.44291666666668, 24.476805555555554], [89.44763888888889, 24.475416666666664], [89.45125, 24.48875], [89.45180555555555, 24.492916666666666], [89.44581393544382, 24.484746275605215]], [[89.4473611111111, 24.518749999999997], [89.44236111111111, 24.520694444444445], [89.44819444444445, 24.512083333333333], [89.4473611111111, 24.518749999999997]], [[89.44791666666667, 24.46625], [89.44708333333334, 24.47458333333333], [89.44680555555556, 24.461805555555554], [89.44791666666667, 24.46625]], [[89.43125, 24.420972222222222], [89.44347222222223, 24.422083333333333], [89.43319444444445, 24.422083333333333], [89.43041666666667, 24.427638888888886], [89.43125, 24.420972222222222]], [[89.44236111111111, 24.481527777777778], [89.43652777777778, 24.482083333333332], [89.43708333333333, 24.47513888888889], [89.4426388888889, 24.476805555555554], [89.43736111111112, 24.481805555555553], [89.44236111111111, 24.481527777777778]], [[89.43236111111112, 24.381805555555555], [89.43652777777778, 24.382638888888888], [89.43291666666667, 24.387361111111108], [89.43236111111112, 24.381805555555555]], [[89.43541666666667, 24.451805555555556], [89.43347222222222, 24.456249999999997], [89.43291666666667, 24.44597222222222], [89.43541666666667, 24.451805555555556]], [[89.42097222222222, 24.351527777777775], [89.41902777777779, 24.361805555555556], [89.42013888888889, 24.35125], [89.42930555555556, 24.349305555555553], [89.42097222222222, 24.351527777777775]], [[89.40986111111111, 24.419305555555553], [89.42125, 24.419027777777778], [89.41597222222222, 24.419305555555553], [89.41680555555556, 24.426805555555553], [89.40986111111111, 24.419305555555553]], [[89.41236111111111, 24.55097222222222], [89.41791666666667, 24.55236111111111], [89.41486111111111, 24.55708333333333], [89.41236111111111, 24.55097222222222]], [[89.40958333333333, 24.37875], [89.41430555555556, 24.380138888888887], [89.40458333333333, 24.378194444444443], [89.40958333333333, 24.37875]], [[89.39986111111111, 24.491805555555555], [89.40375, 24.48708333333333], [89.41291666666667, 24.490416666666665], [89.39986111111111, 24.491805555555555]], [[89.40652777777778, 24.39875], [89.40652777777778, 24.392916666666665], [89.41152777777778, 24.397916666666664], [89.40652777777778, 24.39875]], [[89.41097222222223, 24.42347222222222], [89.41041666666666, 24.428194444444443], [89.40652777777778, 24.42486111111111], [89.41097222222223, 24.42347222222222]], [[89.38902777777778, 24.52736111111111], [89.38875, 24.520416666666666], [89.40097222222222, 24.519583333333333], [89.38902777777778, 24.52736111111111]], [[89.39347222222223, 24.511805555555554], [89.39819444444444, 24.517083333333332], [89.39041666666667, 24.51458333333333], [89.39347222222223, 24.511805555555554]], [[89.39208333333333, 24.474027777777778], [89.39708333333334, 24.478194444444444], [89.38958333333333, 24.479305555555555], [89.39208333333333, 24.474027777777778]], [[89.37625, 24.540138888888887], [89.3776388888889, 24.547638888888887], [89.37180555555555, 24.54097222222222], [89.37625, 24.540138888888887]], [[89.37013888888889, 24.506249999999998], [89.37680555555556, 24.50486111111111], [89.37736111111111, 24.51097222222222], [89.37013888888889, 24.506249999999998]], [[89.35291666666667, 24.506527777777777], [89.34736111111111, 24.51097222222222], [89.34819444444445, 24.505138888888887], [89.35291666666667, 24.506527777777777]], [[89.29736111111112, 24.374027777777776], [89.29236111111112, 24.373749999999998], [89.31291666666667, 24.36263888888889], [89.29736111111112, 24.374027777777776]], [[89.30513888888889, 24.386527777777776], [89.30041666666666, 24.384027777777778], [89.30875, 24.382638888888888], [89.30513888888889, 24.386527777777776]]], [[[89.69058383685801, 24.77336530715004], [89.6776388888889, 24.782083333333333], [89.68708333333333, 24.779305555555553], [89.69058383685801, 24.77336530715004]]], [[[89.76125, 24.76013888888889], [89.77125000000001, 24.752916666666664], [89.77152777777778, 24.760694444444443], [89.77875, 24.754305555555554], [89.77708333333334, 24.74736111111111], [89.75736111111111, 24.754305555555554], [89.77236111111111, 24.75125], [89.76125, 24.76013888888889]]], [[[89.77680555555555, 24.74625], [89.77597222222222, 24.72486111111111], [89.7701388888889, 24.748472222222222], [89.77680555555555, 24.74625]]], [[[89.75273829246743, 24.7341448531036], [89.75763888888889, 24.733472222222222], [89.75763888888889, 24.729027777777777], [89.76180555555555, 24.733749999999997], [89.75879400440044, 24.736360011001096], [89.76041666666667, 24.740416666666665], [89.76375, 24.727916666666665], [89.76569444444445, 24.73847222222222], [89.76291666666667, 24.718194444444443], [89.76958333333333, 24.724305555555553], [89.77347222222222, 24.71875], [89.76652777777778, 24.70847222222222], [89.75541666666668, 24.716527777777777], [89.75319444444445, 24.72958333333333], [89.75273829246743, 24.7341448531036]]], [[[89.68569444444445, 24.28763888888889], [89.68125, 24.289305555555554], [89.68875, 24.29958333333333], [89.68541666666667, 24.289305555555554], [89.68847222222223, 24.29486111111111], [89.69597222222222, 24.29236111111111], [89.68569444444445, 24.28763888888889]]], [[[89.56905323926728, 24.63835145696301], [89.57069444444444, 24.64847222222222], [89.57791666666667, 24.645694444444445], [89.56958333333334, 24.658749999999998], [89.57736111111112, 24.65375], [89.58347222222223, 24.627916666666664], [89.56905323926728, 24.63835145696301]]], [[[89.54930555555556, 24.617638888888887], [89.54986111111111, 24.623749999999998], [89.55902777777779, 24.623472222222222], [89.54930555555556, 24.617638888888887]]]]}}