{"type": "Feature", "properties": {}, "geometry": {"type": "MultiPolygon", "coordinates": [[[[89.28652777777778, 24.396805555555556], [89.2851388888889, 24.420416666666664], [89.27180555555556, 24.42736111111111], [89.2526388888889, 24.42375], [89.24819444444445, 24.432916666666664], [89.27541666666667, 24.44847222222222], [89.28375, 24.462083333333332], [89.27902777777778, 24.466527777777777], [89.28541666666666, 24.471527777777776], [89.28347222222223, 24.484583333333333], [89.29375, 24.480416666666667], [89.29430555555555, 24.491527777777776], [89.30902777777779, 24.50958333333333], [89.31819444444444, 24.50958333333333], [89.31319444444445, 24.512916666666666], [89.32291666666667, 24.517916666666665], [89.32375, 24.525416666666665], [89.32763888888888, 24.517638888888886], [89.31847222222223, 24.515138888888888], [89.32013888888889, 24.50263888888889], [89.33513888888889, 24.492916666666666], [89.33513888888889, 24.48125], [89.34736111111111, 24.482083333333332], [89.34319444444445, 24.490416666666665], [89.34958333333334, 24.499027777777776], [89.35902777777778, 24.499583333333334], [89.35930555555557, 24.48986111111111], [89.35986111111112, 24.50263888888889], [89.36986111111112, 24.50958333333333], [89.36347222222223, 24.49236111111111], [89.3776388888889, 24.494027777777777], [89.37652777777778, 24.486805555555556], [89.39569444444444, 24.484583333333333], [89.40847222222223, 24.47375], [89.42236111111112, 24.48708333333333], [89.42625, 24.483749999999997], [89.41708333333334, 24.477361111111108], [89.4251388888889, 24.46986111111111], [89.42930555555556, 24.481805555555553], [89.43625, 24.47958333333333], [89.43625, 24.470138888888886], [89.42986111111111, 24.469305555555554], [89.43458333333334, 24.46847222222222], [89.42152777777778, 24.46847222222222], [89.42847222222223, 24.46486111111111], [89.42097222222222, 24.460694444444442], [89.43263888888889, 24.463749999999997], [89.42458333333333, 24.46125], [89.43180555555556, 24.45486111111111], [89.42375, 24.45208333333333], [89.41819444444445, 24.434583333333332], [89.40541666666667, 24.425416666666667], [89.40819444444445, 24.415416666666665], [89.39986111111111, 24.414583333333333], [89.40569444444445, 24.41125], [89.41069444444445, 24.416805555555555], [89.43291666666667, 24.409305555555555], [89.41652777777779, 24.420694444444443], [89.41763888888889, 24.428194444444443], [89.43097222222222, 24.425416666666667], [89.43347222222222, 24.418194444444442], [89.44208333333333, 24.421527777777776], [89.43541666666667, 24.416805555555555], [89.44569444444444, 24.40958333333333], [89.44930555555555, 24.42513888888889], [89.45097222222222, 24.40597222222222], [89.45875000000001, 24.410138888888888], [89.46541666666667, 24.40625], [89.46152777777777, 24.399027777777775], [89.46819444444445, 24.399027777777775], [89.46930555555556, 24.40958333333333], [89.46430555555555, 24.41069444444444], [89.46986111111111, 24.417916666666667], [89.46236111111111, 24.415138888888887], [89.4576388888889, 24.424027777777777], [89.46236111111111, 24.427638888888886], [89.44680555555556, 24.43125], [89.45180555555555, 24.435416666666665], [89.44819444444445, 24.44347222222222], [89.45986111111111, 24.43819444444444], [89.44986111111112, 24.43097222222222], [89.46291666666667, 24.436527777777776], [89.46513888888889, 24.451249999999998], [89.46402777777779, 24.442916666666665], [89.47847222222222, 24.44569444444444], [89.46791666666667, 24.436527777777776], [89.47569444444444, 24.43347222222222], [89.47152777777778, 24.428472222222222], [89.47569444444444, 24.425416666666667], [89.49541666666667, 24.429583333333333], [89.50236111111111, 24.420416666666664], [89.50708333333334, 24.425694444444442], [89.50680555555556, 24.416527777777777], [89.50069444444445, 24.41347222222222], [89.50930555555556, 24.409305555555555], [89.48986111111111, 24.400694444444444], [89.48125, 24.40347222222222], [89.4701388888889, 24.422083333333333], [89.48041666666667, 24.39763888888889], [89.45819444444444, 24.390694444444442], [89.45986111111111, 24.39597222222222], [89.45319444444445, 24.396805555555556], [89.45069444444445, 24.387916666666666], [89.46069444444444, 24.38458333333333], [89.46097222222222, 24.370416666666664], [89.46875, 24.38097222222222], [89.46013888888889, 24.38986111111111], [89.46458333333334, 24.385694444444443], [89.46708333333333, 24.39236111111111], [89.47763888888889, 24.38486111111111], [89.46902777777778, 24.392916666666665], [89.48291666666667, 24.397916666666664], [89.48791666666666, 24.392638888888886], [89.48208333333334, 24.38847222222222], [89.49291666666667, 24.386527777777776], [89.47930555555556, 24.37763888888889], [89.48902777777778, 24.380138888888887], [89.48986111111111, 24.373194444444444], [89.49458333333334, 24.380138888888887], [89.50041666666667, 24.37736111111111], [89.49347222222222, 24.365416666666665], [89.50569444444444, 24.373472222222222], [89.50402777777778, 24.379027777777775], [89.48875, 24.381805555555555], [89.49680555555555, 24.389305555555556], [89.48875, 24.389305555555556], [89.49402777777777, 24.39763888888889], [89.48819444444445, 24.399305555555554], [89.50152777777778, 24.404305555555553], [89.5001388888889, 24.395694444444445], [89.5051388888889, 24.407083333333333], [89.50597222222223, 24.400972222222222], [89.51513888888888, 24.401805555555555], [89.51041666666667, 24.410138888888888], [89.51347222222222, 24.422083333333333], [89.52208333333334, 24.416249999999998], [89.51875, 24.413194444444443], [89.52736111111112, 24.416249999999998], [89.52430555555556, 24.41986111111111], [89.52986111111112, 24.41736111111111], [89.52361229530383, 24.410840607660035], [89.52680555555555, 24.41125], [89.5201388888889, 24.402916666666666], [89.52541666666667, 24.392916666666665], [89.52263888888889, 24.400416666666665], [89.53208333333333, 24.411527777777778], [89.53791666666667, 24.40513888888889], [89.53430555555556, 24.41375], [89.55097222222223, 24.410416666666666], [89.53541666666666, 24.39986111111111], [89.54958333333333, 24.40375], [89.53930555555556, 24.38958333333333], [89.54513888888889, 24.378194444444443], [89.53740384615385, 24.374326923076925], [89.53680555555556, 24.377916666666664], [89.53208333333333, 24.372916666666665], [89.53763888888889, 24.372916666666665], [89.53740693012601, 24.374308419243985], [89.54625, 24.37486111111111], [89.54458333333334, 24.36208333333333], [89.55486111111111, 24.36875], [89.55569444444444, 24.376527777777778], [89.56125, 24.36958333333333], [89.55791666666667, 24.38208333333333], [89.56625, 24.38458333333333], [89.55930555555555, 24.38986111111111], [89.55930555555555, 24.399583333333332], [89.55236111111111, 24.39708333333333], [89.56430555555556, 24.415138888888887], [89.55736111111112, 24.419027777777778], [89.57152777777777, 24.422083333333333], [89.56597222222223, 24.41236111111111], [89.57680555555555, 24.400416666666665], [89.56652777777778, 24.39986111111111], [89.57263888888889, 24.39986111111111], [89.56902777777778, 24.393472222222222], [89.57541666666667, 24.39625], [89.57569444444445, 24.390694444444442], [89.56569444444445, 24.388194444444444], [89.57263888888889, 24.38347222222222], [89.56402777777778, 24.37763888888889], [89.57069444444444, 24.37569444444444], [89.58125, 24.387083333333333], [89.58236111111111, 24.37847222222222], [89.56875000000001, 24.367638888888887], [89.58458333333334, 24.373472222222222], [89.58597222222222, 24.369027777777777], [89.57680555555555, 24.36486111111111], [89.57958333333333, 24.35986111111111], [89.57152777777777, 24.364027777777775], [89.56159032851072, 24.35567128634866], [89.56625, 24.366249999999997], [89.55541666666667, 24.370694444444442], [89.55402777777778, 24.36263888888889], [89.56013888888889, 24.364027777777775], [89.5526388888889, 24.355694444444442], [89.55736111111112, 24.35013888888889], [89.5501388888889, 24.349027777777778], [89.55625, 24.345972222222223], [89.55236111111111, 24.340138888888887], [89.55597222222222, 24.342916666666664], [89.56095114569823, 24.35422016861219], [89.57680555555555, 24.358749999999997], [89.57097222222222, 24.352916666666665], [89.57513888888889, 24.34736111111111], [89.5676388888889, 24.34958333333333], [89.57541666666667, 24.331527777777776], [89.56791666666668, 24.326249999999998], [89.56675195567145, 24.332947088222515], [89.55930555555555, 24.326527777777777], [89.5626388888889, 24.32097222222222], [89.55069444444445, 24.319027777777777], [89.55791666666667, 24.317916666666665], [89.55736111111112, 24.312638888888888], [89.5476388888889, 24.315694444444443], [89.55291666666668, 24.312083333333334], [89.54597222222222, 24.305138888888887], [89.53291666666667, 24.30847222222222], [89.52625, 24.294027777777778], [89.51097222222222, 24.28625], [89.52291666666667, 24.290138888888887], [89.52152777777778, 24.275972222222222], [89.52708333333334, 24.29097222222222], [89.53458333333333, 24.290138888888887], [89.53152777777778, 24.302083333333332], [89.54069444444444, 24.303749999999997], [89.54041666666667, 24.29958333333333], [89.54930555555556, 24.30625], [89.54986111111111, 24.29208333333333], [89.55541666666667, 24.299305555555556], [89.56625, 24.292638888888888], [89.55763888888889, 24.296805555555554], [89.55152777777778, 24.28708333333333], [89.56041666666667, 24.29097222222222], [89.55958333333334, 24.28486111111111], [89.56708333333333, 24.283194444444444], [89.57402777777779, 24.28847222222222], [89.56736111111111, 24.276527777777776], [89.56013888888889, 24.27958333333333], [89.56291666666667, 24.270416666666666], [89.54930555555556, 24.267916666666665], [89.55819444444445, 24.262916666666666], [89.56708333333333, 24.267916666666665], [89.56819444444444, 24.262638888888887], [89.55763888888889, 24.261527777777776], [89.56958333333334, 24.26097222222222], [89.56486111111111, 24.255416666666665], [89.57263888888889, 24.25125], [89.56569444444445, 24.244027777777777], [89.56091847396362, 24.246208112127718], [89.5533899663618, 24.234065357931232], [89.54486111111112, 24.225694444444443], [89.55430555555556, 24.227916666666665], [89.55125, 24.231805555555553], [89.56069444444445, 24.234027777777776], [89.56180555555555, 24.24347222222222], [89.57513888888889, 24.241805555555555], [89.57708333333333, 24.254583333333333], [89.57263888888889, 24.255416666666665], [89.58041666666666, 24.262361111111108], [89.57597222222222, 24.265694444444442], [89.5723611111111, 24.256249999999998], [89.56902777777778, 24.26347222222222], [89.57375, 24.267916666666665], [89.57402777777779, 24.262916666666666], [89.58120169082123, 24.273544685990295], [89.57708333333333, 24.266805555555553], [89.58180555555556, 24.27125], [89.5826388888889, 24.267083333333332], [89.58319444444444, 24.276805555555555], [89.58152253668763, 24.274069706498953], [89.5801388888889, 24.285138888888888], [89.58791666666667, 24.28875], [89.57819444444445, 24.292638888888888], [89.58708333333334, 24.295972222222222], [89.58736111111111, 24.291805555555555], [89.59013888888889, 24.29736111111111], [89.59319444444445, 24.293194444444442], [89.59263888888889, 24.29986111111111], [89.58708333333334, 24.296527777777776], [89.59069444444445, 24.300694444444442], [89.57513888888889, 24.30847222222222], [89.58097222222223, 24.306527777777777], [89.57652777777778, 24.31347222222222], [89.58208333333333, 24.31319444444444], [89.57449587856856, 24.31564920922128], [89.57875, 24.322916666666664], [89.57541666666667, 24.342916666666664], [89.57959508224236, 24.3480593319906], [89.58347222222223, 24.346249999999998], [89.58347222222223, 24.350694444444443], [89.58008468834689, 24.348661924119234], [89.5826388888889, 24.351805555555554], [89.58041666666666, 24.360694444444444], [89.59152777777778, 24.372638888888886], [89.59152777777778, 24.38597222222222], [89.59847222222223, 24.384305555555553], [89.59430555555556, 24.36958333333333], [89.60597222222222, 24.387916666666666], [89.57847222222223, 24.395138888888887], [89.58930555555555, 24.43263888888889], [89.57180555555556, 24.436527777777776], [89.56736111111111, 24.44763888888889], [89.56125, 24.43986111111111], [89.56046207264957, 24.45325587606841], [89.56236111111112, 24.442916666666665], [89.56773659463786, 24.448560924369747], [89.56291666666667, 24.449583333333333], [89.5723611111111, 24.455972222222222], [89.56458333333333, 24.455416666666665], [89.56736111111111, 24.46708333333333], [89.5626388888889, 24.457638888888887], [89.55291666666668, 24.45875], [89.55819444444445, 24.469583333333333], [89.53486111111111, 24.482916666666664], [89.56152777777778, 24.497083333333332], [89.55625, 24.48486111111111], [89.56319444444445, 24.483749999999997], [89.55986111111112, 24.479305555555555], [89.56808177491367, 24.482193896891584], [89.56347222222223, 24.485138888888887], [89.57041666666667, 24.489027777777775], [89.56902777777778, 24.496527777777775], [89.56347222222223, 24.490694444444443], [89.56402777777778, 24.504305555555554], [89.5723611111111, 24.499583333333334], [89.56986111111111, 24.52875], [89.57847222222223, 24.520138888888887], [89.5751057449495, 24.492271938131314], [89.57930555555556, 24.48597222222222], [89.57819444444445, 24.498472222222222], [89.59125, 24.478749999999998], [89.58597222222222, 24.48263888888889], [89.58152777777778, 24.47513888888889], [89.58569444444444, 24.475694444444443], [89.57847222222223, 24.47319444444444], [89.57652777777778, 24.459305555555556], [89.5826388888889, 24.457916666666666], [89.59208333333333, 24.432916666666664], [89.58958333333334, 24.452916666666667], [89.59208333333333, 24.442916666666665], [89.59875000000001, 24.457638888888887], [89.59847222222223, 24.452638888888888], [89.60930555555557, 24.455694444444443], [89.59375, 24.435138888888886], [89.60597222222222, 24.445138888888888], [89.60986111111112, 24.44347222222222], [89.60458333333334, 24.43625], [89.59625, 24.435694444444444], [89.59902777777778, 24.429305555555555], [89.58208333333333, 24.398194444444442], [89.59430555555556, 24.392916666666665], [89.58708333333334, 24.396805555555556], [89.59180555555555, 24.396527777777777], [89.58763888888889, 24.40375], [89.59180555555555, 24.401527777777776], [89.59208333333333, 24.410416666666666], [89.59796873372905, 24.40071370925752], [89.59902777777778, 24.40236111111111], [89.60208333333334, 24.39708333333333], [89.5976388888889, 24.410416666666666], [89.60569444444445, 24.395138888888887], [89.60347222222222, 24.408472222222223], [89.62013888888889, 24.413194444444443], [89.61847222222222, 24.401249999999997], [89.62708333333333, 24.40486111111111], [89.62486111111112, 24.39708333333333], [89.61569444444444, 24.393749999999997], [89.62680555555556, 24.393194444444443], [89.62328478244756, 24.387865706767474], [89.63402777777777, 24.381805555555555], [89.62791666666666, 24.387361111111108], [89.63319444444444, 24.388749999999998], [89.62986111111111, 24.409305555555555], [89.63597222222222, 24.395138888888887], [89.63819444444445, 24.404305555555553], [89.64708333333334, 24.401527777777776], [89.63319444444444, 24.391527777777778], [89.63847222222222, 24.388194444444444], [89.62986111111111, 24.371805555555554], [89.63930555555555, 24.361527777777777], [89.63347222222222, 24.35625], [89.64041666666667, 24.349027777777778], [89.63597222222222, 24.33986111111111], [89.64597222222223, 24.34847222222222], [89.64125, 24.357083333333332], [89.64541666666666, 24.361805555555556], [89.64875, 24.355416666666667], [89.66097222222223, 24.355416666666667], [89.65680555555556, 24.346805555555555], [89.64902777777777, 24.34819444444444], [89.65736111111111, 24.345694444444444], [89.65569444444445, 24.338749999999997], [89.66597222222222, 24.35486111111111], [89.66541666666667, 24.342916666666664], [89.67375, 24.345694444444444], [89.66461805555561, 24.334071969697025], [89.6776388888889, 24.34875], [89.68208333333334, 24.34375], [89.67430555555556, 24.336527777777775], [89.68218262760546, 24.33978725586739], [89.66986111111112, 24.331527777777776], [89.66625, 24.318749999999998], [89.65513888888889, 24.321805555555553], [89.66763888888889, 24.312638888888888], [89.68041666666667, 24.328194444444442], [89.68069444444444, 24.315416666666664], [89.68513888888889, 24.324583333333333], [89.69430555555556, 24.318194444444444], [89.67652777777778, 24.311527777777776], [89.67986111111111, 24.303749999999997], [89.68263888888889, 24.310694444444444], [89.68986111111111, 24.305416666666666], [89.6726388888889, 24.29986111111111], [89.67847222222223, 24.29875], [89.67236111111112, 24.297083333333333], [89.67930555555556, 24.290138888888887], [89.66902777777779, 24.293194444444442], [89.68097222222222, 24.283749999999998], [89.66402777777778, 24.280416666666664], [89.67208333333333, 24.273194444444442], [89.68069444444444, 24.279305555555553], [89.67600300867619, 24.27044395465995], [89.67152777777778, 24.269583333333333], [89.66125000000001, 24.25958333333333], [89.66370878249842, 24.24592343056436], [89.66708333333334, 24.24625], [89.67486111111111, 24.239027777777775], [89.67347222222223, 24.228194444444444], [89.66458333333334, 24.227083333333333], [89.66763888888889, 24.21847222222222], [89.66097222222223, 24.21986111111111], [89.66708333333334, 24.21486111111111], [89.6659871638142, 24.20670073802409], [89.66930555555555, 24.20986111111111], [89.67347222222223, 24.205416666666665], [89.67638440860215, 24.21415322580645], [89.66875, 24.21097222222222], [89.66986111111112, 24.21763888888889], [89.67347222222223, 24.213194444444444], [89.67152777777778, 24.22236111111111], [89.68263888888889, 24.228194444444444], [89.68013888888889, 24.234583333333333], [89.68402777777779, 24.229305555555555], [89.68736111111112, 24.236805555555556], [89.69652777777777, 24.233472222222222], [89.68875, 24.219305555555554], [89.67778448275863, 24.214736590038314], [89.68791666666667, 24.21597222222222], [89.68347222222222, 24.209027777777777], [89.67625, 24.20986111111111], [89.67847222222223, 24.20375], [89.69458333333334, 24.21125], [89.69847222222222, 24.22208333333333], [89.7051388888889, 24.213472222222222], [89.70375, 24.276249999999997], [89.69291666666668, 24.270138888888887], [89.6876388888889, 24.25236111111111], [89.67958333333334, 24.254583333333333], [89.68791666666667, 24.259027777777778], [89.68152777777777, 24.26597222222222], [89.6876388888889, 24.26597222222222], [89.68736111111112, 24.274027777777775], [89.69625, 24.274583333333332], [89.6971522556391, 24.27988408521303], [89.70708333333333, 24.283194444444444], [89.70847222222223, 24.302083333333332], [89.70319444444445, 24.304583333333333], [89.70847222222223, 24.30236111111111], [89.7174836726039, 24.33306679389313], [89.72152777777778, 24.33458333333333], [89.71902777777778, 24.324305555555554], [89.72125, 24.331527777777776], [89.72430555555556, 24.326249999999998], [89.72570185790366, 24.332089082546602], [89.73229377104379, 24.337201178451185], [89.72125, 24.310972222222222], [89.72569444444444, 24.320138888888888], [89.72958333333334, 24.310972222222222], [89.73225644122384, 24.322332930756843], [89.72847222222222, 24.319305555555555], [89.73339468365917, 24.330716716159372], [89.73237606232296, 24.33726499617789], [89.73930555555556, 24.34263888888889], [89.72958333333334, 24.34958333333333], [89.73291666666667, 24.35625], [89.73902777777778, 24.352638888888887], [89.73544523462193, 24.358780391441766], [89.72847222222222, 24.36125], [89.72902777777779, 24.366805555555555], [89.73625, 24.360416666666666], [89.73180555555555, 24.370694444444442], [89.73652777777778, 24.36375], [89.74486111111112, 24.370416666666664], [89.73708333333333, 24.36347222222222], [89.74291666666667, 24.35763888888889], [89.74708333333334, 24.360694444444444], [89.74152777777778, 24.352361111111108], [89.74319444444444, 24.318194444444444], [89.74569444444445, 24.331249999999997], [89.74486111111112, 24.31986111111111], [89.74986111111112, 24.325694444444444], [89.75069444444445, 24.321527777777778], [89.74541666666667, 24.31597222222222], [89.75236111111111, 24.319027777777777], [89.75625000000001, 24.336527777777775], [89.74819444444445, 24.336805555555554], [89.74791666666667, 24.346249999999998], [89.7501388888889, 24.340138888888887], [89.7551388888889, 24.34708333333333], [89.77152777777778, 24.330416666666665], [89.77402777777777, 24.301805555555553], [89.78847222222223, 24.283194444444444], [89.7877642187042, 24.282332527118147], [89.79013888888889, 24.276527777777776], [89.78402777777778, 24.24347222222222], [89.77597222222222, 24.24236111111111], [89.78458333333333, 24.227916666666665], [89.77819444444445, 24.219305555555554], [89.7851388888889, 24.22375], [89.78870181405897, 24.200506154842884], [89.78680555555556, 24.204027777777778], [89.78541666666666, 24.199583333333333], [89.78914397316247, 24.19762159307238], [89.79097222222222, 24.185694444444444], [89.79486111111112, 24.187083333333334], [89.79847222222223, 24.174305555555556], [89.78013888888889, 24.166249999999998], [89.78763888888889, 24.157916666666665], [89.7976388888889, 24.159305555555555], [89.79847222222223, 24.152638888888887], [89.80180555555556, 24.15986111111111], [89.80652777777777, 24.14986111111111], [89.8026388888889, 24.145694444444445], [89.79819444444445, 24.152083333333334], [89.78875000000001, 24.137361111111108], [89.79236111111112, 24.12125], [89.79180555555556, 24.134027777777778], [89.79986111111111, 24.13625], [89.78763888888889, 24.10986111111111], [89.80408564814815, 24.10202932098765], [89.80208333333334, 24.100694444444443], [89.80763888888889, 24.097638888888888], [89.80843646864687, 24.10011138613863], [89.81013888888889, 24.088194444444444], [89.81986111111111, 24.09236111111111], [89.81875000000001, 24.10013888888889], [89.8151388888889, 24.094305555555554], [89.81208333333333, 24.097638888888888], [89.81930555555556, 24.102361111111108], [89.82291666666667, 24.072916666666664], [89.79855401752424, 24.05167435682326], [89.79708333333333, 24.059027777777775], [89.79152777777779, 24.054305555555555], [89.79791118092959, 24.05111385397965], [89.76652777777778, 24.02375], [89.74097222222223, 24.02208333333333], [89.72180555555556, 24.01347222222222], [89.70291666666667, 24.02375], [89.69875, 24.03847222222222], [89.68291666666667, 24.034305555555555], [89.68458333333334, 24.05847222222222], [89.66236111111111, 24.072916666666664], [89.67347222222223, 24.08986111111111], [89.66597222222222, 24.080694444444443], [89.66291666666667, 24.089305555555555], [89.66180555555556, 24.07347222222222], [89.63736111111112, 24.086805555555554], [89.62958333333333, 24.08347222222222], [89.61652777777778, 24.096805555555555], [89.60458333333334, 24.096527777777776], [89.58069444444445, 24.111527777777777], [89.55930555555555, 24.11125], [89.55541666666667, 24.119027777777777], [89.56680555555556, 24.11486111111111], [89.5676388888889, 24.119027777777777], [89.56152777777778, 24.117638888888887], [89.56430555555556, 24.12236111111111], [89.55069444444445, 24.129583333333333], [89.54569444444445, 24.125416666666666], [89.55294810473367, 24.133372294080655], [89.54125, 24.128194444444443], [89.53291666666667, 24.130694444444444], [89.52180555555556, 24.154305555555553], [89.52930555555555, 24.158749999999998], [89.52319444444444, 24.16847222222222], [89.53347222222223, 24.166527777777777], [89.5351388888889, 24.172916666666666], [89.5176388888889, 24.179027777777776], [89.51708333333333, 24.18875], [89.52513888888889, 24.19125], [89.52236111111111, 24.19736111111111], [89.51041666666667, 24.199583333333333], [89.50208333333333, 24.21708333333333], [89.48930555555556, 24.21708333333333], [89.48597222222223, 24.20375], [89.46930555555556, 24.20097222222222], [89.47125, 24.212916666666665], [89.46152777777777, 24.22458333333333], [89.47375000000001, 24.219305555555554], [89.47819444444444, 24.22958333333333], [89.47152777777778, 24.234583333333333], [89.45430555555556, 24.227638888888887], [89.44652777777777, 24.23125], [89.45652777777778, 24.233749999999997], [89.46319444444444, 24.250138888888888], [89.46125, 24.261805555555554], [89.45236111111112, 24.266805555555553], [89.4401388888889, 24.260694444444443], [89.43930555555556, 24.25236111111111], [89.42458333333333, 24.250416666666666], [89.42930555555556, 24.26736111111111], [89.41763888888889, 24.293194444444442], [89.42319444444445, 24.29986111111111], [89.41902777777779, 24.304583333333333], [89.42541666666666, 24.306805555555552], [89.41902777777779, 24.324305555555554], [89.40430555555555, 24.31986111111111], [89.39847222222222, 24.32347222222222], [89.39791666666667, 24.337638888888886], [89.39152777777778, 24.33486111111111], [89.38263888888889, 24.343194444444443], [89.3751388888889, 24.338194444444444], [89.37819444444445, 24.34819444444444], [89.35902777777778, 24.352361111111108], [89.36180555555556, 24.36263888888889], [89.35347222222222, 24.34819444444444], [89.32152777777777, 24.350694444444443], [89.32902777777778, 24.357916666666664], [89.3151388888889, 24.351805555555554], [89.31736111111111, 24.372916666666665], [89.32375, 24.36875], [89.32152777777777, 24.35597222222222], [89.32402777777779, 24.36958333333333], [89.30513888888889, 24.384027777777778], [89.31097222222222, 24.386805555555554], [89.30569444444444, 24.39097222222222], [89.3026388888889, 24.386805555555554], [89.29569444444445, 24.393194444444443], [89.30152777777778, 24.387638888888887], [89.29791666666667, 24.38236111111111], [89.28819444444444, 24.37597222222222], [89.28347222222223, 24.379027777777775], [89.28652777777778, 24.396805555555556]], [[89.73442852437418, 24.324070597277117], [89.7334082733813, 24.323254396482813], [89.73625, 24.31236111111111], [89.73442852437418, 24.324070597277117]], [[89.66522156084656, 24.20100124926513], [89.66458333333334, 24.19625], [89.66847222222222, 24.19486111111111], [89.66522156084656, 24.20100124926513]], [[89.66340134099617, 24.24589367816092], [89.65597222222223, 24.250138888888888], [89.65180555555555, 24.241805555555555], [89.63958333333333, 24.24513888888889], [89.63458333333334, 24.231805555555553], [89.64013888888888, 24.240694444444443], [89.64763888888889, 24.234583333333333], [89.64958333333334, 24.240972222222222], [89.65069444444444, 24.221249999999998], [89.63902777777778, 24.215416666666666], [89.62986111111111, 24.220972222222223], [89.63708333333334, 24.22625], [89.63069444444444, 24.235138888888887], [89.63069444444444, 24.227361111111108], [89.62458333333333, 24.230416666666667], [89.61902777777777, 24.219583333333333], [89.63569444444445, 24.20736111111111], [89.64680555555556, 24.219305555555554], [89.64763888888889, 24.214583333333334], [89.65152777777779, 24.220694444444444], [89.65569444444445, 24.217916666666664], [89.65152777777779, 24.233194444444443], [89.66291666666667, 24.23847222222222], [89.65847222222223, 24.245416666666664], [89.66340134099617, 24.24589367816092]], [[89.66458061002179, 24.334029758367997], [89.65847222222223, 24.338472222222222], [89.65319444444445, 24.334027777777777], [89.66236111111111, 24.331527777777776], [89.66458061002179, 24.334029758367997]], [[89.62317275435248, 24.38769615073168], [89.61652777777778, 24.37763888888889], [89.62152777777779, 24.37097222222222], [89.62317275435248, 24.38769615073168]], [[89.57467844790315, 24.488734868136635], [89.57347222222222, 24.478749999999998], [89.57097222222222, 24.48034722222222], [89.57347222222222, 24.472638888888888], [89.57736111111112, 24.481527777777778], [89.58541666666667, 24.483194444444443], [89.57486111111112, 24.48763888888889], [89.57467844790315, 24.488734868136635]], [[89.5680795836566, 24.44848816912335], [89.57351809378186, 24.439747706422025], [89.57208333333334, 24.44763888888889], [89.5680795836566, 24.44848816912335]], [[89.57432807807808, 24.438445945945944], [89.57569444444445, 24.436249999999998], [89.57986111111111, 24.43819444444444], [89.57432807807808, 24.438445945945944]], [[89.52273843382632, 24.410728574137273], [89.51152777777779, 24.41125], [89.51680555555556, 24.405694444444443], [89.51597222222223, 24.40986111111111], [89.52273843382632, 24.410728574137273]], [[89.55519897911233, 24.134368582740066], [89.57597222222222, 24.122916666666665], [89.57875, 24.129305555555554], [89.55819444444445, 24.135694444444443], [89.55519897911233, 24.134368582740066]], [[89.79152777777779, 24.054583333333333], [89.80152777777778, 24.06736111111111], [89.79597222222222, 24.077638888888888], [89.80875, 24.07986111111111], [89.80652777777777, 24.08736111111111], [89.79069444444444, 24.083194444444445], [89.79513888888889, 24.079583333333332], [89.78902777777778, 24.061527777777776], [89.79708333333333, 24.066527777777775], [89.78569444444445, 24.056527777777777], [89.79152777777779, 24.054583333333333]], [[89.78791666666667, 24.09847222222222], [89.79041666666667, 24.084027777777777], [89.79180555555556, 24.10458333333333], [89.78708333333334, 24.10486111111111], [89.78791666666667, 24.09847222222222]], [[89.74875, 24.309027777777775], [89.75902777777777, 24.305416666666666], [89.75763888888889, 24.299027777777777], [89.75197463768116, 24.30108750548968], [89.75319444444445, 24.303194444444443], [89.73430555555557, 24.303194444444443], [89.72958333333334, 24.296527777777776], [89.73486111111112, 24.302916666666665], [89.73680555555556, 24.297916666666666], [89.74458333333334, 24.302083333333332], [89.7501388888889, 24.297916666666666], [89.7518974820144, 24.30095423661071], [89.75569444444444, 24.297916666666666], [89.7539412568306, 24.29486111111111], [89.76125, 24.29486111111111], [89.75763888888889, 24.312638888888888], [89.74263888888889, 24.30986111111111], [89.74875, 24.309027777777775]], [[89.7551388888889, 24.181527777777777], [89.74958333333333, 24.180138888888887], [89.7551388888889, 24.17458333333333], [89.7551388888889, 24.181527777777777]], [[89.74402777777777, 24.199861111111108], [89.73847222222223, 24.19708333333333], [89.745678721174, 24.19992225716282], [89.74402777777777, 24.199861111111108]], [[89.74735484544695, 24.199984335839595], [89.74430555555556, 24.19236111111111], [89.75152777777778, 24.200138888888887], [89.74735484544695, 24.199984335839595]], [[89.74847222222222, 24.192083333333333], [89.75097222222223, 24.196527777777778], [89.74486111111112, 24.189027777777778], [89.74847222222222, 24.192083333333333]], [[89.7351388888889, 24.131527777777777], [89.73791666666666, 24.138749999999998], [89.73291666666667, 24.126805555555553], [89.7351388888889, 24.131527777777777]], [[89.72847222222222, 24.134305555555553], [89.73541666666667, 24.144305555555555], [89.72902777777779, 24.144305555555555], [89.72847222222222, 24.134305555555553]], [[89.72069444444445, 24.269027777777776], [89.72569444444444, 24.266527777777778], [89.72402777777778, 24.256527777777777], [89.72875, 24.25986111111111], [89.72652777777778, 24.24625], [89.7351388888889, 24.264027777777777], [89.73125, 24.281805555555554], [89.72523148148149, 24.27939814814815], [89.71736111111112, 24.271527777777777], [89.72069444444445, 24.269027777777776]], [[89.72319444444445, 24.116249999999997], [89.72763888888889, 24.12625], [89.71958333333333, 24.108472222222222], [89.72319444444445, 24.116249999999997]], [[89.7226388888889, 24.30486111111111], [89.72569444444444, 24.300694444444442], [89.72625000000001, 24.311805555555555], [89.7226388888889, 24.30486111111111]], [[89.71930555555556, 24.291805555555555], [89.72069444444445, 24.287916666666664], [89.72291666666666, 24.29958333333333], [89.71930555555556, 24.291805555555555]], [[89.72097222222223, 24.165138888888887], [89.71597222222222, 24.166249999999998], [89.72069444444445, 24.160138888888888], [89.72097222222223, 24.165138888888887]], [[89.71293839417035, 24.262243114052676], [89.71013888888889, 24.25597222222222], [89.71680555555555, 24.24625], [89.71375, 24.254583333333333], [89.72041666666667, 24.25236111111111], [89.71293839417035, 24.262243114052676]], [[89.71312792161093, 24.262667655519596], [89.71736111111112, 24.262916666666666], [89.71708333333333, 24.271527777777777], [89.71312792161093, 24.262667655519596]], [[89.71402777777779, 24.283472222222223], [89.71180555555556, 24.277083333333334], [89.71986111111111, 24.299305555555556], [89.71402777777779, 24.283472222222223]], [[89.71430555555555, 24.297638888888887], [89.71597222222222, 24.303472222222222], [89.71208333333334, 24.292638888888888], [89.71430555555555, 24.297638888888887]], [[89.71321078431373, 24.310465686274505], [89.71541666666667, 24.304583333333333], [89.71569444444445, 24.317916666666665], [89.71321078431373, 24.310465686274505]], [[89.70652777777778, 24.04513888888889], [89.71236111111111, 24.04736111111111], [89.71041666666667, 24.055694444444445], [89.70652777777778, 24.04513888888889]], [[89.68958333333333, 24.19763888888889], [89.69652777777777, 24.205972222222222], [89.68680555555555, 24.20236111111111], [89.68958333333333, 24.19763888888889]], [[89.67777571361171, 24.190102913422976], [89.6726388888889, 24.19097222222222], [89.67097222222222, 24.185972222222222], [89.67777571361171, 24.190102913422976]], [[89.67949700736649, 24.18981161755678], [89.69097222222223, 24.17625], [89.68819444444445, 24.17236111111111], [89.69375000000001, 24.17486111111111], [89.68569444444445, 24.184583333333332], [89.69069444444445, 24.187916666666666], [89.67949700736649, 24.18981161755678]], [[89.68402777777779, 24.16263888888889], [89.6876388888889, 24.168194444444442], [89.68263888888889, 24.16986111111111], [89.68402777777779, 24.16263888888889]], [[89.67736111111111, 24.174305555555556], [89.68263888888889, 24.178194444444443], [89.67652777777778, 24.178749999999997], [89.67736111111111, 24.174305555555556]], [[89.64486111111111, 24.16236111111111], [89.65125, 24.15986111111111], [89.65708333333333, 24.16875], [89.66069444444445, 24.160416666666666], [89.66152777777778, 24.170416666666664], [89.67486111111111, 24.166805555555555], [89.67791666666668, 24.171527777777776], [89.66097222222223, 24.172638888888887], [89.64486111111111, 24.16236111111111]], [[89.66625, 24.113194444444442], [89.66708333333334, 24.12236111111111], [89.66319444444444, 24.12097222222222], [89.67625, 24.152638888888887], [89.65013888888889, 24.13097222222222], [89.66736111111112, 24.13847222222222], [89.66041666666666, 24.119305555555552], [89.66625, 24.113194444444442]], [[89.66513888888889, 24.102083333333333], [89.66069444444445, 24.09819444444444], [89.67236111111112, 24.102083333333333], [89.66513888888889, 24.102083333333333]], [[89.65986111111111, 24.274305555555554], [89.66319444444444, 24.267916666666665], [89.67236111111112, 24.27208333333333], [89.65930555555556, 24.281527777777775], [89.65986111111111, 24.274305555555554]], [[89.66402777777778, 24.29958333333333], [89.67208333333333, 24.29986111111111], [89.67125, 24.311249999999998], [89.66402777777778, 24.29958333333333]], [[89.66458333333334, 24.23597222222222], [89.65875, 24.234305555555554], [89.67069444444445, 24.22847222222222], [89.66458333333334, 24.23597222222222]], [[89.66347222222223, 24.285138888888888], [89.66986111111112, 24.28458333333333], [89.66708333333334, 24.294583333333332], [89.66347222222223, 24.285138888888888]], [[89.65125, 24.200138888888887], [89.65791666666667, 24.189027777777778], [89.66708333333334, 24.186805555555555], [89.66319444444444, 24.192638888888887], [89.66875, 24.193749999999998], [89.65930555555556, 24.192916666666665], [89.64930555555556, 24.211805555555554], [89.65125, 24.200138888888887]], [[89.65263888888889, 24.185972222222222], [89.66513888888889, 24.185416666666665], [89.64680555555556, 24.187083333333334], [89.65263888888889, 24.185972222222222]], [[89.65986111111111, 24.296527777777776], [89.6601388888889, 24.29208333333333], [89.66152777777778, 24.29986111111111], [89.65180555555555, 24.294305555555553], [89.65986111111111, 24.296527777777776]], [[89.65069444444444, 24.150694444444444], [89.65847222222223, 24.151527777777776], [89.65013888888889, 24.15458333333333], [89.64708333333334, 24.147916666666664], [89.65069444444444, 24.150694444444444]], [[89.65819444444445, 24.092916666666664], [89.65069444444444, 24.09958333333333], [89.65180555555555, 24.093194444444443], [89.65819444444445, 24.092916666666664]], [[89.65263888888889, 24.215138888888887], [89.65430555555555, 24.21125], [89.65597222222223, 24.21763888888889], [89.65263888888889, 24.215138888888887]], [[89.65208333333334, 24.311527777777776], [89.65541666666667, 24.30597222222222], [89.65291666666667, 24.32069444444444], [89.65208333333334, 24.311527777777776]], [[89.65430555555555, 24.275694444444444], [89.65458333333333, 24.280694444444443], [89.64875, 24.27263888888889], [89.65430555555555, 24.275694444444444]], [[89.64930555555556, 24.28097222222222], [89.64680555555556, 24.276805555555555], [89.65347222222222, 24.284305555555555], [89.64930555555556, 24.28097222222222]], [[89.63680555555555, 24.15986111111111], [89.6451388888889, 24.150416666666665], [89.65291666666667, 24.158194444444444], [89.64236111111111, 24.15458333333333], [89.63652777777779, 24.16263888888889], [89.64652777777778, 24.165694444444444], [89.60847222222222, 24.17236111111111], [89.60513888888889, 24.164305555555554], [89.60958333333333, 24.16736111111111], [89.61291666666666, 24.158472222222223], [89.61236111111111, 24.16597222222222], [89.61597222222223, 24.16069444444444], [89.63513888888889, 24.164583333333333], [89.63236111111111, 24.157916666666665], [89.63680555555555, 24.15986111111111]], [[89.64180555555556, 24.298194444444444], [89.6451388888889, 24.303749999999997], [89.64680555555556, 24.28847222222222], [89.65013888888889, 24.29097222222222], [89.65263888888889, 24.297083333333333], [89.64486111111111, 24.310138888888886], [89.64847222222222, 24.316805555555554], [89.65097222222222, 24.312916666666666], [89.65180555555555, 24.329583333333332], [89.64763888888889, 24.32069444444444], [89.64125, 24.321527777777778], [89.64458333333333, 24.311249999999998], [89.63208333333334, 24.31625], [89.63763888888889, 24.305416666666666], [89.64013888888888, 24.310972222222222], [89.64402777777778, 24.30708333333333], [89.63625, 24.296805555555554], [89.64180555555556, 24.298194444444444]], [[89.64819444444444, 24.339027777777776], [89.65263888888889, 24.340694444444445], [89.64791666666667, 24.349027777777778], [89.64819444444444, 24.339027777777776]], [[89.64736111111111, 24.192638888888887], [89.65180555555555, 24.195138888888888], [89.64541666666666, 24.198194444444443], [89.64736111111111, 24.192638888888887]], [[89.6451388888889, 24.263194444444444], [89.64986111111111, 24.262083333333333], [89.64736111111111, 24.271527777777777], [89.64152777777778, 24.267638888888886], [89.6451388888889, 24.263194444444444]], [[89.63263888888889, 24.185138888888886], [89.64208333333333, 24.17625], [89.64986111111111, 24.177083333333332], [89.63625, 24.186249999999998], [89.64208333333333, 24.19486111111111], [89.63263888888889, 24.185138888888886]], [[89.64291666666666, 24.227083333333333], [89.64597222222223, 24.222916666666666], [89.64819444444444, 24.233749999999997], [89.64291666666666, 24.227083333333333]], [[89.63986111111112, 24.278194444444445], [89.6451388888889, 24.293194444444442], [89.63708333333334, 24.284027777777776], [89.63986111111112, 24.278194444444445]], [[89.64291666666666, 24.141805555555553], [89.64430555555556, 24.137361111111108], [89.64486111111111, 24.149305555555554], [89.63458333333334, 24.14486111111111], [89.64291666666666, 24.141805555555553]], [[89.63791666666667, 24.117083333333333], [89.64430555555556, 24.120694444444442], [89.6426388888889, 24.126805555555553], [89.63791666666667, 24.117083333333333]], [[89.61142463666198, 24.330900726676045], [89.59930555555556, 24.324583333333333], [89.60652777777779, 24.314305555555553], [89.61458333333334, 24.319027777777777], [89.6151388888889, 24.326527777777777], [89.62041666666667, 24.31958333333333], [89.62291666666667, 24.32708333333333], [89.6301388888889, 24.31625], [89.63319444444444, 24.324583333333333], [89.6251388888889, 24.329305555555553], [89.63569444444445, 24.33458333333333], [89.63763888888889, 24.325694444444444], [89.64430555555556, 24.33513888888889], [89.63513888888889, 24.339027777777776], [89.62791666666666, 24.333194444444445], [89.62541666666667, 24.338194444444444], [89.61183552513867, 24.3311149132224], [89.61508819951338, 24.32851277372263], [89.61291666666666, 24.327916666666667], [89.61142463666198, 24.330900726676045]], [[89.63180555555556, 24.241249999999997], [89.63958333333333, 24.24597222222222], [89.63597222222222, 24.252916666666664], [89.63180555555556, 24.241249999999997]], [[89.62986111111111, 24.200138888888887], [89.62902777777778, 24.194305555555555], [89.63791666666667, 24.203194444444442], [89.62986111111111, 24.200138888888887]], [[89.63236111111111, 24.105416666666667], [89.63708333333334, 24.11125], [89.63069444444444, 24.110416666666666], [89.63236111111111, 24.105416666666667]], [[89.58902777777779, 24.350416666666664], [89.58513888888889, 24.358472222222222], [89.61125, 24.367638888888887], [89.62041666666667, 24.354305555555555], [89.60745653095844, 24.344315450947136], [89.61236111111111, 24.34958333333333], [89.60902777777778, 24.353749999999998], [89.59625, 24.349305555555553], [89.60375, 24.347638888888888], [89.59875000000001, 24.337916666666665], [89.60366271820449, 24.33409566361873], [89.61958333333334, 24.336805555555554], [89.61541666666668, 24.34125], [89.62625, 24.34208333333333], [89.63069444444444, 24.352638888888887], [89.62625, 24.358749999999997], [89.63263888888889, 24.36125], [89.62458333333333, 24.36486111111111], [89.62375, 24.35013888888889], [89.61375, 24.34097222222222], [89.60486111111112, 24.341527777777777], [89.60725122100122, 24.344094932844932], [89.61958333333334, 24.349027777777778], [89.62291666666667, 24.360138888888887], [89.61291666666666, 24.374583333333334], [89.60986111111112, 24.393472222222222], [89.60236111111111, 24.395138888888887], [89.60930555555557, 24.39097222222222], [89.60902777777778, 24.37236111111111], [89.58347222222223, 24.360416666666666], [89.58902777777779, 24.350416666666664]], [[89.60288934426232, 24.33396402550091], [89.58875, 24.332916666666666], [89.59347222222223, 24.33236111111111], [89.60288934426232, 24.33396402550091]], [[89.62208333333334, 24.312638888888888], [89.62013888888889, 24.305416666666666], [89.62597222222223, 24.302638888888886], [89.62791666666666, 24.310416666666665], [89.63236111111111, 24.30597222222222], [89.62430555555555, 24.318194444444444], [89.62208333333334, 24.312638888888888]], [[89.62569444444445, 24.259305555555553], [89.62180555555555, 24.247083333333332], [89.63125000000001, 24.260416666666664], [89.62930555555556, 24.268194444444443], [89.62569444444445, 24.259305555555553]], [[89.62736111111111, 24.290416666666665], [89.63041666666668, 24.28625], [89.62569444444445, 24.30236111111111], [89.62736111111111, 24.290416666666665]], [[89.62097222222222, 24.18208333333333], [89.62680555555556, 24.184027777777775], [89.61430555555556, 24.18208333333333], [89.62097222222222, 24.18208333333333]], [[89.6151388888889, 24.297916666666666], [89.61236111111111, 24.291805555555555], [89.62125, 24.286805555555553], [89.62069444444445, 24.304027777777776], [89.6151388888889, 24.297916666666666]], [[89.61180555555556, 24.211805555555554], [89.61958333333334, 24.224305555555553], [89.60680555555555, 24.216527777777777], [89.6126388888889, 24.217916666666664], [89.61180555555556, 24.211805555555554]], [[89.61236111111111, 24.301527777777775], [89.61069444444445, 24.311805555555555], [89.61736111111111, 24.309583333333332], [89.61930555555556, 24.31458333333333], [89.61347222222223, 24.317916666666665], [89.60875, 24.312916666666666], [89.61236111111111, 24.301527777777775]], [[89.61291666666666, 24.15236111111111], [89.61819444444444, 24.150138888888886], [89.61208333333333, 24.158472222222223], [89.61291666666666, 24.15236111111111]], [[89.61430555555556, 24.276805555555555], [89.61125, 24.28013888888889], [89.61763888888889, 24.27236111111111], [89.61430555555556, 24.276805555555555]], [[89.59541666666667, 24.286805555555553], [89.60097222222223, 24.281527777777775], [89.60013888888889, 24.286805555555553], [89.61180555555556, 24.291527777777777], [89.60097222222223, 24.288194444444443], [89.59791666666666, 24.292916666666667], [89.60125000000001, 24.302916666666665], [89.60958333333333, 24.299027777777777], [89.60819444444445, 24.30597222222222], [89.60152777777778, 24.304027777777776], [89.60847222222222, 24.31236111111111], [89.59458333333333, 24.29958333333333], [89.5951388888889, 24.289583333333333], [89.59013888888889, 24.28763888888889], [89.59541666666667, 24.286805555555553]], [[89.60291666666667, 24.25486111111111], [89.6101388888889, 24.254027777777775], [89.60847222222222, 24.26125], [89.60069444444444, 24.259305555555553], [89.60291666666667, 24.25486111111111]], [[89.60319444444444, 24.14125], [89.60986111111112, 24.144027777777776], [89.60736111111112, 24.154027777777777], [89.60319444444444, 24.14125]], [[89.60597222222222, 24.267638888888886], [89.60930555555557, 24.270694444444445], [89.60097222222223, 24.277916666666666], [89.60958333333333, 24.28097222222222], [89.60458333333334, 24.285416666666666], [89.59847222222223, 24.275972222222222], [89.60597222222222, 24.267638888888886]], [[89.60891541038526, 24.244558905639305], [89.60958333333333, 24.246805555555554], [89.60263888888889, 24.243194444444445], [89.60891541038526, 24.244558905639305]], [[89.60236111111111, 24.22958333333333], [89.60347222222222, 24.225416666666664], [89.60902777777778, 24.231805555555553], [89.60236111111111, 24.22958333333333]], [[89.60097222222223, 24.15597222222222], [89.60763888888889, 24.156805555555554], [89.60402777777779, 24.164583333333333], [89.60097222222223, 24.15597222222222]], [[89.60597222222222, 24.375138888888888], [89.60652777777779, 24.386805555555554], [89.60180555555556, 24.372083333333332], [89.60597222222222, 24.375138888888888]], [[89.56708333333333, 24.222916666666666], [89.57069444444444, 24.219305555555554], [89.56097222222222, 24.215694444444445], [89.56791666666668, 24.216527777777777], [89.56736111111111, 24.211805555555554], [89.57319444444445, 24.219583333333333], [89.5826388888889, 24.20875], [89.57847222222223, 24.200416666666666], [89.58375000000001, 24.20097222222222], [89.58347222222223, 24.207638888888887], [89.58902777777779, 24.202638888888888], [89.5826388888889, 24.195138888888888], [89.59180555555555, 24.196805555555553], [89.59708333333333, 24.18958333333333], [89.59097222222222, 24.18847222222222], [89.59152777777778, 24.178472222222222], [89.57708333333333, 24.16986111111111], [89.58319444444444, 24.169583333333332], [89.58069444444445, 24.160138888888888], [89.59041666666667, 24.16125], [89.58486111111111, 24.170416666666664], [89.59402777777778, 24.170694444444443], [89.58763888888889, 24.167916666666667], [89.59319444444445, 24.16375], [89.59736111111111, 24.172638888888887], [89.60041666666667, 24.166249999999998], [89.60597222222222, 24.173194444444444], [89.59736111111111, 24.195138888888888], [89.60375, 24.203194444444442], [89.60152777777778, 24.220972222222223], [89.58791666666667, 24.22236111111111], [89.58540196942975, 24.22517416225749], [89.58486111111111, 24.21625], [89.59680555555556, 24.220972222222223], [89.59319444444445, 24.216527777777777], [89.59902777777778, 24.20347222222222], [89.59208333333333, 24.196527777777778], [89.59013888888889, 24.20236111111111], [89.57819444444445, 24.214027777777776], [89.57625, 24.225694444444443], [89.5851787399717, 24.225423876566513], [89.57152777777777, 24.240694444444443], [89.57347222222222, 24.23097222222222], [89.56319444444445, 24.227083333333333], [89.56708333333333, 24.222916666666666]], [[89.5976388888889, 24.341527777777777], [89.58736111111111, 24.34736111111111], [89.58763888888889, 24.34208333333333], [89.5976388888889, 24.341527777777777]], [[89.58875, 24.11986111111111], [89.59680555555556, 24.105138888888888], [89.58763888888889, 24.127916666666664], [89.57958333333333, 24.130416666666665], [89.58875, 24.11986111111111]], [[89.58597222222222, 24.27958333333333], [89.58902777777779, 24.286805555555553], [89.58291666666666, 24.282916666666665], [89.58791666666667, 24.272916666666664], [89.57902777777778, 24.25208333333333], [89.58041666666666, 24.237916666666667], [89.58041666666666, 24.24736111111111], [89.58930555555555, 24.248194444444444], [89.58347222222223, 24.25208333333333], [89.58375000000001, 24.262638888888887], [89.59180555555555, 24.262916666666666], [89.59291666666667, 24.268472222222222], [89.58847222222222, 24.26458333333333], [89.58652777777777, 24.268749999999997], [89.59625, 24.274583333333332], [89.58986111111112, 24.276527777777776], [89.59208333333333, 24.281805555555554], [89.58597222222222, 24.27958333333333]], [[89.59541666666667, 24.319305555555555], [89.59208333333333, 24.326249999999998], [89.59263888888889, 24.308194444444442], [89.59541666666667, 24.319305555555555]], [[89.59291666666667, 24.24458333333333], [89.5951388888889, 24.248194444444444], [89.58680555555556, 24.24458333333333], [89.59291666666667, 24.24458333333333]], [[89.59152777777778, 24.137083333333333], [89.58652777777777, 24.137361111111108], [89.59152777777778, 24.138194444444444], [89.58541666666667, 24.159305555555555], [89.57930555555556, 24.14625], [89.58986111111112, 24.141527777777778], [89.58152777777778, 24.13486111111111], [89.59069444444445, 24.131805555555555], [89.59152777777778, 24.137083333333333]], [[89.58208333333333, 24.33513888888889], [89.57736111111112, 24.33597222222222], [89.58541666666667, 24.327916666666667], [89.58208333333333, 24.33513888888889]], [[89.57736111111112, 24.18263888888889], [89.57430555555555, 24.195416666666667], [89.5826388888889, 24.199583333333333], [89.56986111111111, 24.195416666666667], [89.5723611111111, 24.18736111111111], [89.56347222222223, 24.184027777777775], [89.56430555555556, 24.179583333333333], [89.57736111111112, 24.18263888888889]], [[89.58208333333333, 24.18263888888889], [89.58069444444445, 24.191527777777775], [89.57763888888888, 24.18486111111111], [89.58208333333333, 24.18263888888889]], [[89.56569444444445, 24.15347222222222], [89.5723611111111, 24.159027777777776], [89.56291666666667, 24.15986111111111], [89.56569444444445, 24.15347222222222]], [[89.56402777777778, 24.372083333333332], [89.56736111111111, 24.36875], [89.56208333333333, 24.37847222222222], [89.56402777777778, 24.372083333333332]], [[89.56180555555555, 24.203194444444442], [89.56458333333333, 24.207916666666666], [89.55819444444445, 24.200416666666666], [89.56180555555555, 24.203194444444442]], [[89.56430555555556, 24.339583333333334], [89.56236111111112, 24.34847222222222], [89.55763888888889, 24.337083333333332], [89.56208333333333, 24.33347222222222], [89.56430555555556, 24.339583333333334]], [[89.55291666666668, 24.255694444444444], [89.54847222222223, 24.25263888888889], [89.55652777777777, 24.25097222222222], [89.55291666666668, 24.255694444444444]], [[89.54486111111112, 24.201249999999998], [89.54847222222223, 24.19847222222222], [89.55236111111111, 24.205138888888886], [89.54486111111112, 24.201249999999998]], [[89.54819444444445, 24.28875], [89.53791666666667, 24.27986111111111], [89.54736111111112, 24.277638888888887], [89.54819444444445, 24.28875]], [[89.53847222222223, 24.329583333333332], [89.54791666666667, 24.33458333333333], [89.53541666666666, 24.335416666666664], [89.53847222222223, 24.329583333333332]], [[89.54458333333334, 24.346249999999998], [89.53847222222223, 24.34986111111111], [89.53763888888889, 24.34375], [89.54458333333334, 24.346249999999998]], [[89.53736111111111, 24.25736111111111], [89.53736111111111, 24.249027777777776], [89.52791666666667, 24.247916666666665], [89.53041666666667, 24.24375], [89.53652777777778, 24.247916666666665], [89.53541666666666, 24.240694444444443], [89.54347222222222, 24.257916666666667], [89.52680555555555, 24.257916666666667], [89.53736111111111, 24.25736111111111]], [[89.53902777777778, 24.32708333333333], [89.53402777777778, 24.324861111111108], [89.54069444444444, 24.32236111111111], [89.53902777777778, 24.32708333333333]], [[89.53208333333333, 24.336527777777775], [89.52347222222222, 24.331527777777776], [89.53680555555556, 24.336805555555554], [89.53097222222223, 24.345416666666665], [89.52569444444444, 24.34208333333333], [89.53208333333333, 24.336527777777775]], [[89.52708333333334, 24.374305555555555], [89.52347222222222, 24.36263888888889], [89.52902777777778, 24.36375], [89.53347222222223, 24.377916666666664], [89.52708333333334, 24.374305555555555]], [[89.52375, 24.356527777777778], [89.52291666666667, 24.34986111111111], [89.53125, 24.35347222222222], [89.51902777777778, 24.358472222222222], [89.52375, 24.356527777777778]], [[89.52541666666667, 24.316527777777775], [89.51986111111111, 24.310694444444444], [89.52930555555555, 24.312916666666666], [89.52541666666667, 24.316527777777775]], [[89.51680555555556, 24.239027777777775], [89.51347222222222, 24.23486111111111], [89.52930555555555, 24.244305555555552], [89.51680555555556, 24.239027777777775]], [[89.51708333333333, 24.326527777777777], [89.51902777777778, 24.320416666666667], [89.52152777777778, 24.327638888888888], [89.51708333333333, 24.326527777777777]], [[89.51013821303054, 24.35803674416509], [89.51791666666666, 24.355138888888888], [89.51819444444445, 24.361527777777777], [89.51013821303054, 24.35803674416509]], [[89.50902777777777, 24.29375], [89.51375, 24.291249999999998], [89.51736111111111, 24.30236111111111], [89.50902777777777, 24.29375]], [[89.50625000000001, 24.38375], [89.51680555555556, 24.380138888888887], [89.51569444444445, 24.386527777777776], [89.50625000000001, 24.38375]], [[89.51680555555556, 24.349027777777778], [89.50930555555556, 24.35125], [89.51013888888889, 24.345138888888886], [89.51680555555556, 24.349027777777778]], [[89.50652777777778, 24.39625], [89.51541666666667, 24.387083333333333], [89.51041666666667, 24.394305555555555], [89.51569444444445, 24.400972222222222], [89.50652777777778, 24.39625]], [[89.50625000000001, 24.276249999999997], [89.51013888888889, 24.281805555555554], [89.5001388888889, 24.267916666666665], [89.50625000000001, 24.276249999999997]], [[89.49402777777777, 24.354305555555555], [89.48013888888889, 24.345694444444444], [89.48013888888889, 24.33986111111111], [89.49180555555556, 24.352083333333333], [89.49772540983608, 24.35018897996357], [89.49180555555556, 24.34486111111111], [89.49763888888889, 24.341527777777777], [89.4966482597055, 24.33781291834002], [89.49513888888889, 24.339027777777776], [89.49791666666667, 24.333194444444445], [89.49236111111111, 24.330138888888886], [89.49819444444445, 24.329583333333332], [89.49041666666668, 24.32875], [89.49763888888889, 24.32125], [89.49291666666667, 24.317083333333333], [89.49986111111112, 24.31597222222222], [89.50791666666667, 24.31597222222222], [89.49875, 24.32375], [89.50652777777778, 24.32986111111111], [89.49678953250391, 24.337699210965688], [89.50319444444445, 24.345972222222223], [89.5001388888889, 24.352361111111108], [89.49860408560312, 24.350979788153904], [89.49791666666667, 24.35625], [89.49402777777777, 24.354305555555555]], [[89.50402777777778, 24.390138888888888], [89.50180555555556, 24.395416666666666], [89.49791666666667, 24.392638888888886], [89.50402777777778, 24.390138888888888]], [[89.49930555555555, 24.265694444444442], [89.50097222222223, 24.284027777777776], [89.49375, 24.263194444444444], [89.50041666666667, 24.257916666666667], [89.49930555555555, 24.265694444444442]], [[89.49791666666667, 24.30847222222222], [89.47791666666667, 24.302083333333332], [89.47791666666667, 24.294583333333332], [89.49791666666667, 24.30847222222222]], [[89.49263888888889, 24.31847222222222], [89.48986111111111, 24.32263888888889], [89.48541666666667, 24.315694444444443], [89.48819444444445, 24.30986111111111], [89.49736111111112, 24.312638888888888], [89.48847222222223, 24.31513888888889], [89.49263888888889, 24.31847222222222]], [[89.49708333333334, 24.41347222222222], [89.48291666666667, 24.420972222222222], [89.49069444444444, 24.41208333333333], [89.49708333333334, 24.41347222222222]], [[89.48069444444445, 24.331805555555555], [89.47847222222222, 24.342916666666664], [89.47291666666666, 24.339305555555555], [89.48069444444445, 24.331805555555555]], [[89.46875, 24.34486111111111], [89.47513888888889, 24.346805555555555], [89.47180555555556, 24.354305555555555], [89.46875, 24.34486111111111]], [[89.47180555555556, 24.339583333333334], [89.47208333333333, 24.344583333333333], [89.46652777777778, 24.34236111111111], [89.46319444444444, 24.33236111111111], [89.47180555555556, 24.339583333333334]], [[89.46069444444444, 24.35736111111111], [89.45236111111112, 24.353749999999998], [89.46513888888889, 24.351805555555554], [89.46486111111112, 24.361527777777777], [89.47097222222223, 24.363194444444442], [89.45930555555556, 24.362916666666667], [89.45597222222223, 24.37125], [89.45236111111112, 24.359583333333333], [89.46458333333334, 24.35986111111111], [89.46069444444444, 24.35736111111111]], [[89.44513888888889, 24.401527777777776], [89.44930555555555, 24.39097222222222], [89.44958333333334, 24.406527777777775], [89.44458333333334, 24.40736111111111], [89.44513888888889, 24.401527777777776]], [[89.43180555555556, 24.382916666666667], [89.4376388888889, 24.373472222222222], [89.43541666666667, 24.38208333333333], [89.44069444444445, 24.38458333333333], [89.43513888888889, 24.382638888888888], [89.43180555555556, 24.389027777777777], [89.43180555555556, 24.382916666666667]], [[89.43458333333334, 24.411805555555553], [89.43569444444445, 24.404305555555553], [89.4251388888889, 24.394305555555555], [89.43930555555556, 24.400694444444444], [89.43513888888889, 24.41708333333333], [89.43458333333334, 24.411805555555553]], [[89.42148414776034, 24.401211148508267], [89.41875, 24.40375], [89.41180555555556, 24.398194444444442], [89.42148414776034, 24.401211148508267]], [[89.42304556784812, 24.40169782489927], [89.43319444444445, 24.40486111111111], [89.42430555555556, 24.406527777777775], [89.42304556784812, 24.40169782489927]], [[89.4226388888889, 24.393472222222222], [89.41263888888889, 24.391527777777778], [89.43097222222222, 24.390138888888888], [89.4226388888889, 24.393472222222222]], [[89.40013888888889, 24.344583333333333], [89.41722088799366, 24.350627733016562], [89.41708333333334, 24.34375], [89.42291666666667, 24.34263888888889], [89.41180555555556, 24.339027777777776], [89.41847222222222, 24.33236111111111], [89.41652777777779, 24.339027777777776], [89.43041666666667, 24.34097222222222], [89.42097222222222, 24.344583333333333], [89.42930555555556, 24.346249999999998], [89.42097222222222, 24.361805555555556], [89.41736111111112, 24.35763888888889], [89.41722571665483, 24.35086916607439], [89.40513888888889, 24.34958333333333], [89.39736111111111, 24.355416666666667], [89.40013888888889, 24.344583333333333]], [[89.39652777777778, 24.37625], [89.41236111111111, 24.379305555555554], [89.41763888888889, 24.372638888888886], [89.41736111111112, 24.379305555555554], [89.42847222222223, 24.381805555555555], [89.41125000000001, 24.38958333333333], [89.40486111111112, 24.38097222222222], [89.41152777777778, 24.38458333333333], [89.41541666666667, 24.380138888888887], [89.39069444444445, 24.375416666666666], [89.39652777777778, 24.37625]], [[89.41263888888889, 24.410138888888888], [89.40041666666667, 24.41097222222222], [89.39625000000001, 24.405694444444443], [89.41902777777779, 24.408749999999998], [89.41263888888889, 24.410138888888888]], [[89.41263888888889, 24.374027777777776], [89.41569444444444, 24.36986111111111], [89.40708333333333, 24.364583333333332], [89.41263888888889, 24.361805555555556], [89.41736111111112, 24.367916666666666], [89.41263888888889, 24.374027777777776]], [[89.41375000000001, 24.45736111111111], [89.41180555555556, 24.46236111111111], [89.40736111111111, 24.45958333333333], [89.41375000000001, 24.45736111111111]], [[89.40180555555555, 24.45208333333333], [89.40875, 24.450138888888887], [89.41347222222223, 24.457083333333333], [89.40180555555555, 24.45208333333333]], [[89.40625, 24.392638888888886], [89.40319444444445, 24.389305555555556], [89.4101388888889, 24.390694444444442], [89.41069444444445, 24.400694444444444], [89.40208333333334, 24.40458333333333], [89.40625, 24.392638888888886]], [[89.40263888888889, 24.46763888888889], [89.40569444444445, 24.46486111111111], [89.40736111111111, 24.471249999999998], [89.40263888888889, 24.46763888888889]], [[89.40097222222222, 24.36347222222222], [89.39541666666666, 24.36125], [89.39902777777777, 24.356527777777778], [89.40097222222222, 24.36347222222222]], [[89.39902777777777, 24.41597222222222], [89.39180555555556, 24.42513888888889], [89.38986111111112, 24.415138888888887], [89.37958333333333, 24.411805555555553], [89.39458333333333, 24.408472222222223], [89.39013888888888, 24.415694444444444], [89.39902777777777, 24.41597222222222]], [[89.39236111111111, 24.48125], [89.38680555555555, 24.479305555555555], [89.3926388888889, 24.468194444444443], [89.39847222222222, 24.477916666666665], [89.39236111111111, 24.48125]], [[89.38375, 24.350416666666664], [89.37930555555556, 24.344305555555554], [89.39763888888889, 24.33986111111111], [89.39847222222222, 24.347638888888888], [89.39236111111111, 24.34208333333333], [89.38708333333334, 24.35736111111111], [89.38375, 24.350416666666664]], [[89.38236111111111, 24.400138888888886], [89.37791666666666, 24.387361111111108], [89.38513888888889, 24.392638888888886], [89.37875, 24.379027777777775], [89.38236111111111, 24.372083333333332], [89.38791666666667, 24.375416666666666], [89.38263888888889, 24.380694444444444], [89.38958333333333, 24.400138888888886], [89.39736111111111, 24.404305555555553], [89.38236111111111, 24.400138888888886]], [[89.38958333333333, 24.44875], [89.39152777777778, 24.443194444444444], [89.38930555555555, 24.455694444444443], [89.38958333333333, 24.44875]], [[89.38597222222222, 24.35986111111111], [89.39097222222223, 24.359583333333333], [89.38875, 24.364027777777775], [89.38597222222222, 24.35986111111111]], [[89.38138110241924, 24.435620201361726], [89.36402777777778, 24.434305555555554], [89.3651388888889, 24.420416666666664], [89.37736111111111, 24.42597222222222], [89.38138110241924, 24.435620201361726]], [[89.38183716707022, 24.436714756524072], [89.38430555555556, 24.442638888888887], [89.37708333333333, 24.44597222222222], [89.38183716707022, 24.436714756524072]], [[89.37958333333333, 24.484305555555554], [89.37458333333333, 24.485416666666666], [89.37486111111112, 24.47958333333333], [89.37958333333333, 24.484305555555554]], [[89.37430555555555, 24.474027777777778], [89.37958333333333, 24.469583333333333], [89.37902777777778, 24.475694444444443], [89.37430555555555, 24.474027777777778]], [[89.36875, 24.379583333333333], [89.36347222222223, 24.382638888888888], [89.36041666666667, 24.37736111111111], [89.37180555555555, 24.373194444444444], [89.37847222222223, 24.378194444444443], [89.36875, 24.379583333333333]], [[89.37680555555556, 24.35486111111111], [89.37180555555555, 24.353194444444444], [89.37708333333333, 24.349027777777778], [89.37680555555556, 24.35486111111111]], [[89.37541666666667, 24.459027777777777], [89.36986111111112, 24.45986111111111], [89.3751388888889, 24.454305555555553], [89.37541666666667, 24.459027777777777]], [[89.36791666666667, 24.389027777777777], [89.37125, 24.399583333333332], [89.36458333333334, 24.39763888888889], [89.36347222222223, 24.387361111111108], [89.36791666666667, 24.389027777777777]], [[89.36125, 24.362916666666667], [89.37041666666667, 24.369027777777777], [89.36291666666666, 24.369305555555552], [89.36125, 24.362916666666667]], [[89.36625000000001, 24.36263888888889], [89.36791666666667, 24.366527777777776], [89.36319444444445, 24.359305555555554], [89.36625000000001, 24.36263888888889]], [[89.35958333333333, 24.455416666666665], [89.36402777777778, 24.45236111111111], [89.36430555555556, 24.45958333333333], [89.35958333333333, 24.455416666666665]], [[89.35625, 24.47597222222222], [89.34986111111111, 24.47375], [89.35763888888889, 24.469583333333333], [89.35680555555555, 24.477083333333333], [89.36180555555556, 24.47513888888889], [89.35430555555556, 24.483194444444443], [89.35625, 24.47597222222222]], [[89.34736111111111, 24.435416666666665], [89.35347222222222, 24.437083333333334], [89.35041666666667, 24.44236111111111], [89.34263888888889, 24.439027777777778], [89.34736111111111, 24.435416666666665]], [[89.34902777777778, 24.358472222222222], [89.34236111111112, 24.362916666666667], [89.34236111111112, 24.357083333333332], [89.35152777777778, 24.353749999999998], [89.34902777777778, 24.358472222222222]], [[89.34541666666667, 24.410138888888888], [89.35013888888889, 24.408472222222223], [89.34791666666666, 24.414583333333333], [89.34152777777778, 24.412916666666664], [89.34541666666667, 24.410138888888888]], [[89.33402777777778, 24.480416666666667], [89.32819444444445, 24.480694444444442], [89.32930555555556, 24.474027777777778], [89.33402777777778, 24.480416666666667]], [[89.32625, 24.486805555555556], [89.32958333333333, 24.494027777777777], [89.32097222222222, 24.496527777777775], [89.32625, 24.486805555555556]], [[89.32597222222222, 24.42986111111111], [89.32902777777778, 24.43347222222222], [89.32069444444444, 24.43208333333333], [89.32597222222222, 24.42986111111111]], [[89.32291666666667, 24.38097222222222], [89.31958333333334, 24.374583333333334], [89.3240188172043, 24.378033154121862], [89.32291666666667, 24.38097222222222]], [[89.32402777777779, 24.461527777777775], [89.31736111111111, 24.46013888888889], [89.32013888888889, 24.456527777777776], [89.32402777777779, 24.461527777777775]], [[89.29152777777779, 24.468194444444443], [89.30208333333334, 24.477916666666665], [89.28541666666666, 24.471249999999998], [89.28680555555556, 24.46486111111111], [89.29152777777779, 24.468194444444443]]], [[[89.80447769953052, 24.102290688575895], [89.79430555555555, 24.114027777777775], [89.79958333333333, 24.116249999999997], [89.80291666666668, 24.109027777777776], [89.80291666666668, 24.118194444444445], [89.81041666666667, 24.106805555555553], [89.80546324172714, 24.12191350162112], [89.81569444444445, 24.119027777777777], [89.81819444444444, 24.10486111111111], [89.80906919593549, 24.102072840733374], [89.81041666666667, 24.10625], [89.80447769953052, 24.102290688575895]]], [[[89.80525636802811, 24.12254446640316], [89.80486111111111, 24.123749999999998], [89.80125, 24.120416666666664], [89.8045465415747, 24.1311304267844], [89.81152777777778, 24.12986111111111], [89.80525636802811, 24.12254446640316]]], [[[89.67631200846945, 24.270503377697118], [89.68263888888889, 24.277083333333334], [89.68597222222222, 24.27236111111111], [89.67631200846945, 24.270503377697118]]], [[[89.60458333333334, 24.43625], [89.61402777777778, 24.440694444444443], [89.6126388888889, 24.47458333333333], [89.61708333333334, 24.477638888888887], [89.61125, 24.489305555555553], [89.61930087719298, 24.489099122807016], [89.61569444444444, 24.482916666666664], [89.61701421491915, 24.4811169796557], [89.61899410774411, 24.47458333333333], [89.61375, 24.47458333333333], [89.6151388888889, 24.45236111111111], [89.61819444444444, 24.46013888888889], [89.62597222222223, 24.454027777777778], [89.65180555555555, 24.467916666666664], [89.65041666666667, 24.461805555555554], [89.62958333333333, 24.45347222222222], [89.63763888888889, 24.455972222222222], [89.63041666666668, 24.45236111111111], [89.63819444444445, 24.450694444444444], [89.64175838574424, 24.45359014675052], [89.64347222222223, 24.449305555555554], [89.61986111111112, 24.45208333333333], [89.61902777777777, 24.446527777777778], [89.62902777777778, 24.449027777777776], [89.61291666666666, 24.436805555555555], [89.60458333333334, 24.43625]]], [[[89.56033569776146, 24.453943917125947], [89.5526388888889, 24.44597222222222], [89.54708333333333, 24.448194444444443], [89.54152777777779, 24.47236111111111], [89.52569444444444, 24.47847222222222], [89.53319444444445, 24.485694444444444], [89.53125, 24.494027777777777], [89.51375, 24.487916666666667], [89.51402777777778, 24.503194444444443], [89.52513888888889, 24.51125], [89.51597222222223, 24.520138888888887], [89.53209381551362, 24.52618448637316], [89.52069444444444, 24.519305555555555], [89.52708333333334, 24.510694444444443], [89.51486111111112, 24.50125], [89.51486111111112, 24.48875], [89.53236111111111, 24.49458333333333], [89.53430555555556, 24.485416666666666], [89.52680555555555, 24.479027777777777], [89.54375, 24.471527777777776], [89.54875, 24.44875], [89.55986111111112, 24.456527777777776], [89.56033569776146, 24.453943917125947]]], [[[89.5350345522425, 24.527959068881966], [89.52458333333334, 24.531527777777775], [89.5299004424779, 24.543174778761088], [89.52597222222222, 24.532083333333333], [89.53680555555556, 24.529027777777777], [89.5350345522425, 24.527959068881966]]], [[[89.6199914266118, 24.4902829218107], [89.61097222222223, 24.495694444444442], [89.61597222222223, 24.514027777777777], [89.60236111111111, 24.518472222222222], [89.59347222222223, 24.54513888888889], [89.59912623539982, 24.543596885295], [89.60347222222222, 24.51986111111111], [89.61708333333334, 24.515694444444442], [89.61208333333333, 24.495416666666664], [89.62180555555555, 24.49347222222222], [89.62736111111111, 24.502916666666664], [89.6199914266118, 24.4902829218107]]], [[[89.59904797431723, 24.544024311207583], [89.59069444444445, 24.552638888888886], [89.59625, 24.559305555555554], [89.59904797431723, 24.544024311207583]]], [[[89.65239610673666, 24.452717629046365], [89.65569444444445, 24.46013888888889], [89.67422498651564, 24.4609004180151], [89.67013888888889, 24.451805555555556], [89.65875, 24.45986111111111], [89.65541666666667, 24.45486111111111], [89.66208333333334, 24.456527777777776], [89.65569444444445, 24.45208333333333], [89.65239610673666, 24.452717629046365]]], [[[89.67497447067642, 24.462568624695525], [89.66902777777779, 24.47208333333333], [89.6700206855792, 24.47416843971631], [89.6726388888889, 24.46736111111111], [89.67875000000001, 24.470972222222223], [89.67497447067642, 24.462568624695525]]], [[[89.69034032742036, 24.345255604094955], [89.69015925598744, 24.350144532783663], [89.6926388888889, 24.34847222222222], [89.70541666666666, 24.35986111111111], [89.70208031400966, 24.34935160024152], [89.71069444444444, 24.372083333333332], [89.70986111111111, 24.366249999999997], [89.71763888888889, 24.371527777777775], [89.70097222222222, 24.344305555555554], [89.70569444444445, 24.339027777777776], [89.70791666666666, 24.34347222222222], [89.71208333333334, 24.33236111111111], [89.70319444444445, 24.316527777777775], [89.69763888888889, 24.31625], [89.70058524098731, 24.34464212022113], [89.69986111111112, 24.34236111111111], [89.69347222222223, 24.339027777777776], [89.69513888888889, 24.34847222222222], [89.69034032742036, 24.345255604094955]]], [[[89.6895202671712, 24.3505754787295], [89.68291666666667, 24.349305555555553], [89.67986111111111, 24.357083333333332], [89.68330663039096, 24.357308041112454], [89.68069444444444, 24.356527777777778], [89.6895202671712, 24.3505754787295]]], [[[89.68893888888888, 24.358990404040405], [89.69180555555556, 24.36263888888889], [89.68486111111112, 24.36097222222222], [89.67652777777778, 24.36875], [89.67402777777778, 24.358472222222222], [89.66208333333334, 24.360416666666666], [89.6601388888889, 24.366249999999997], [89.64125, 24.36208333333333], [89.63976608187134, 24.37013888888889], [89.64625000000001, 24.37013888888889], [89.64652777777778, 24.38208333333333], [89.65569444444445, 24.38513888888889], [89.65958333333333, 24.376527777777778], [89.66097222222223, 24.385694444444443], [89.6726388888889, 24.37763888888889], [89.67680555555556, 24.38513888888889], [89.68152777777777, 24.38208333333333], [89.67569444444445, 24.373472222222222], [89.68847222222223, 24.37013888888889], [89.69818139448174, 24.37485477255779], [89.6901388888889, 24.38236111111111], [89.70097222222222, 24.38236111111111], [89.69847222222222, 24.374583333333334], [89.69821671907758, 24.374821802934996], [89.7024178614098, 24.367408022348723], [89.7092420212766, 24.374031471631213], [89.70208333333333, 24.362916666666667], [89.6958818931211, 24.361064288421453], [89.70164224664225, 24.366655219780217], [89.69458333333334, 24.36736111111111], [89.6953888454182, 24.360917014432275], [89.68893888888888, 24.358990404040405]], [[89.66736111111112, 24.369027777777777], [89.67319444444445, 24.366805555555555], [89.6751388888889, 24.371805555555554], [89.66097222222223, 24.37736111111111], [89.66736111111112, 24.369027777777777]]], [[[89.63931108478147, 24.37260887309111], [89.63736111111112, 24.38319444444444], [89.65347222222222, 24.39486111111111], [89.65902777777778, 24.392916666666665], [89.65958333333333, 24.398194444444442], [89.66986111111112, 24.39236111111111], [89.64347222222223, 24.38486111111111], [89.63931108478147, 24.37260887309111]]], [[[89.71102160868392, 24.37679451523732], [89.69319444444444, 24.39597222222222], [89.71263888888889, 24.379305555555554], [89.71102160868392, 24.37679451523732]]], [[[89.71768937407117, 24.33376770259639], [89.72347222222223, 24.35347222222222], [89.72180555555556, 24.38236111111111], [89.71541666666667, 24.39125], [89.72541666666667, 24.39236111111111], [89.72319444444445, 24.38319444444444], [89.74236111111111, 24.387916666666666], [89.73402777777778, 24.38486111111111], [89.73958333333334, 24.38208333333333], [89.72236111111111, 24.37847222222222], [89.73023989898988, 24.37887626262626], [89.72680555555556, 24.379027777777775], [89.73039481897628, 24.378884207240947], [89.74402777777777, 24.379583333333333], [89.75375, 24.39875], [89.74597222222222, 24.41236111111111], [89.74375, 24.400138888888886], [89.73736111111111, 24.406805555555554], [89.73819444444445, 24.399027777777775], [89.72625000000001, 24.395416666666666], [89.72875, 24.413194444444443], [89.72180555555556, 24.39625], [89.71263888888889, 24.39486111111111], [89.71319444444444, 24.406805555555554], [89.71347222222222, 24.399027777777775], [89.7226388888889, 24.405694444444443], [89.71875, 24.415138888888887], [89.72763888888889, 24.414583333333333], [89.71569444444445, 24.43958333333333], [89.72069444444445, 24.464583333333334], [89.71347222222222, 24.47958333333333], [89.68736111111112, 24.483194444444443], [89.68875, 24.48986111111111], [89.69208333333333, 24.48736111111111], [89.68375, 24.504027777777775], [89.6901388888889, 24.491527777777776], [89.69236111111111, 24.50236111111111], [89.68263888888889, 24.541805555555555], [89.66736111111112, 24.559027777777775], [89.66319444444444, 24.58458333333333], [89.64875, 24.603194444444444], [89.65847222222223, 24.619027777777777], [89.65291666666667, 24.608194444444443], [89.66152777777778, 24.609027777777776], [89.66291666666667, 24.650694444444444], [89.65152777777779, 24.66875], [89.63791666666667, 24.67486111111111], [89.63208333333334, 24.691527777777775], [89.63708333333334, 24.69597222222222], [89.65986111111111, 24.678194444444443], [89.66486111111111, 24.686527777777776], [89.66736111111112, 24.68125], [89.66652777777779, 24.690416666666664], [89.65458333333333, 24.69347222222222], [89.65402777777778, 24.711805555555554], [89.64708333333334, 24.71763888888889], [89.65513888888889, 24.712083333333332], [89.65680555555556, 24.692916666666665], [89.66652777777779, 24.692083333333333], [89.65541666666667, 24.745694444444442], [89.66652777777779, 24.74736111111111], [89.66402777777778, 24.75486111111111], [89.72319444444445, 24.734305555555554], [89.72347222222223, 24.762361111111108], [89.70791666666666, 24.769305555555555], [89.72125, 24.765416666666667], [89.70930555555556, 24.776527777777776], [89.69541666666667, 24.77958333333333], [89.71986111111111, 24.775972222222222], [89.73013888888889, 24.76625], [89.73875, 24.742638888888887], [89.73152777777779, 24.720972222222223], [89.74347222222222, 24.69736111111111], [89.79430555555555, 24.675416666666667], [89.78736111111111, 24.677638888888886], [89.79263888888889, 24.673194444444444], [89.78236111111111, 24.671527777777776], [89.78458333333333, 24.626527777777778], [89.76375, 24.645138888888887], [89.74375, 24.68097222222222], [89.71708333333333, 24.709027777777777], [89.69819444444445, 24.68263888888889], [89.70180555555555, 24.674027777777777], [89.70736111111111, 24.69347222222222], [89.70402777777778, 24.67736111111111], [89.71486111111112, 24.62486111111111], [89.75097222222223, 24.599305555555553], [89.7526388888889, 24.593194444444443], [89.73847222222223, 24.579583333333332], [89.75736111111111, 24.56236111111111], [89.75875, 24.569305555555555], [89.76597222222223, 24.540138888888887], [89.7598611111111, 24.545972222222222], [89.75958333333334, 24.53763888888889], [89.75180555555556, 24.53736111111111], [89.75763888888889, 24.54875], [89.75402777777778, 24.55847222222222], [89.74513888888889, 24.567916666666665], [89.73569444444445, 24.56625], [89.74708333333334, 24.544027777777778], [89.71958333333333, 24.494027777777777], [89.72791666666667, 24.477638888888887], [89.74263888888889, 24.468194444444443], [89.74236111111111, 24.455694444444443], [89.7551388888889, 24.455416666666665], [89.74569444444445, 24.428472222222222], [89.76597222222223, 24.37569444444444], [89.75708333333334, 24.365972222222222], [89.7551388888889, 24.39097222222222], [89.74569444444445, 24.378194444444443], [89.73369081497978, 24.37872401633259], [89.72236111111111, 24.373749999999998], [89.73013888888889, 24.35125], [89.71768937407117, 24.33376770259639]], [[89.76708333333333, 24.664861111111108], [89.78291666666667, 24.638749999999998], [89.77930555555555, 24.661805555555553], [89.76708333333333, 24.664861111111108]], [[89.77041666666666, 24.665416666666665], [89.77736111111112, 24.665138888888887], [89.77541666666667, 24.67347222222222], [89.75486111111111, 24.678472222222222], [89.77041666666666, 24.665416666666665]], [[89.74569444444445, 24.594583333333333], [89.74597222222222, 24.60013888888889], [89.71097222222222, 24.622916666666665], [89.71013888888889, 24.60486111111111], [89.71847222222223, 24.595694444444444], [89.73152777777779, 24.59375], [89.73652777777778, 24.58625], [89.7351388888889, 24.59708333333333], [89.73791666666666, 24.587638888888886], [89.74569444444445, 24.594583333333333]], [[89.73597222222223, 24.576249999999998], [89.73597222222223, 24.58597222222222], [89.72875, 24.57236111111111], [89.74152777777778, 24.567916666666665], [89.73597222222223, 24.576249999999998]], [[89.73597222222223, 24.434583333333332], [89.74152777777778, 24.434027777777775], [89.73680555555556, 24.44097222222222], [89.73291666666667, 24.42736111111111], [89.73986111111111, 24.430416666666666], [89.73597222222223, 24.434583333333332]], [[89.74069444444444, 24.42513888888889], [89.73986111111111, 24.42986111111111], [89.73347222222222, 24.427083333333332], [89.73541666666667, 24.421527777777776], [89.74069444444444, 24.42513888888889]], [[89.72875, 24.591527777777777], [89.71680555555555, 24.594305555555554], [89.72652777777778, 24.574583333333333], [89.73180555555555, 24.58375], [89.72875, 24.591527777777777]], [[89.72208333333333, 24.72458333333333], [89.7201388888889, 24.712638888888886], [89.72680555555556, 24.70847222222222], [89.72208333333333, 24.72458333333333]], [[89.7226388888889, 24.51986111111111], [89.72625000000001, 24.525694444444444], [89.71986111111111, 24.523194444444442], [89.7226388888889, 24.51986111111111]], [[89.71236111111111, 24.547916666666666], [89.71291666666667, 24.541527777777777], [89.71930555555556, 24.54513888888889], [89.72069444444445, 24.557916666666664], [89.71236111111111, 24.547916666666666]], [[89.71763888888889, 24.589027777777776], [89.70708333333333, 24.590694444444445], [89.70125, 24.599027777777778], [89.69930555555555, 24.635694444444443], [89.69402777777778, 24.637638888888887], [89.69208333333333, 24.606805555555553], [89.71708333333333, 24.57986111111111], [89.71763888888889, 24.589027777777776]], [[89.71208333333334, 24.55875], [89.71319444444444, 24.554583333333333], [89.71680555555555, 24.559027777777775], [89.70847222222223, 24.568749999999998], [89.70875000000001, 24.54513888888889], [89.71208333333334, 24.55875]], [[89.70541666666666, 24.60597222222222], [89.70652777777778, 24.594583333333333], [89.71486111111112, 24.593194444444443], [89.70541666666666, 24.60597222222222]], [[89.69569444444444, 24.71763888888889], [89.69625, 24.727638888888887], [89.70097222222222, 24.703194444444442], [89.70902777777778, 24.714583333333334], [89.70652777777778, 24.72958333333333], [89.71291666666667, 24.721527777777776], [89.71013888888889, 24.730138888888888], [89.67708333333334, 24.73625], [89.69430555555556, 24.685972222222222], [89.69930555555555, 24.70375], [89.69569444444444, 24.71763888888889]], [[89.70986111111111, 24.625138888888888], [89.70069444444445, 24.621805555555554], [89.70875000000001, 24.606527777777778], [89.70986111111111, 24.625138888888888]], [[89.70819444444444, 24.637361111111108], [89.70236111111112, 24.626805555555553], [89.70875000000001, 24.62847222222222], [89.70819444444444, 24.637361111111108]], [[89.69819444444445, 24.56486111111111], [89.70013888888889, 24.55236111111111], [89.70347222222223, 24.57347222222222], [89.69819444444445, 24.56486111111111]], [[89.69652777777777, 24.484583333333333], [89.70291666666667, 24.48263888888889], [89.70013888888889, 24.501805555555553], [89.6926388888889, 24.509305555555553], [89.69652777777777, 24.484583333333333]], [[89.70263888888888, 24.530416666666664], [89.69680555555556, 24.542916666666667], [89.68986111111111, 24.540694444444444], [89.69986111111112, 24.522916666666664], [89.70263888888888, 24.530416666666664]], [[89.70236111111112, 24.652638888888887], [89.69763888888889, 24.664583333333333], [89.69069444444445, 24.644305555555555], [89.69402777777778, 24.639305555555556], [89.70180555555555, 24.640694444444442], [89.70236111111112, 24.652638888888887]], [[89.69125, 24.584027777777777], [89.68819444444445, 24.592916666666664], [89.6776388888889, 24.596527777777776], [89.68180555555556, 24.582083333333333], [89.69125, 24.584027777777777]], [[89.6901388888889, 24.696527777777778], [89.68513888888889, 24.70486111111111], [89.68430555555555, 24.69847222222222], [89.6901388888889, 24.696527777777778]], [[89.68541666666667, 24.547916666666666], [89.68958333333333, 24.55486111111111], [89.68180555555556, 24.560972222222222], [89.68541666666667, 24.547916666666666]], [[89.68402777777779, 24.61986111111111], [89.68597222222222, 24.614027777777775], [89.68236111111112, 24.646805555555556], [89.67680555555556, 24.622916666666665], [89.68291666666667, 24.615138888888886], [89.68402777777779, 24.61986111111111]], [[89.68291666666667, 24.663194444444443], [89.68430555555555, 24.671527777777776], [89.67847222222223, 24.66125], [89.68291666666667, 24.663194444444443]], [[89.67847222222223, 24.712638888888886], [89.68013888888889, 24.706527777777776], [89.68402777777779, 24.712083333333332], [89.67847222222223, 24.712638888888886]], [[89.66236111111111, 24.607916666666664], [89.65041666666667, 24.602083333333333], [89.66402777777778, 24.586527777777775], [89.66236111111111, 24.607916666666664]]], [[[89.81069444444445, 24.139027777777777], [89.82097222222222, 24.139027777777777], [89.81625, 24.119305555555552], [89.81013888888889, 24.120694444444442], [89.8151388888889, 24.129305555555554], [89.80208333333334, 24.144027777777776], [89.81069444444445, 24.139027777777777]]], [[[89.75069444444445, 24.499305555555555], [89.74736111111112, 24.506527777777777], [89.75625000000001, 24.496805555555554], [89.74569444444445, 24.49736111111111], [89.75097222222223, 24.48847222222222], [89.74347222222222, 24.49375], [89.74069444444444, 24.514027777777777], [89.75069444444445, 24.499305555555555]]], [[[89.74708333333334, 24.474027777777778], [89.74319444444444, 24.471527777777776], [89.74041666666668, 24.485138888888887], [89.74847222222222, 24.47986111111111], [89.74708333333334, 24.474027777777778]]], [[[89.71319444444444, 24.35625], [89.71625, 24.34486111111111], [89.71180555555556, 24.341527777777777], [89.70375, 24.347638888888888], [89.71319444444444, 24.35625]]], [[[89.7076388888889, 24.42013888888889], [89.70986111111111, 24.407916666666665], [89.70180555555555, 24.41347222222222], [89.7076388888889, 24.42013888888889]]], [[[89.70375, 24.309305555555554], [89.70902777777778, 24.309305555555554], [89.69791666666667, 24.306527777777777], [89.69763888888889, 24.31513888888889], [89.70652777777778, 24.31625], [89.70625, 24.310416666666665], [89.69902777777779, 24.312083333333334], [89.70375, 24.309305555555554]]], [[[89.69569444444444, 24.311527777777776], [89.69347222222223, 24.305138888888887], [89.68736111111112, 24.311249999999998], [89.69569444444444, 24.311527777777776]]], [[[89.68152777777777, 24.24486111111111], [89.68347222222222, 24.25236111111111], [89.68819444444445, 24.23986111111111], [89.67930555555556, 24.235138888888887], [89.67541666666666, 24.24458333333333], [89.68152777777777, 24.240138888888886], [89.68152777777777, 24.24486111111111]]], [[[89.68402777777779, 24.37597222222222], [89.68513888888889, 24.372083333333332], [89.67930555555556, 24.375138888888888], [89.68430555555555, 24.38319444444444], [89.68402777777779, 24.37597222222222]]], [[[89.67680555555556, 24.435694444444444], [89.68402777777779, 24.436527777777776], [89.67847222222223, 24.429583333333333], [89.67680555555556, 24.435694444444444]]], [[[89.67431065551476, 24.487320651434793], [89.67180555555557, 24.490138888888886], [89.67733350139248, 24.50207925189664], [89.67431065551476, 24.487320651434793]]], [[[89.68180555555556, 24.25097222222222], [89.66930555555555, 24.25236111111111], [89.66652777777779, 24.25958333333333], [89.67736111111111, 24.26458333333333], [89.67986111111111, 24.25847222222222], [89.67402777777778, 24.25819444444444], [89.68180555555556, 24.25097222222222]]], [[[89.66263888888889, 24.403194444444445], [89.66795420420421, 24.400005255255262], [89.65930555555556, 24.413194444444443], [89.66347222222223, 24.411805555555553], [89.66208333333334, 24.417638888888888], [89.66541666666667, 24.41236111111111], [89.66819444444445, 24.419583333333332], [89.66875, 24.41125], [89.67347222222223, 24.420694444444443], [89.67041666666667, 24.405694444444443], [89.6740627990951, 24.405051009310014], [89.67041666666667, 24.39625], [89.66805897485997, 24.399845480005208], [89.66097222222223, 24.399027777777775], [89.66263888888889, 24.403194444444445]]], [[[89.66930555555555, 24.429027777777776], [89.6726388888889, 24.425416666666667], [89.65791666666667, 24.416805555555555], [89.66930555555555, 24.429027777777776]]], [[[89.65291666666667, 24.408472222222223], [89.65513888888889, 24.41375], [89.65930555555556, 24.40458333333333], [89.65291666666667, 24.408472222222223]]], [[[89.61524498456791, 24.328555812757205], [89.62430555555555, 24.335694444444442], [89.62708333333333, 24.331805555555555], [89.61524498456791, 24.328555812757205]]], [[[89.60736111111112, 24.56513888888889], [89.61847222222222, 24.556805555555552], [89.60180555555556, 24.56236111111111], [89.60458333333334, 24.570138888888888], [89.60736111111112, 24.56513888888889]]], [[[89.60541666666667, 24.323194444444443], [89.61069444444445, 24.325138888888887], [89.60875, 24.316805555555554], [89.60541666666667, 24.323194444444443]]], [[[89.60513888888889, 24.55736111111111], [89.6101388888889, 24.547638888888887], [89.5976388888889, 24.560138888888886], [89.60513888888889, 24.55736111111111]]], [[[89.60486111111112, 24.418194444444442], [89.60402777777779, 24.412916666666664], [89.59819444444445, 24.41597222222222], [89.59986111111111, 24.420972222222222], [89.60486111111112, 24.418194444444442]]], [[[89.58041666666666, 24.41736111111111], [89.57513888888889, 24.411527777777778], [89.57375, 24.421805555555554], [89.57569444444445, 24.416527777777777], [89.57569444444445, 24.422916666666666], [89.58347222222223, 24.42347222222222], [89.58041666666666, 24.41736111111111]]], [[[89.57125, 24.29986111111111], [89.56597222222223, 24.303194444444443], [89.56930555555556, 24.307916666666664], [89.57763888888888, 24.300694444444442], [89.58152777777778, 24.303749999999997], [89.57513888888889, 24.291805555555555], [89.57125, 24.29986111111111]]], [[[89.54263888888889, 24.50958333333333], [89.5501388888889, 24.51013888888889], [89.55763888888889, 24.522916666666664], [89.54875, 24.545694444444443], [89.55319444444444, 24.552638888888886], [89.55847222222222, 24.529305555555553], [89.55847222222222, 24.541805555555555], [89.57513888888889, 24.548194444444444], [89.55986111111112, 24.541249999999998], [89.56291666666667, 24.53125], [89.55736111111112, 24.525694444444444], [89.56347222222223, 24.52208333333333], [89.55736111111112, 24.52236111111111], [89.55125, 24.501527777777778], [89.55597222222222, 24.510416666666664], [89.55958333333334, 24.504027777777775], [89.53819444444444, 24.48847222222222], [89.54291666666667, 24.50263888888889], [89.53930555555556, 24.498749999999998], [89.53236111111111, 24.50486111111111], [89.54263888888889, 24.50958333333333]]], [[[89.56236111111112, 24.317638888888887], [89.56819444444444, 24.31597222222222], [89.56208333333333, 24.309027777777775], [89.55791666666667, 24.31236111111111], [89.56236111111112, 24.317638888888887]]], [[[89.5594853347136, 24.655139924085578], [89.56375, 24.662916666666664], [89.56791666666668, 24.66208333333333], [89.56375, 24.64763888888889], [89.56303621659634, 24.647358473980308], [89.5651388888889, 24.657083333333333], [89.5594853347136, 24.655139924085578]]], [[[89.56680555555556, 24.43736111111111], [89.56208333333333, 24.428749999999997], [89.56208333333333, 24.439305555555553], [89.56680555555556, 24.43736111111111]]], [[[89.55652777777777, 24.390138888888888], [89.56125, 24.38513888888889], [89.55180555555556, 24.381805555555555], [89.55763888888889, 24.377916666666664], [89.54875, 24.37625], [89.54819444444445, 24.367916666666666], [89.54680555555557, 24.388194444444444], [89.55458333333334, 24.394583333333333], [89.55652777777777, 24.390138888888888]]], [[[89.52235100134797, 24.42245209897939], [89.52152777777778, 24.42986111111111], [89.50930555555556, 24.42513888888889], [89.51236111111112, 24.43736111111111], [89.53152777777778, 24.434305555555554], [89.5326388888889, 24.449305555555554], [89.53486111111111, 24.442083333333333], [89.54347222222222, 24.435416666666665], [89.53430555555556, 24.422638888888887], [89.52235100134797, 24.42245209897939]]], [[[89.51097222222222, 24.46763888888889], [89.51652777777778, 24.475416666666664], [89.52541666666667, 24.47375], [89.51180555555555, 24.461527777777775], [89.50291666666666, 24.462916666666665], [89.51097222222222, 24.46763888888889]]], [[[89.51986111111111, 24.437638888888888], [89.51319444444445, 24.43986111111111], [89.52263888888889, 24.44569444444444], [89.51986111111111, 24.437638888888888]]], [[[89.52180555555556, 24.457916666666666], [89.51597222222223, 24.442083333333333], [89.50819444444444, 24.455694444444443], [89.51902777777778, 24.461527777777775], [89.52180555555556, 24.457916666666666]]], [[[89.51180555555555, 24.515416666666667], [89.50763888888889, 24.501527777777778], [89.50763888888889, 24.51736111111111], [89.51180555555555, 24.515416666666667]]], [[[89.49152777777778, 24.442916666666665], [89.48736111111111, 24.44763888888889], [89.49513888888889, 24.457638888888887], [89.49944507671556, 24.446604282583028], [89.49986111111112, 24.451249999999998], [89.50930555555556, 24.428472222222222], [89.49902777777778, 24.431805555555552], [89.49763888888889, 24.426805555555553], [89.49819444444445, 24.43263888888889], [89.49940833504064, 24.44619400054634], [89.49263888888889, 24.444027777777777], [89.49513888888889, 24.439305555555553], [89.49152777777778, 24.442916666666665]]], [[[89.49486111111112, 24.45847222222222], [89.49180555555556, 24.454027777777778], [89.48180555555555, 24.465416666666666], [89.48958333333334, 24.46708333333333], [89.49486111111112, 24.45847222222222]]], [[[89.48375, 24.429027777777776], [89.47541666666667, 24.435416666666665], [89.48069444444445, 24.443194444444444], [89.48930555555556, 24.435138888888886], [89.48375, 24.429027777777776]]], [[[89.48736111111111, 24.454583333333332], [89.48069444444445, 24.44763888888889], [89.48125, 24.461805555555554], [89.48736111111111, 24.454583333333332]]], [[[89.48208333333334, 24.485694444444444], [89.48652777777778, 24.489305555555553], [89.48736111111111, 24.47847222222222], [89.47986111111112, 24.481805555555553], [89.47569444444444, 24.47847222222222], [89.48041666666667, 24.475416666666664], [89.47041666666667, 24.47486111111111], [89.48208333333334, 24.485694444444444]]], [[[89.46458333333334, 24.45875], [89.47041666666667, 24.46125], [89.46902777777778, 24.45486111111111], [89.46041666666667, 24.455416666666665], [89.45847222222223, 24.46708333333333], [89.46458333333334, 24.45875]]], [[[89.42847222222223, 24.426805555555553], [89.42069444444445, 24.43125], [89.42875000000001, 24.43875], [89.42847222222223, 24.426805555555553]]], [[[89.31402777777778, 24.367638888888887], [89.30958333333334, 24.37763888888889], [89.31736111111111, 24.373472222222222], [89.31402777777778, 24.367638888888887]]], [[[89.29152777777779, 24.369027777777777], [89.30486111111111, 24.36847222222222], [89.31069444444445, 24.35736111111111], [89.29152777777779, 24.369027777777777]]]]}}