{"type": "Feature", "properties": {}, "geometry": {"type": "MultiPolygon", "coordinates": [[[[89.3751388888889, 24.338194444444444], [89.37819444444445, 24.34819444444444], [89.36625000000001, 24.353749999999998], [89.35347222222222, 24.34819444444444], [89.31319444444445, 24.35097222222222], [89.3126388888889, 24.36208333333333], [89.31097222222222, 24.357083333333332], [89.30041666666666, 24.367083333333333], [89.29319444444445, 24.36486111111111], [89.28902777777778, 24.374027777777776], [89.30625, 24.375138888888888], [89.28347222222223, 24.379027777777775], [89.2851388888889, 24.420416666666664], [89.27180555555556, 24.42736111111111], [89.2598611111111, 24.423194444444444], [89.24708333333334, 24.42736111111111], [89.25125, 24.436249999999998], [89.27125000000001, 24.44486111111111], [89.28125, 24.456527777777776], [89.28347222222223, 24.484583333333333], [89.30569444444444, 24.499583333333334], [89.32125, 24.52986111111111], [89.33763888888889, 24.544305555555553], [89.34152777777778, 24.56319444444444], [89.37180555555555, 24.554305555555555], [89.39208333333333, 24.55736111111111], [89.39680555555556, 24.550416666666667], [89.40875, 24.554027777777776], [89.40986111111111, 24.560972222222222], [89.42486111111111, 24.560972222222222], [89.4376388888889, 24.54486111111111], [89.43680555555555, 24.54958333333333], [89.44430555555556, 24.54986111111111], [89.47402777777778, 24.540416666666665], [89.47375000000001, 24.551805555555553], [89.47958333333334, 24.554305555555555], [89.48569444444445, 24.54736111111111], [89.48013888888889, 24.553749999999997], [89.4851388888889, 24.556805555555552], [89.50236111111111, 24.55486111111111], [89.50236111111111, 24.549826388888896], [89.50625000000001, 24.545694444444443], [89.51430555555555, 24.54875], [89.51041666666667, 24.553194444444443], [89.51958333333333, 24.55013888888889], [89.50402777777778, 24.55625], [89.50847222222222, 24.556805555555552], [89.52236111111111, 24.551527777777775], [89.51902777777778, 24.53597222222222], [89.53208333333333, 24.546805555555554], [89.53069444444445, 24.56347222222222], [89.54652777777778, 24.547638888888887], [89.55319444444444, 24.548194444444444], [89.55513888888889, 24.555416666666666], [89.56402777777778, 24.553472222222222], [89.5651388888889, 24.547083333333333], [89.58902777777779, 24.55097222222222], [89.60430555555556, 24.569305555555555], [89.59930555555556, 24.594305555555554], [89.60402777777779, 24.607083333333332], [89.58902777777779, 24.610694444444444], [89.58069444444445, 24.621527777777775], [89.55819444444445, 24.624027777777776], [89.55430555555556, 24.64125], [89.56180555555555, 24.652916666666666], [89.55319444444444, 24.651527777777776], [89.55430555555556, 24.657916666666665], [89.54819444444445, 24.66069444444444], [89.55430555555556, 24.667638888888888], [89.5501388888889, 24.677638888888886], [89.55902777777779, 24.680416666666666], [89.56125, 24.68847222222222], [89.5723611111111, 24.687083333333334], [89.55819444444445, 24.692916666666665], [89.55458333333334, 24.704305555555553], [89.56375, 24.71097222222222], [89.55791666666667, 24.697916666666664], [89.56458333333333, 24.702916666666667], [89.57847222222223, 24.683194444444442], [89.58736111111111, 24.685972222222222], [89.58041666666666, 24.693749999999998], [89.59180555555555, 24.69458333333333], [89.59319444444445, 24.682916666666664], [89.59847222222223, 24.696527777777778], [89.60486111111112, 24.69458333333333], [89.6066863449692, 24.686369780971933], [89.62013888888889, 24.687638888888888], [89.6126388888889, 24.664305555555554], [89.61930555555556, 24.663194444444443], [89.61902777777777, 24.672916666666666], [89.6251388888889, 24.676527777777775], [89.62847222222223, 24.661805555555553], [89.62902777777778, 24.67375], [89.63430555555556, 24.670972222222222], [89.63180555555556, 24.691527777777775], [89.64569444444444, 24.701805555555556], [89.64486111111111, 24.711805555555554], [89.63736111111112, 24.716805555555553], [89.64902777777777, 24.720416666666665], [89.65430555555555, 24.714027777777776], [89.65319444444445, 24.721805555555555], [89.66041666666666, 24.72208333333333], [89.65597222222223, 24.747916666666665], [89.66652777777779, 24.74736111111111], [89.66402777777778, 24.75486111111111], [89.67097222222222, 24.75486111111111], [89.67458333333333, 24.765694444444442], [89.67430555555556, 24.75375], [89.68847222222223, 24.753194444444443], [89.67847222222223, 24.757638888888888], [89.68236111111112, 24.76486111111111], [89.69708333333334, 24.75375], [89.68736111111112, 24.767083333333332], [89.6751388888889, 24.767638888888886], [89.67486111111111, 24.781805555555554], [89.68680555555555, 24.780416666666664], [89.69652777777777, 24.76625], [89.68625, 24.782083333333333], [89.69569444444444, 24.775694444444444], [89.69486111111111, 24.78013888888889], [89.72319444444445, 24.774583333333332], [89.73430555555557, 24.76736111111111], [89.73041666666667, 24.765416666666667], [89.73847222222223, 24.74458333333333], [89.7351388888889, 24.754027777777775], [89.74236111111111, 24.757916666666667], [89.74569444444445, 24.751527777777778], [89.74708333333334, 24.75597222222222], [89.73958333333334, 24.762638888888887], [89.74986111111112, 24.757916666666667], [89.73986111111111, 24.771805555555556], [89.74986111111112, 24.77097222222222], [89.75291666666666, 24.764027777777777], [89.75652777777778, 24.767916666666665], [89.7551388888889, 24.759305555555553], [89.76125, 24.754583333333333], [89.75625000000001, 24.76597222222222], [89.76875, 24.771805555555556], [89.77708333333334, 24.768194444444443], [89.7826388888889, 24.748749999999998], [89.78013888888889, 24.754305555555554], [89.77894777777779, 24.75296555555557], [89.77736111111112, 24.742916666666666], [89.78319444444445, 24.741249999999997], [89.77097222222223, 24.714027777777776], [89.77736111111112, 24.715694444444445], [89.78541666666666, 24.700416666666666], [89.79013888888889, 24.704305555555553], [89.79013888888889, 24.686249999999998], [89.79708333333333, 24.685138888888886], [89.79736111111112, 24.677916666666665], [89.78319444444445, 24.669305555555553], [89.7851388888889, 24.62569444444444], [89.77402777777777, 24.624305555555555], [89.76875, 24.63347222222222], [89.77347222222222, 24.624305555555555], [89.76736111111111, 24.623472222222222], [89.76708333333333, 24.630416666666665], [89.76402777777778, 24.623749999999998], [89.77041666666666, 24.60458333333333], [89.76180555555555, 24.614027777777775], [89.75736111111111, 24.610416666666666], [89.75791666666667, 24.603749999999998], [89.76125, 24.611805555555556], [89.76541666666667, 24.60347222222222], [89.76152777777779, 24.595416666666665], [89.77097222222223, 24.603194444444444], [89.78902777777778, 24.57208333333333], [89.76375, 24.559583333333332], [89.76958333333333, 24.539861111111108], [89.74625, 24.53736111111111], [89.74763888888889, 24.520416666666666], [89.73819444444445, 24.522916666666664], [89.73430555555557, 24.517638888888886], [89.75763888888889, 24.50125], [89.74736111111112, 24.483194444444443], [89.75763888888889, 24.482916666666664], [89.74236111111111, 24.470694444444444], [89.74236111111111, 24.455694444444443], [89.7551388888889, 24.455416666666665], [89.74652777777779, 24.430416666666666], [89.76597222222223, 24.37708333333333], [89.7526388888889, 24.36097222222222], [89.75180555555556, 24.350416666666664], [89.77125000000001, 24.330972222222222], [89.77402777777777, 24.301805555555553], [89.79013888888889, 24.276527777777776], [89.78236111111111, 24.235138888888887], [89.79847222222223, 24.174305555555556], [89.78013888888889, 24.166249999999998], [89.78763888888889, 24.157916666666665], [89.80291666666668, 24.15958333333333], [89.80513888888889, 24.14708333333333], [89.82013888888889, 24.140694444444442], [89.81597222222223, 24.102916666666665], [89.82486111111112, 24.088749999999997], [89.81708333333333, 24.06347222222222], [89.78430555555556, 24.04097222222222], [89.77708333333334, 24.029027777777777], [89.72180555555556, 24.01347222222222], [89.70291666666667, 24.02375], [89.69875, 24.03847222222222], [89.68291666666667, 24.034305555555555], [89.68125, 24.062083333333334], [89.63736111111112, 24.086805555555554], [89.62986111111111, 24.083194444444445], [89.61652777777778, 24.096805555555555], [89.60458333333334, 24.096527777777776], [89.59013888888889, 24.107916666666664], [89.55930555555555, 24.11125], [89.55541666666667, 24.119027777777777], [89.56430555555556, 24.12236111111111], [89.55763888888889, 24.12736111111111], [89.54986111111111, 24.129583333333333], [89.54680555555557, 24.124027777777776], [89.54597222222222, 24.131527777777777], [89.53291666666667, 24.130138888888887], [89.52180555555556, 24.154305555555553], [89.52930555555555, 24.158749999999998], [89.52319444444444, 24.16847222222222], [89.53347222222223, 24.166527777777777], [89.5351388888889, 24.172916666666666], [89.5176388888889, 24.179027777777776], [89.51708333333333, 24.18875], [89.52513888888889, 24.19125], [89.52236111111111, 24.19736111111111], [89.51041666666667, 24.199583333333333], [89.50097222222223, 24.21708333333333], [89.48930555555556, 24.21708333333333], [89.48597222222223, 24.20375], [89.46930555555556, 24.20097222222222], [89.46152777777777, 24.22458333333333], [89.47375000000001, 24.219305555555554], [89.47819444444444, 24.22958333333333], [89.47152777777778, 24.234583333333333], [89.45430555555556, 24.227638888888887], [89.44597222222222, 24.233749999999997], [89.45652777777778, 24.233749999999997], [89.46319444444444, 24.250138888888888], [89.46013888888889, 24.262083333333333], [89.44791666666667, 24.268194444444443], [89.43930555555556, 24.25236111111111], [89.42458333333333, 24.250416666666666], [89.42930555555556, 24.26736111111111], [89.41763888888889, 24.292638888888888], [89.41902777777779, 24.304583333333333], [89.42541666666666, 24.306805555555552], [89.41958333333334, 24.311527777777776], [89.42236111111112, 24.317916666666665], [89.40013888888889, 24.321527777777778], [89.39763888888889, 24.337638888888886], [89.3751388888889, 24.338194444444444]], [[89.80152777777778, 24.12875], [89.80458333333334, 24.12597222222222], [89.79930555555556, 24.131527777777777], [89.7976388888889, 24.12569444444444], [89.80152777777778, 24.12875]], [[89.79986111111111, 24.122916666666665], [89.79597222222222, 24.11847222222222], [89.80347222222223, 24.11847222222222], [89.79986111111111, 24.122916666666665]], [[89.76930555555556, 24.594027777777775], [89.76652777777778, 24.586527777777775], [89.77041582107222, 24.59082508878742], [89.76930555555556, 24.594027777777775]], [[89.77155218707284, 24.58754710993947], [89.77097222222223, 24.576527777777777], [89.77418781296522, 24.579944342942213], [89.77155218707284, 24.58754710993947]], [[89.76486111111112, 24.749027777777776], [89.77513888888889, 24.733194444444443], [89.76791666666666, 24.75125], [89.7501388888889, 24.75708333333333], [89.7501388888889, 24.748194444444444], [89.75097222222223, 24.754027777777775], [89.75458333333333, 24.748194444444444], [89.7598611111111, 24.747083333333332], [89.75875, 24.753194444444443], [89.76486111111112, 24.749027777777776]], [[89.75708333333334, 24.616527777777776], [89.76180555555555, 24.614305555555553], [89.7598611111111, 24.62013888888889], [89.7526388888889, 24.617638888888887], [89.75708333333334, 24.616527777777776]], [[89.74541666666667, 24.73763888888889], [89.75791666666667, 24.744305555555552], [89.74819444444445, 24.746805555555554], [89.73847222222223, 24.73736111111111], [89.74541666666667, 24.73763888888889]], [[89.74958333333333, 24.65597222222222], [89.75597222222223, 24.650694444444444], [89.75375, 24.661527777777778], [89.74958333333333, 24.65597222222222]], [[89.73486111111112, 24.72625], [89.73779444444445, 24.72478333333333], [89.73263888888889, 24.72513888888889], [89.73263888888889, 24.719583333333333], [89.73957905982907, 24.723891025641027], [89.74333333333334, 24.722013888888885], [89.74625, 24.715694444444445], [89.74875, 24.707638888888887], [89.74930555555555, 24.712083333333332], [89.75569444444444, 24.70875], [89.74405753968254, 24.721651785714283], [89.75152777777778, 24.717916666666664], [89.73819444444445, 24.73736111111111], [89.73486111111112, 24.72625]], [[89.7052765093861, 24.392330035514966], [89.71375, 24.390416666666667], [89.71013888888889, 24.368194444444445], [89.7201388888889, 24.37125], [89.7076388888889, 24.35736111111111], [89.70791666666666, 24.352361111111108], [89.71375, 24.358194444444443], [89.71541666666667, 24.35125], [89.72208333333333, 24.364583333333332], [89.72097222222223, 24.376527777777778], [89.71569444444445, 24.378194444444443], [89.72125, 24.382916666666667], [89.71319444444444, 24.381805555555555], [89.71486111111112, 24.391805555555553], [89.74569444444445, 24.392916666666665], [89.75041666666667, 24.387916666666666], [89.75375, 24.39875], [89.74541666666667, 24.408749999999998], [89.74430555555556, 24.39986111111111], [89.70625, 24.39486111111111], [89.7052765093861, 24.392330035514966]], [[89.74319444444444, 24.66736111111111], [89.74291666666667, 24.66069444444444], [89.74513888888889, 24.66736111111111], [89.74875, 24.664305555555554], [89.74569444444445, 24.65347222222222], [89.75041666666667, 24.66708333333333], [89.73986111111111, 24.676805555555553], [89.74319444444444, 24.66736111111111]], [[89.73902777777778, 24.641527777777778], [89.7401388888889, 24.630694444444444], [89.74708333333334, 24.650138888888886], [89.73902777777778, 24.641527777777778]], [[89.73986111111111, 24.715694444444445], [89.73625, 24.71763888888889], [89.74569444444445, 24.705972222222222], [89.73986111111111, 24.715694444444445]], [[89.71958333333333, 24.632916666666667], [89.72597222222223, 24.644583333333333], [89.72513888888889, 24.635416666666664], [89.72847222222222, 24.638749999999998], [89.73236111111112, 24.627916666666664], [89.72680555555556, 24.643749999999997], [89.73791666666666, 24.638749999999998], [89.7376388888889, 24.64847222222222], [89.74347222222222, 24.650416666666665], [89.73263888888889, 24.654027777777777], [89.73708333333333, 24.64736111111111], [89.72541666666667, 24.649027777777775], [89.71958333333333, 24.632916666666667]], [[89.73097222222222, 24.66208333333333], [89.73486111111112, 24.65625], [89.73541666666667, 24.665694444444444], [89.74208333333334, 24.662916666666664], [89.73902777777778, 24.671249999999997], [89.73097222222222, 24.66208333333333]], [[89.731839569161, 24.67811791383219], [89.7351388888889, 24.670694444444443], [89.73236111111112, 24.680138888888887], [89.731839569161, 24.67811791383219]], [[89.71541666666667, 24.67597222222222], [89.72097222222223, 24.680694444444445], [89.71597222222222, 24.672083333333333], [89.72569444444444, 24.65958333333333], [89.72902777777779, 24.66736111111111], [89.72125, 24.687916666666666], [89.73236111111112, 24.68375], [89.72791666666667, 24.69458333333333], [89.72569444444444, 24.68847222222222], [89.71569444444445, 24.694305555555555], [89.71458333333334, 24.687638888888888], [89.72069444444445, 24.686527777777776], [89.71041666666667, 24.679305555555555], [89.71541666666667, 24.67597222222222]], [[89.72430555555556, 24.595972222222223], [89.72819444444444, 24.59486111111111], [89.72319444444445, 24.600416666666664], [89.72430555555556, 24.595972222222223]], [[89.72402777777778, 24.304583333333333], [89.72347222222223, 24.300416666666667], [89.72680555555556, 24.308194444444442], [89.72402777777778, 24.304583333333333]], [[89.68597222222222, 24.444027777777777], [89.68875, 24.450138888888887], [89.68708333333333, 24.442916666666665], [89.69541666666667, 24.445138888888888], [89.68319444444445, 24.44013888888889], [89.68847222222223, 24.439305555555553], [89.68013888888889, 24.42597222222222], [89.68541666666667, 24.432916666666664], [89.68263888888889, 24.424027777777777], [89.69097222222223, 24.42736111111111], [89.68736111111112, 24.434583333333332], [89.6926388888889, 24.439027777777778], [89.69569444444444, 24.42625], [89.68875, 24.422916666666666], [89.69708333333334, 24.419027777777778], [89.70069444444445, 24.434583333333332], [89.70263888888888, 24.423194444444444], [89.71152777777777, 24.427083333333332], [89.71430555555555, 24.419305555555553], [89.70819444444444, 24.43875], [89.71180555555556, 24.43125], [89.71513888888889, 24.451527777777777], [89.70819444444444, 24.440694444444443], [89.72069444444445, 24.463749999999997], [89.71347222222222, 24.479305555555555], [89.71097222222222, 24.47347222222222], [89.70597222222223, 24.478194444444444], [89.71041666666667, 24.471527777777776], [89.70347222222223, 24.470416666666665], [89.70930555555556, 24.46763888888889], [89.69486111111111, 24.46875], [89.6973611111111, 24.463472222222222], [89.67902777777778, 24.46736111111111], [89.68819444444445, 24.461805555555554], [89.68152777777777, 24.45736111111111], [89.68958333333333, 24.459027777777777], [89.68597222222222, 24.444027777777777]], [[89.70597222222223, 24.478194444444444], [89.70152777777778, 24.480416666666667], [89.69236111111111, 24.485416666666666], [89.68847222222223, 24.479305555555555], [89.6926388888889, 24.482083333333332], [89.69958333333334, 24.474305555555553], [89.70597222222223, 24.478194444444444]], [[89.71069444444444, 24.753194444444443], [89.71152777777777, 24.759027777777778], [89.71958333333333, 24.75597222222222], [89.71069444444444, 24.765138888888888], [89.71069444444444, 24.753194444444443]], [[89.70902777777778, 24.32236111111111], [89.69902777777779, 24.31513888888889], [89.71569444444445, 24.32708333333333], [89.70902777777778, 24.32236111111111]], [[89.71319444444444, 24.68347222222222], [89.71236111111111, 24.69013888888889], [89.70958333333334, 24.680416666666666], [89.71319444444444, 24.68347222222222]], [[89.69819444444445, 24.410138888888888], [89.70097222222222, 24.40375], [89.70875000000001, 24.40375], [89.69819444444445, 24.410138888888888]], [[89.69375000000001, 24.302638888888886], [89.68625, 24.31375], [89.69041666666666, 24.30486111111111], [89.67958333333334, 24.299305555555556], [89.68263888888889, 24.29513888888889], [89.67458333333333, 24.287916666666664], [89.68263888888889, 24.283749999999998], [89.6776388888889, 24.279027777777777], [89.68513888888889, 24.282083333333333], [89.68736111111112, 24.28763888888889], [89.68236111111112, 24.28458333333333], [89.68125, 24.289583333333333], [89.68875, 24.29986111111111], [89.68541666666667, 24.289583333333333], [89.68930555555556, 24.29513888888889], [89.70041666666667, 24.289861111111108], [89.70458333333333, 24.294305555555553], [89.70708333333333, 24.288194444444443], [89.70569444444445, 24.308194444444442], [89.69375000000001, 24.302638888888886]], [[89.70152777777778, 24.225694444444443], [89.70597222222223, 24.22319444444444], [89.70680555555556, 24.229305555555555], [89.69902777777779, 24.233472222222222], [89.70152777777778, 24.225694444444443]], [[89.69430555555556, 24.35736111111111], [89.69708333333334, 24.353749999999998], [89.70458333333333, 24.36097222222222], [89.69430555555556, 24.35736111111111]], [[89.69958333333334, 24.762638888888887], [89.70319444444445, 24.756249999999998], [89.70097222222222, 24.77375], [89.69958333333334, 24.762638888888887]], [[89.69319444444444, 24.320416666666667], [89.69236111111111, 24.314305555555553], [89.69763888888889, 24.315416666666664], [89.69319444444444, 24.320416666666667]], [[89.68625, 24.282083333333333], [89.69041666666666, 24.276249999999997], [89.69680555555556, 24.29097222222222], [89.68625, 24.282083333333333]], [[89.69208333333333, 24.469583333333333], [89.68791666666667, 24.468194444444443], [89.69486111111111, 24.465138888888887], [89.69208333333333, 24.469583333333333]], [[89.68958333333333, 24.39847222222222], [89.68708333333333, 24.39486111111111], [89.69291666666668, 24.39486111111111], [89.69347222222223, 24.400972222222222], [89.68958333333333, 24.39847222222222]], [[89.6876388888889, 24.385416666666664], [89.68930555555556, 24.379305555555554], [89.69347222222223, 24.38458333333333], [89.6876388888889, 24.385416666666664]], [[89.68680555555555, 24.330694444444443], [89.68986111111111, 24.325416666666666], [89.69208333333333, 24.330694444444443], [89.68680555555555, 24.330694444444443]], [[89.68597222222222, 24.376527777777778], [89.68791666666667, 24.371805555555554], [89.68291666666667, 24.37125], [89.69069444444445, 24.371805555555554], [89.68597222222222, 24.376527777777778]], [[89.68902777777778, 24.486527777777777], [89.68791666666667, 24.491805555555555], [89.68375, 24.487916666666667], [89.68902777777778, 24.486527777777777]], [[89.68597222222222, 24.497916666666665], [89.68291666666667, 24.49347222222222], [89.6876388888889, 24.492083333333333], [89.68597222222222, 24.497916666666665]], [[89.68486111111112, 24.455138888888886], [89.6726388888889, 24.446805555555553], [89.66291666666667, 24.455416666666665], [89.66291666666667, 24.44875], [89.65513888888889, 24.44597222222222], [89.66486111111111, 24.44736111111111], [89.66402777777778, 24.440694444444443], [89.67069444444445, 24.440416666666664], [89.66625, 24.44708333333333], [89.67875000000001, 24.44569444444444], [89.68486111111112, 24.455138888888886]], [[89.68125, 24.26347222222222], [89.68402777777779, 24.26986111111111], [89.66986111111112, 24.262083333333333], [89.68125, 24.26347222222222]], [[89.67182006232538, 24.396512948635287], [89.67324494949496, 24.396315656565655], [89.68375, 24.407083333333333], [89.67708333333334, 24.40625], [89.67182006232538, 24.396512948635287]], [[89.67847222222223, 24.51597222222222], [89.67847222222223, 24.50819444444444], [89.68319444444445, 24.50875], [89.67847222222223, 24.51597222222222]], [[89.68263888888889, 24.423194444444444], [89.67736111111111, 24.414861111111108], [89.68208333333334, 24.414305555555554], [89.68263888888889, 24.423194444444444]], [[89.67791666666668, 24.535416666666666], [89.68069444444444, 24.52736111111111], [89.68236111111112, 24.536805555555553], [89.67597222222223, 24.539027777777775], [89.67791666666668, 24.535416666666666]], [[89.67069444444445, 24.52486111111111], [89.66902777777779, 24.518194444444443], [89.6776388888889, 24.52986111111111], [89.67069444444445, 24.52486111111111]], [[89.67652777777778, 24.49597222222222], [89.66819444444445, 24.49513888888889], [89.67208333333333, 24.490416666666665], [89.67652777777778, 24.49597222222222]], [[89.67291666666667, 24.43125], [89.67236111111112, 24.426805555555553], [89.67652777777778, 24.434305555555554], [89.67291666666667, 24.43125]], [[89.67430555555556, 24.500138888888888], [89.67625, 24.506249999999998], [89.67041666666667, 24.506249999999998], [89.67430555555556, 24.500138888888888]], [[89.66875, 24.386527777777776], [89.66430555555556, 24.38319444444444], [89.67486111111111, 24.38208333333333], [89.66875, 24.386527777777776]], [[89.67319444444445, 24.32708333333333], [89.66791666666667, 24.318194444444444], [89.65625, 24.32347222222222], [89.65652777777778, 24.319027777777777], [89.67208333333333, 24.315694444444443], [89.67319444444445, 24.32708333333333]], [[89.66680555555556, 24.488194444444442], [89.66791666666667, 24.480138888888888], [89.67319444444445, 24.481527777777778], [89.66680555555556, 24.488194444444442]], [[89.66319444444444, 24.415694444444444], [89.66625, 24.42236111111111], [89.67236111111112, 24.41875], [89.67125, 24.42486111111111], [89.66125000000001, 24.420972222222222], [89.66319444444444, 24.415694444444444]], [[89.66986111111112, 24.303194444444443], [89.66402777777778, 24.300416666666667], [89.67180555555557, 24.29958333333333], [89.67152777777778, 24.30708333333333], [89.66986111111112, 24.303194444444443]], [[89.66763888888889, 24.253194444444443], [89.67180555555557, 24.25097222222222], [89.66652777777779, 24.25875], [89.66458333333334, 24.249305555555555], [89.66763888888889, 24.253194444444443]], [[89.66236111111111, 24.514027777777777], [89.67125, 24.511527777777776], [89.66513888888889, 24.518472222222222], [89.66236111111111, 24.514027777777777]], [[89.6601388888889, 24.43375], [89.66319444444444, 24.427083333333332], [89.66458333333334, 24.435694444444444], [89.6601388888889, 24.43375]], [[89.65422828816787, 24.576298000972173], [89.65736111111111, 24.564027777777778], [89.6576388888889, 24.57375], [89.66319444444444, 24.575694444444444], [89.65969565776895, 24.57846431722921], [89.65422828816787, 24.576298000972173]], [[89.65819444444445, 24.40347222222222], [89.66263888888889, 24.404305555555553], [89.6601388888889, 24.41069444444444], [89.65819444444445, 24.40347222222222]], [[89.64763888888889, 24.364305555555553], [89.65680555555556, 24.356805555555553], [89.66041666666666, 24.36375], [89.64763888888889, 24.364305555555553]], [[89.63513888888889, 24.669305555555553], [89.63819444444445, 24.65236111111111], [89.64013888888888, 24.66736111111111], [89.64597222222223, 24.664583333333333], [89.64069444444445, 24.657916666666665], [89.64375, 24.650972222222222], [89.65375, 24.657638888888886], [89.65208333333334, 24.643749999999997], [89.63930555555555, 24.64763888888889], [89.64402777777778, 24.63958333333333], [89.6576388888889, 24.639027777777777], [89.65513888888889, 24.63097222222222], [89.6601388888889, 24.62708333333333], [89.65458333333333, 24.66236111111111], [89.63958333333333, 24.67347222222222], [89.63513888888889, 24.669305555555553]], [[89.65458333333333, 24.684027777777775], [89.65541666666667, 24.690416666666664], [89.6601388888889, 24.689027777777778], [89.65236111111112, 24.692638888888887], [89.65458333333333, 24.684027777777775]], [[89.65319444444445, 24.629305555555554], [89.65069444444444, 24.61847222222222], [89.6576388888889, 24.61486111111111], [89.65347222222222, 24.62875], [89.65986111111111, 24.626805555555553], [89.65319444444445, 24.629305555555554]], [[89.65986111111111, 24.42736111111111], [89.65680555555556, 24.431805555555552], [89.65263888888889, 24.42625], [89.65986111111111, 24.42736111111111]], [[89.65069444444444, 24.414027777777775], [89.64930555555556, 24.408472222222223], [89.65930555555556, 24.41236111111111], [89.65791666666667, 24.419305555555553], [89.64069444444445, 24.416527777777777], [89.65069444444444, 24.414027777777775]], [[89.61028061224489, 24.539107142857144], [89.60763888888889, 24.52986111111111], [89.61041666666667, 24.53708333333333], [89.61541666666668, 24.534027777777776], [89.60875, 24.520138888888887], [89.61652777777778, 24.53458333333333], [89.61819444444444, 24.530416666666664], [89.62875, 24.537916666666664], [89.62569444444445, 24.541805555555555], [89.63319444444444, 24.53486111111111], [89.63236111111111, 24.540694444444444], [89.6553003826258, 24.54122178401949], [89.62430555555555, 24.547916666666666], [89.62013888888889, 24.539027777777775], [89.61041666666667, 24.537916666666664], [89.61028061224489, 24.539107142857144]], [[89.65641329076766, 24.540981395860854], [89.64930555555556, 24.524305555555554], [89.65902777777778, 24.540416666666665], [89.65641329076766, 24.540981395860854]], [[89.64652777777778, 24.49625], [89.63625, 24.48875], [89.65430555555555, 24.494305555555552], [89.65875, 24.48763888888889], [89.65819444444445, 24.49458333333333], [89.64652777777778, 24.49625]], [[89.64986111111111, 24.239305555555553], [89.65597222222223, 24.238194444444442], [89.65819444444445, 24.24458333333333], [89.64986111111111, 24.239305555555553]], [[89.65375, 24.200416666666666], [89.65652777777778, 24.19625], [89.65208333333334, 24.206805555555555], [89.65375, 24.200416666666666]], [[89.65125, 24.48097222222222], [89.65347222222222, 24.485416666666666], [89.64430555555556, 24.477916666666665], [89.65597222222223, 24.48097222222222], [89.65125, 24.48097222222222]], [[89.64069444444445, 24.54875], [89.65513888888889, 24.560138888888886], [89.64902777777777, 24.560972222222222], [89.64069444444445, 24.54875]], [[89.64680555555556, 24.61875], [89.65013888888889, 24.607916666666664], [89.65458333333333, 24.615972222222222], [89.64680555555556, 24.61875]], [[89.64402777777778, 24.38347222222222], [89.63875, 24.371805555555554], [89.64152777777778, 24.375416666666666], [89.64569444444444, 24.37013888888889], [89.64597222222223, 24.38208333333333], [89.65458333333333, 24.389305555555556], [89.64402777777778, 24.38347222222222]], [[89.65069444444444, 24.51013888888889], [89.65430555555555, 24.50236111111111], [89.65069444444444, 24.512638888888887], [89.64013888888888, 24.51458333333333], [89.64180555555556, 24.506527777777777], [89.64763888888889, 24.50875], [89.64569444444444, 24.502916666666664], [89.65069444444444, 24.51013888888889]], [[89.64958333333334, 24.565416666666664], [89.64930555555556, 24.57069444444444], [89.64319444444445, 24.570138888888888], [89.64958333333334, 24.565416666666664]], [[89.64458333333333, 24.44875], [89.64236111111111, 24.439027777777778], [89.64902777777777, 24.44625], [89.64458333333333, 24.44875]], [[89.64097222222223, 24.59958333333333], [89.64791666666667, 24.595694444444444], [89.64652777777778, 24.602638888888887], [89.64097222222223, 24.59958333333333]], [[89.63208333333334, 24.59708333333333], [89.63791666666667, 24.584027777777777], [89.64347222222223, 24.58986111111111], [89.63763888888889, 24.580694444444443], [89.63813271604938, 24.580694444444443], [89.63708333333334, 24.580138888888886], [89.64250000000003, 24.580694444444443], [89.64375, 24.580694444444443], [89.64375660938532, 24.58082332745832], [89.64791666666667, 24.581249999999997], [89.64652777777778, 24.58513888888889], [89.64390676141258, 24.583751291989664], [89.64430555555556, 24.591527777777777], [89.63208333333334, 24.59708333333333]], [[89.64041666666667, 24.63375], [89.64569444444444, 24.62569444444444], [89.64680555555556, 24.63625], [89.64041666666667, 24.63375]], [[89.64180555555556, 24.524027777777775], [89.6451388888889, 24.52125], [89.64625000000001, 24.52875], [89.64180555555556, 24.524027777777775]], [[89.63875, 24.35486111111111], [89.64152777777778, 24.346527777777776], [89.64430555555556, 24.354027777777777], [89.63875, 24.35486111111111]], [[89.64430555555556, 24.408194444444444], [89.64097222222223, 24.411805555555553], [89.63652777777779, 24.405694444444443], [89.64430555555556, 24.408194444444444]], [[89.63958333333333, 24.328194444444442], [89.64430555555556, 24.33486111111111], [89.63930555555555, 24.33486111111111], [89.63958333333333, 24.328194444444442]], [[89.63236111111111, 24.56486111111111], [89.64208333333333, 24.565694444444443], [89.61986111111112, 24.56847222222222], [89.61680555555556, 24.56319444444444], [89.63236111111111, 24.56486111111111]], [[89.63513888888889, 24.652638888888887], [89.62875, 24.66097222222222], [89.63930555555555, 24.63208333333333], [89.64180555555556, 24.643194444444443], [89.63513888888889, 24.652638888888887]], [[89.6301388888889, 24.531805555555554], [89.62402777777778, 24.534305555555555], [89.6301388888889, 24.527083333333334], [89.63958333333333, 24.533749999999998], [89.6301388888889, 24.531805555555554]], [[89.63430555555556, 24.372916666666665], [89.63847222222222, 24.365416666666665], [89.63625, 24.379027777777775], [89.63430555555556, 24.372916666666665]], [[89.62736111111111, 24.49513888888889], [89.62680555555556, 24.490416666666665], [89.63847222222222, 24.49736111111111], [89.62736111111111, 24.49513888888889]], [[89.63597222222222, 24.44597222222222], [89.63041666666668, 24.440694444444443], [89.63736111111112, 24.440694444444443], [89.63597222222222, 24.44597222222222]], [[89.62875, 24.63986111111111], [89.63430555555556, 24.643472222222222], [89.62291666666667, 24.643194444444443], [89.62875, 24.63986111111111]], [[89.6251388888889, 24.323194444444443], [89.62791666666666, 24.31736111111111], [89.63208333333334, 24.324861111111108], [89.62569444444445, 24.329027777777778], [89.6251388888889, 24.323194444444443]], [[89.62458333333333, 24.389027777777777], [89.62819444444445, 24.385694444444443], [89.62986111111111, 24.398194444444442], [89.62458333333333, 24.389027777777777]], [[89.62013888888889, 24.480694444444442], [89.62736111111111, 24.47236111111111], [89.62458333333333, 24.480694444444442], [89.62986111111111, 24.483749999999997], [89.62013888888889, 24.480694444444442]], [[89.61958333333334, 24.60125], [89.62791666666666, 24.60347222222222], [89.62263888888889, 24.60736111111111], [89.61486111111111, 24.60125], [89.61847222222222, 24.607916666666664], [89.61291666666666, 24.61097222222222], [89.61069444444445, 24.581805555555555], [89.61819444444444, 24.594305555555554], [89.61402777777778, 24.59958333333333], [89.62402777777778, 24.600694444444443], [89.61958333333334, 24.60125]], [[89.62069444444445, 24.345972222222223], [89.62430555555555, 24.344027777777775], [89.62569444444445, 24.35597222222222], [89.62069444444445, 24.345972222222223]], [[89.61875, 24.516527777777778], [89.62263888888889, 24.507638888888888], [89.62430555555555, 24.519583333333333], [89.61875, 24.516527777777778]], [[89.61652777777778, 24.66069444444444], [89.62402777777778, 24.651527777777776], [89.62291666666667, 24.660138888888888], [89.61180555555556, 24.661805555555553], [89.61652777777778, 24.66069444444444]], [[89.61291666666666, 24.638749999999998], [89.62097222222222, 24.638749999999998], [89.62208333333334, 24.645138888888887], [89.61291666666666, 24.638749999999998]], [[89.61652777777778, 24.327916666666667], [89.62041666666667, 24.32069444444444], [89.62180555555555, 24.328194444444442], [89.61652777777778, 24.327916666666667]], [[89.6151388888889, 24.291527777777777], [89.61958333333334, 24.289027777777775], [89.61625000000001, 24.295416666666664], [89.6151388888889, 24.291527777777777]], [[89.61125, 24.57708333333333], [89.6126388888889, 24.569305555555555], [89.61875, 24.574583333333333], [89.6151388888889, 24.580138888888886], [89.61125, 24.57708333333333]], [[89.61236111111111, 24.343194444444443], [89.61819444444444, 24.34847222222222], [89.60736111111112, 24.34347222222222], [89.61236111111111, 24.343194444444443]], [[89.61069444444445, 24.631249999999998], [89.61791666666667, 24.631805555555555], [89.61208333333333, 24.631805555555555], [89.61319444444445, 24.637361111111108], [89.61069444444445, 24.631249999999998]], [[89.61041666666667, 24.483472222222222], [89.60902777777778, 24.479027777777777], [89.61486111111111, 24.48097222222222], [89.61069444444445, 24.488194444444442], [89.61041666666667, 24.483472222222222]], [[89.61347222222223, 24.652638888888887], [89.60458333333334, 24.65513888888889], [89.61375, 24.648194444444442], [89.61347222222223, 24.652638888888887]], [[89.61375, 24.450416666666666], [89.61125, 24.459305555555556], [89.60819444444445, 24.450694444444444], [89.61375, 24.450416666666666]], [[89.61319444444445, 24.67375], [89.60736111111112, 24.678472222222222], [89.60625, 24.67375], [89.61319444444445, 24.67375]], [[89.60819444444445, 24.43125], [89.61319444444445, 24.436805555555555], [89.60319444444444, 24.428472222222222], [89.60819444444445, 24.43125]], [[89.61125, 24.49986111111111], [89.60847222222222, 24.494305555555552], [89.61180555555556, 24.49986111111111], [89.60569444444445, 24.503194444444443], [89.61125, 24.49986111111111]], [[89.60763888888889, 24.41069444444444], [89.60930555555557, 24.414861111111108], [89.60347222222222, 24.41097222222222], [89.60763888888889, 24.41069444444444]], [[89.60541666666667, 24.326805555555556], [89.60125000000001, 24.325694444444444], [89.60791666666667, 24.32208333333333], [89.60541666666667, 24.326805555555556]], [[89.60263888888889, 24.33736111111111], [89.60736111111112, 24.335694444444442], [89.60041666666667, 24.341805555555553], [89.60263888888889, 24.33736111111111]], [[89.59625, 24.618194444444445], [89.60708333333334, 24.61875], [89.59375, 24.621805555555554], [89.59625, 24.618194444444445]], [[89.60125000000001, 24.502916666666664], [89.59930555555556, 24.49736111111111], [89.60486111111112, 24.50597222222222], [89.60125000000001, 24.502916666666664]], [[89.57902777777778, 24.66875], [89.59375, 24.664027777777775], [89.60402777777779, 24.67013888888889], [89.5976388888889, 24.675694444444442], [89.59736111111111, 24.67013888888889], [89.58597222222222, 24.667916666666667], [89.58625, 24.68125], [89.57847222222223, 24.68263888888889], [89.57902777777778, 24.66875]], [[89.59180555555555, 24.630138888888887], [89.60208333333334, 24.626527777777778], [89.60375, 24.63513888888889], [89.5976388888889, 24.62875], [89.59097222222222, 24.63513888888889], [89.59180555555555, 24.630138888888887]], [[89.60319444444444, 24.515694444444442], [89.59875000000001, 24.51347222222222], [89.60263888888889, 24.510416666666664], [89.60319444444444, 24.515694444444442]], [[89.59541666666667, 24.29875], [89.5951388888889, 24.286805555555553], [89.60263888888889, 24.286527777777778], [89.59736111111111, 24.29375], [89.60013888888889, 24.303472222222222], [89.59541666666667, 24.29875]], [[89.5951388888889, 24.52236111111111], [89.58708333333334, 24.517916666666665], [89.596977556035, 24.51866340045547], [89.59180555555555, 24.513749999999998], [89.59680555555556, 24.512916666666666], [89.5973304068317, 24.518690030704278], [89.60180555555556, 24.519027777777776], [89.60101101800124, 24.523695685909374], [89.5951388888889, 24.52236111111111]], [[89.60041666666667, 24.650694444444444], [89.58736111111111, 24.646527777777777], [89.59791666666666, 24.643472222222222], [89.60041666666667, 24.650694444444444]], [[89.59291666666667, 24.480416666666667], [89.59180555555555, 24.47625], [89.59958333333334, 24.483472222222222], [89.59291666666667, 24.480416666666667]], [[89.59625, 24.47375], [89.59208333333333, 24.468194444444443], [89.5976388888889, 24.468194444444443], [89.59625, 24.47375]], [[89.58819444444444, 24.34236111111111], [89.59486111111111, 24.343194444444443], [89.58902777777779, 24.34708333333333], [89.58819444444444, 24.34236111111111]], [[89.58250644938595, 24.375880659109075], [89.58680555555556, 24.369305555555552], [89.59097222222222, 24.37847222222222], [89.58250644938595, 24.375880659109075]], [[89.5801388888889, 24.66708333333333], [89.57541666666667, 24.664305555555554], [89.581027984304, 24.658184118133004], [89.58097222222223, 24.658194444444444], [89.57958333333333, 24.654027777777777], [89.57541666666667, 24.658472222222223], [89.58375000000001, 24.648194444444442], [89.58069444444445, 24.65236111111111], [89.58708333333334, 24.65375], [89.58208333333333, 24.65625], [89.58847222222222, 24.656805555555554], [89.58145934428269, 24.65810423665547], [89.5801388888889, 24.66708333333333]], [[89.58597222222222, 24.49736111111111], [89.58791666666667, 24.491805555555555], [89.58597222222222, 24.50263888888889], [89.58597222222222, 24.49736111111111]], [[89.58208333333333, 24.644305555555555], [89.58152777777778, 24.63458333333333], [89.58736111111111, 24.63097222222222], [89.58625, 24.645138888888887], [89.58208333333333, 24.644305555555555]], [[89.58402777777778, 24.252916666666664], [89.58513888888889, 24.266805555555553], [89.57986111111111, 24.252916666666664], [89.58402777777778, 24.252916666666664]], [[89.58125, 24.390416666666667], [89.57680555555555, 24.386805555555554], [89.58513888888889, 24.386805555555554], [89.58430555555556, 24.393194444444443], [89.58125, 24.390416666666667]], [[89.56847222222223, 24.634305555555553], [89.56041666666667, 24.642638888888886], [89.56736111111111, 24.62763888888889], [89.58069444444445, 24.626527777777778], [89.56847222222223, 24.634305555555553]], [[89.56180555555555, 24.30597222222222], [89.57763888888888, 24.306527777777777], [89.56958333333334, 24.314027777777778], [89.56180555555555, 24.30597222222222]], [[89.57458333333334, 24.344305555555554], [89.57736111111112, 24.349305555555553], [89.57069444444444, 24.34708333333333], [89.57458333333334, 24.344305555555554]], [[89.57324541284405, 24.283632772680942], [89.57597222222222, 24.27736111111111], [89.57458333333334, 24.285416666666666], [89.57324541284405, 24.283632772680942]], [[89.57263888888889, 24.429583333333333], [89.56569444444445, 24.42486111111111], [89.57541666666667, 24.422916666666666], [89.57263888888889, 24.429583333333333]], [[89.57291666666667, 24.411527777777778], [89.57458333333334, 24.41597222222222], [89.56930555555556, 24.414861111111108], [89.57291666666667, 24.411527777777778]], [[89.5723611111111, 24.31986111111111], [89.56708333333333, 24.32208333333333], [89.56930555555556, 24.314305555555553], [89.5723611111111, 24.31986111111111]], [[89.56708333333333, 24.226527777777775], [89.5723611111111, 24.222638888888888], [89.57208333333334, 24.228749999999998], [89.56708333333333, 24.226527777777775]], [[89.56958333333334, 24.669027777777778], [89.55708333333334, 24.66263888888889], [89.5676388888889, 24.664027777777775], [89.56597222222223, 24.65597222222222], [89.57152777777777, 24.654305555555553], [89.56958333333334, 24.669027777777778]], [[89.57041666666667, 24.64736111111111], [89.56791666666668, 24.65486111111111], [89.56375, 24.643472222222222], [89.56986111111111, 24.639027777777777], [89.57041666666667, 24.64736111111111]], [[89.56458333333333, 24.32986111111111], [89.5626388888889, 24.324027777777776], [89.56819444444444, 24.324305555555554], [89.56458333333333, 24.32986111111111]], [[89.56125, 24.385694444444443], [89.56597222222223, 24.38458333333333], [89.55930555555555, 24.39236111111111], [89.56125, 24.385694444444443]], [[89.55819444444445, 24.303194444444443], [89.55402777777778, 24.299027777777777], [89.56180555555555, 24.29847222222222], [89.55819444444445, 24.303194444444443]], [[89.55763888888889, 24.427083333333332], [89.56013888888889, 24.430416666666666], [89.55319444444444, 24.427083333333332], [89.55763888888889, 24.427083333333332]], [[89.55541666666667, 24.34736111111111], [89.55347222222223, 24.340694444444445], [89.55958333333334, 24.34958333333333], [89.55541666666667, 24.34736111111111]], [[89.55097222222223, 24.41263888888889], [89.55458333333334, 24.407083333333333], [89.55736111111112, 24.415138888888887], [89.55125, 24.41736111111111], [89.55097222222223, 24.41263888888889]], [[89.55041666666666, 24.444027777777777], [89.54708333333333, 24.44097222222222], [89.55458333333334, 24.44097222222222], [89.55041666666666, 24.444027777777777]], [[89.5501388888889, 24.519027777777776], [89.54819444444445, 24.523194444444442], [89.55097222222223, 24.513749999999998], [89.5501388888889, 24.519027777777776]], [[89.54291666666667, 24.42625], [89.54513888888889, 24.430416666666666], [89.53458333333333, 24.422638888888887], [89.54319444444445, 24.420972222222222], [89.54291666666667, 24.42625]], [[89.53652777777778, 24.521805555555556], [89.54347222222222, 24.52986111111111], [89.53486111111111, 24.53569444444444], [89.53708333333334, 24.526805555555555], [89.52597222222222, 24.520416666666666], [89.53652777777778, 24.521805555555556]], [[89.53125, 24.475416666666664], [89.53458333333333, 24.46486111111111], [89.53958333333334, 24.46847222222222], [89.53125, 24.475416666666664]], [[89.52180555555556, 24.531805555555554], [89.51708333333333, 24.52958333333333], [89.52486111111111, 24.52986111111111], [89.52819444444445, 24.540694444444444], [89.52180555555556, 24.531805555555554]], [[89.52513888888889, 24.434305555555554], [89.52791666666667, 24.439027777777778], [89.52152777777778, 24.436249999999998], [89.52513888888889, 24.434305555555554]], [[89.52208333333334, 24.50597222222222], [89.51513888888888, 24.494027777777777], [89.51930555555556, 24.492083333333333], [89.52208333333334, 24.50597222222222]], [[89.51291666666667, 24.49375], [89.51347222222222, 24.501527777777778], [89.51125, 24.486805555555556], [89.51291666666667, 24.49375]], [[89.50708333333334, 24.485416666666666], [89.50541666666668, 24.480416666666667], [89.51291666666667, 24.483749999999997], [89.50875, 24.490416666666665], [89.50708333333334, 24.485416666666666]], [[89.50958333333334, 24.414861111111108], [89.50541666666668, 24.41097222222222], [89.51013888888889, 24.40958333333333], [89.50847222222222, 24.426527777777775], [89.50958333333334, 24.414861111111108]], [[89.49625, 24.524305555555554], [89.50125, 24.52236111111111], [89.50041666666667, 24.527083333333334], [89.49625, 24.524305555555554]], [[89.48597222222223, 24.54097222222222], [89.48569444444445, 24.545416666666664], [89.47708333333334, 24.542638888888888], [89.47791666666667, 24.535416666666666], [89.48097222222222, 24.542638888888888], [89.48597222222223, 24.54097222222222]], [[89.44847222222222, 24.48597222222222], [89.44319444444444, 24.47625], [89.44819444444445, 24.47597222222222], [89.44847222222222, 24.48597222222222]], [[89.40569444444445, 24.489305555555553], [89.41263888888889, 24.490972222222222], [89.40041666666667, 24.491249999999997], [89.40569444444445, 24.489305555555553]], [[89.37375, 24.541805555555555], [89.37708333333333, 24.539027777777775], [89.37847222222223, 24.546805555555554], [89.37375, 24.541805555555555]], [[89.35208333333334, 24.507638888888888], [89.3476388888889, 24.510694444444443], [89.34847222222223, 24.505138888888887], [89.35208333333334, 24.507638888888888]], [[89.30763888888889, 24.366805555555555], [89.31319444444445, 24.364027777777775], [89.30152777777778, 24.37125], [89.30763888888889, 24.366805555555555]]], [[[89.78319444444445, 24.73708333333333], [89.79069444444444, 24.73763888888889], [89.78791666666667, 24.728194444444444], [89.78708333333334, 24.733194444444443], [89.78097222222223, 24.731805555555553], [89.78319444444445, 24.73708333333333]]], [[[89.71097222222222, 24.42986111111111], [89.70458333333333, 24.428194444444443], [89.70541666666666, 24.437083333333334], [89.71097222222222, 24.42986111111111]]], [[[89.58986111111112, 24.695416666666667], [89.57736111111112, 24.695138888888888], [89.59486111111111, 24.70208333333333], [89.59625, 24.69708333333333], [89.58986111111112, 24.695416666666667]]], [[[89.56208333333333, 24.620416666666664], [89.56847222222223, 24.620416666666664], [89.54930555555556, 24.617638888888887], [89.54986111111111, 24.623749999999998], [89.56208333333333, 24.620416666666664]]]]}}