{"type": "Feature", "properties": {}, "geometry": {"type": "MultiPolygon", "coordinates": [[[[89.80259080432364, 24.060237442378], [89.79736111111112, 24.05736111111111], [89.80375000000001, 24.068194444444444], [89.79847222222223, 24.077916666666667], [89.80708333333334, 24.077638888888888], [89.81402777777778, 24.091805555555553], [89.82458333333334, 24.089305555555555], [89.81967243186584, 24.07129891684138], [89.81152777777778, 24.065416666666664], [89.80402777777778, 24.069305555555555], [89.80847222222222, 24.06347222222222], [89.80281449553001, 24.060360472541507], [89.80958333333334, 24.058194444444442], [89.79958333333333, 24.049027777777777], [89.80259080432364, 24.060237442378]]], [[[89.8126388888889, 24.11125], [89.81625, 24.114027777777775], [89.81819444444444, 24.10458333333333], [89.81041666666667, 24.10347222222222], [89.80513888888889, 24.116527777777776], [89.8126388888889, 24.11125]]], [[[89.81152777777778, 24.100416666666664], [89.81041666666667, 24.08986111111111], [89.79680555555557, 24.085416666666664], [89.81041666666667, 24.09125], [89.80597222222222, 24.10013888888889], [89.81152777777778, 24.100416666666664]]], [[[89.43486111111112, 24.34263888888889], [89.42930555555556, 24.34875], [89.43597222222222, 24.34986111111111], [89.43180555555556, 24.35625], [89.43652777777778, 24.360694444444444], [89.44847222222222, 24.339583333333334], [89.45236111111112, 24.346527777777776], [89.45791666666666, 24.339583333333334], [89.45902777777778, 24.34847222222222], [89.46597222222222, 24.346527777777776], [89.46486111111112, 24.337916666666665], [89.44930555555555, 24.32597222222222], [89.46208333333334, 24.325694444444444], [89.47152777777778, 24.334305555555556], [89.47791666666667, 24.326249999999998], [89.47152777777778, 24.32375], [89.48986111111111, 24.32347222222222], [89.4701388888889, 24.321527777777778], [89.47597222222223, 24.317083333333333], [89.47347222222223, 24.310138888888886], [89.47763888888889, 24.31625], [89.48541666666667, 24.311805555555555], [89.47597222222223, 24.30736111111111], [89.47458333333334, 24.291805555555555], [89.48263888888889, 24.289305555555554], [89.49041666666668, 24.29486111111111], [89.48625, 24.29875], [89.50125, 24.303194444444443], [89.48958333333334, 24.291249999999998], [89.49319444444444, 24.282638888888886], [89.48708333333333, 24.267083333333332], [89.49263888888889, 24.263194444444444], [89.49268831331331, 24.264220001251257], [89.49569444444445, 24.25986111111111], [89.48958333333334, 24.257638888888888], [89.4889206231454, 24.252116303989446], [89.48902777777778, 24.25208333333333], [89.49032596371882, 24.243428760393044], [89.49625, 24.242638888888887], [89.50041666666667, 24.249027777777776], [89.49763888888889, 24.23736111111111], [89.50319444444445, 24.244027777777777], [89.50069444444445, 24.25819444444444], [89.50458333333333, 24.260416666666664], [89.50625000000001, 24.254027777777775], [89.51013888888889, 24.25958333333333], [89.50319444444445, 24.261805555555554], [89.51013888888889, 24.264027777777777], [89.50180555555556, 24.26347222222222], [89.51375, 24.27958333333333], [89.51819444444445, 24.267638888888886], [89.50875, 24.267916666666665], [89.52347222222222, 24.261805555555554], [89.51458333333333, 24.25847222222222], [89.51736111111111, 24.253194444444443], [89.51180555555555, 24.25597222222222], [89.52132936507937, 24.250257936507936], [89.52597222222222, 24.255416666666665], [89.53319444444445, 24.25347222222222], [89.5098611111111, 24.231527777777778], [89.5176388888889, 24.220416666666665], [89.51819444444445, 24.23708333333333], [89.53291666666667, 24.24375], [89.53625000000001, 24.23875], [89.53763888888889, 24.245694444444442], [89.54819444444445, 24.248194444444444], [89.54402777777779, 24.24347222222222], [89.54986111111111, 24.241805555555555], [89.55041666666666, 24.23236111111111], [89.53840864895591, 24.230195730868186], [89.54041666666667, 24.222916666666666], [89.53569444444445, 24.213194444444444], [89.54208333333334, 24.20958333333333], [89.54041666666667, 24.219583333333333], [89.5501388888889, 24.213749999999997], [89.55291666666668, 24.217916666666664], [89.55125, 24.210694444444442], [89.53097222222223, 24.19708333333333], [89.54069444444444, 24.201527777777777], [89.54152777777779, 24.19597222222222], [89.54402777777779, 24.201805555555556], [89.54541666666667, 24.19708333333333], [89.55069444444445, 24.20375], [89.55791666666667, 24.200694444444444], [89.5526388888889, 24.196527777777778], [89.56097222222222, 24.198194444444443], [89.57541666666667, 24.213472222222222], [89.57736111111112, 24.20236111111111], [89.56791666666668, 24.19569444444444], [89.57208333333334, 24.18736111111111], [89.55763888888889, 24.183194444444442], [89.58541666666667, 24.17625], [89.57291666666667, 24.168194444444442], [89.58291666666666, 24.169583333333332], [89.58513888888889, 24.154305555555553], [89.57930555555556, 24.14597222222222], [89.58708333333334, 24.142916666666665], [89.58125, 24.13513888888889], [89.59097222222222, 24.131249999999998], [89.58625, 24.162916666666664], [89.59097222222222, 24.16125], [89.59625, 24.171249999999997], [89.60125000000001, 24.171249999999997], [89.59986111111111, 24.165416666666665], [89.60652777777779, 24.175416666666667], [89.59819444444445, 24.197916666666664], [89.60208333333334, 24.192916666666665], [89.60375, 24.20097222222222], [89.60402777777779, 24.192083333333333], [89.61347222222223, 24.194027777777777], [89.61097222222223, 24.18736111111111], [89.61930555555556, 24.19125], [89.61791666666667, 24.198194444444443], [89.62319444444445, 24.192083333333333], [89.61875, 24.187083333333334], [89.6251388888889, 24.191527777777775], [89.62097222222222, 24.199583333333333], [89.60180555555556, 24.20486111111111], [89.60208333333334, 24.221527777777776], [89.57986111111111, 24.228194444444444], [89.57402777777779, 24.239583333333332], [89.58458333333334, 24.271805555555556], [89.5801388888889, 24.28486111111111], [89.58886904761906, 24.28797902494331], [89.5826388888889, 24.282638888888886], [89.58791666666667, 24.273194444444442], [89.57875, 24.251527777777778], [89.57958333333333, 24.23263888888889], [89.58680555555556, 24.228749999999998], [89.59278069153068, 24.23397824397823], [89.59097222222222, 24.230694444444442], [89.59958333333334, 24.227916666666665], [89.60930555555557, 24.231527777777778], [89.59847222222223, 24.231805555555553], [89.60430555555556, 24.23986111111111], [89.60375, 24.234583333333333], [89.61319444444445, 24.241249999999997], [89.60819444444445, 24.23263888888889], [89.62013888888889, 24.24236111111111], [89.61430555555556, 24.234027777777776], [89.61986111111112, 24.233194444444443], [89.61291666666666, 24.230694444444442], [89.61958333333334, 24.231805555555553], [89.6251388888889, 24.236805555555556], [89.62152777777779, 24.24486111111111], [89.60152777777778, 24.24986111111111], [89.59357466236956, 24.235419927869884], [89.5951388888889, 24.248194444444444], [89.58958333333334, 24.245694444444442], [89.58569444444444, 24.25208333333333], [89.59875000000001, 24.255416666666665], [89.59069444444445, 24.262916666666666], [89.60347222222222, 24.25736111111111], [89.59791666666666, 24.251805555555553], [89.60930555555557, 24.250138888888888], [89.60458333333334, 24.25208333333333], [89.61819444444444, 24.267638888888886], [89.61486111111111, 24.283194444444444], [89.62263888888889, 24.26458333333333], [89.63152777777778, 24.28625], [89.62402777777778, 24.26013888888889], [89.61208333333333, 24.25263888888889], [89.61958333333334, 24.252916666666664], [89.62597222222223, 24.237916666666667], [89.63399529569895, 24.24483310931902], [89.62541666666667, 24.233472222222222], [89.60799915201973, 24.225656670778083], [89.60458333333334, 24.21736111111111], [89.61736111111111, 24.222638888888888], [89.60347222222222, 24.215416666666666], [89.60930555555557, 24.20486111111111], [89.61652777777778, 24.205138888888886], [89.60569444444445, 24.214027777777776], [89.62263888888889, 24.20208333333333], [89.6276388888889, 24.207916666666666], [89.62291666666667, 24.214583333333334], [89.63236111111111, 24.214305555555555], [89.63097222222223, 24.204027777777778], [89.64402777777778, 24.213749999999997], [89.64458333333333, 24.19708333333333], [89.62875, 24.18736111111111], [89.62902777777778, 24.199027777777776], [89.63291666666667, 24.195416666666667], [89.64180555555556, 24.200416666666666], [89.63819444444445, 24.205694444444443], [89.62597222222223, 24.200416666666666], [89.62708333333333, 24.18819444444444], [89.60935706401766, 24.180424025018393], [89.62680555555556, 24.182916666666664], [89.62597222222223, 24.173194444444444], [89.62875, 24.187083333333334], [89.6276388888889, 24.172916666666666], [89.61847222222222, 24.167638888888888], [89.60819444444445, 24.17236111111111], [89.59041666666667, 24.15458333333333], [89.59819444444445, 24.145138888888887], [89.59736111111111, 24.157638888888886], [89.60180555555556, 24.151249999999997], [89.60569444444445, 24.15513888888889], [89.60263888888889, 24.142083333333332], [89.61541666666668, 24.135416666666664], [89.60847222222222, 24.140138888888888], [89.60986111111112, 24.14986111111111], [89.61875, 24.149583333333332], [89.61347222222223, 24.15736111111111], [89.62041666666667, 24.16236111111111], [89.62291666666667, 24.154305555555553], [89.63291666666667, 24.16069444444444], [89.62430555555555, 24.151527777777776], [89.6251388888889, 24.140138888888888], [89.62930555555556, 24.146805555555556], [89.63958333333333, 24.145138888888887], [89.6420704134367, 24.13320090439277], [89.64854847494553, 24.149858776844077], [89.64832326892109, 24.14763888888889], [89.6601388888889, 24.14763888888889], [89.65177083333334, 24.13717881944445], [89.63986111111112, 24.12569444444444], [89.61680555555556, 24.134027777777778], [89.6251388888889, 24.12986111111111], [89.62236111111112, 24.124305555555555], [89.6276388888889, 24.12569444444444], [89.61819444444444, 24.11875], [89.63319444444444, 24.122916666666665], [89.62236111111112, 24.116805555555555], [89.62708333333333, 24.11263888888889], [89.62930555555556, 24.119305555555552], [89.64208333333333, 24.123194444444444], [89.6301388888889, 24.108194444444443], [89.63902777777778, 24.10736111111111], [89.63986111111112, 24.114583333333332], [89.65180555555555, 24.110138888888887], [89.65402777777778, 24.094027777777775], [89.64986111111111, 24.096249999999998], [89.65949736632876, 24.09070915324985], [89.6601388888889, 24.099305555555553], [89.6608442212232, 24.08993471168555], [89.66097222222223, 24.08986111111111], [89.66087877492878, 24.089475641025647], [89.66208333333334, 24.07347222222222], [89.60152777777778, 24.10013888888889], [89.59593439256388, 24.10905587980961], [89.60180555555556, 24.099305555555553], [89.58097222222223, 24.107916666666664], [89.57847222222223, 24.122916666666665], [89.58097222222223, 24.127916666666664], [89.58564682539682, 24.125456349206353], [89.58236111111111, 24.130694444444444], [89.55763888888889, 24.13597222222222], [89.53291666666667, 24.130694444444444], [89.52180555555556, 24.154305555555553], [89.52930555555555, 24.158749999999998], [89.52319444444444, 24.16847222222222], [89.53347222222223, 24.166527777777777], [89.5351388888889, 24.172916666666666], [89.5176388888889, 24.179027777777776], [89.51708333333333, 24.18875], [89.52513888888889, 24.19125], [89.52236111111111, 24.19736111111111], [89.51041666666667, 24.199583333333333], [89.50097222222223, 24.21736111111111], [89.48652777777778, 24.215138888888887], [89.48597222222223, 24.20375], [89.47986111111112, 24.206249999999997], [89.48486111111112, 24.212638888888886], [89.47875, 24.20486111111111], [89.46875, 24.205972222222222], [89.47402777777778, 24.207083333333333], [89.47125, 24.215416666666666], [89.46402777777779, 24.21597222222222], [89.46152777777777, 24.22458333333333], [89.47375000000001, 24.219305555555554], [89.47875, 24.227361111111108], [89.47125, 24.234583333333333], [89.44680555555556, 24.23097222222222], [89.45652777777778, 24.233749999999997], [89.46319444444444, 24.250138888888888], [89.46291666666667, 24.261527777777776], [89.45208333333333, 24.268472222222222], [89.4401388888889, 24.260694444444443], [89.43930555555556, 24.25236111111111], [89.4251388888889, 24.24986111111111], [89.42930555555556, 24.26736111111111], [89.41763888888889, 24.29347222222222], [89.4226388888889, 24.297083333333333], [89.42680555555556, 24.28736111111111], [89.42680555555556, 24.29875], [89.41847222222222, 24.303194444444443], [89.4251388888889, 24.30486111111111], [89.41930555555555, 24.31486111111111], [89.42486111111111, 24.312916666666666], [89.42152777777778, 24.32236111111111], [89.42791666666668, 24.324583333333333], [89.41930555555555, 24.332638888888887], [89.43486111111112, 24.34263888888889]], [[89.64155753968254, 24.1318820861678], [89.62486111111112, 24.13347222222222], [89.63958333333333, 24.126805555555553], [89.64155753968254, 24.1318820861678]], [[89.60930760180071, 24.18040234295069], [89.60680555555555, 24.179305555555555], [89.61041666666667, 24.172638888888887], [89.60930760180071, 24.18040234295069]], [[89.52120782431646, 24.25012289121582], [89.51041666666667, 24.249583333333334], [89.51736111111111, 24.24625], [89.51347222222222, 24.241527777777776], [89.52120782431646, 24.25012289121582]], [[89.49049395344608, 24.242308828877977], [89.49152777777778, 24.235416666666666], [89.49763888888889, 24.234583333333333], [89.49569444444445, 24.241805555555555], [89.49049395344608, 24.242308828877977]], [[89.48820238095237, 24.2523373015873], [89.48875, 24.25708333333333], [89.48180555555555, 24.254305555555554], [89.48820238095237, 24.2523373015873]], [[89.61791666666667, 24.10986111111111], [89.61819444444444, 24.103194444444444], [89.62208333333334, 24.116249999999997], [89.61791666666667, 24.10986111111111]], [[89.60791666666667, 24.115138888888886], [89.59736111111111, 24.123472222222222], [89.60708333333334, 24.119027777777777], [89.60763888888889, 24.136527777777776], [89.61430555555556, 24.13375], [89.61291666666666, 24.11847222222222], [89.6151388888889, 24.13458333333333], [89.60708333333334, 24.138749999999998], [89.59986111111111, 24.126805555555553], [89.59319444444445, 24.126527777777778], [89.61375, 24.106527777777778], [89.60791666666667, 24.115138888888886]], [[89.59486111111111, 24.140138888888888], [89.59958333333334, 24.13958333333333], [89.59069444444445, 24.14597222222222], [89.59486111111111, 24.140138888888888]], [[89.56680555555556, 24.15347222222222], [89.57569444444445, 24.157638888888886], [89.56291666666667, 24.160138888888888], [89.56680555555556, 24.15347222222222]], [[89.5626388888889, 24.144305555555555], [89.55958333333334, 24.13847222222222], [89.56930555555556, 24.137083333333333], [89.5626388888889, 24.144305555555555]], [[89.55847222222222, 24.18208333333333], [89.55486111111111, 24.17375], [89.56069444444445, 24.176805555555553], [89.55847222222222, 24.18208333333333]], [[89.52819444444445, 24.226527777777775], [89.5326388888889, 24.228194444444444], [89.52902777777778, 24.231527777777778], [89.52819444444445, 24.226527777777775]], [[89.49875, 24.222638888888888], [89.49958333333333, 24.230416666666667], [89.50597222222223, 24.22986111111111], [89.49986111111112, 24.23708333333333], [89.49708333333334, 24.22319444444444], [89.50208333333333, 24.219583333333333], [89.49875, 24.222638888888888]], [[89.48236111111112, 24.274583333333332], [89.48819444444445, 24.27736111111111], [89.48430555555557, 24.284305555555555], [89.48041666666667, 24.27347222222222], [89.47291666666666, 24.275972222222222], [89.47736111111111, 24.26986111111111], [89.48236111111112, 24.274583333333332]], [[89.47708333333334, 24.269305555555555], [89.4701388888889, 24.269027777777776], [89.48680555555556, 24.26625], [89.47708333333334, 24.269305555555555]], [[89.4701388888889, 24.29736111111111], [89.46125, 24.29208333333333], [89.4701388888889, 24.283472222222223], [89.4701388888889, 24.27097222222222], [89.47208333333333, 24.277916666666666], [89.47930555555556, 24.276805555555555], [89.47152777777778, 24.287916666666664], [89.47652777777778, 24.289861111111108], [89.46986111111111, 24.294027777777778], [89.46875, 24.286527777777778], [89.46569444444445, 24.289305555555554], [89.4701388888889, 24.29736111111111]], [[89.46819444444445, 24.31375], [89.46375, 24.306527777777777], [89.47458333333334, 24.316805555555554], [89.46819444444445, 24.31375]], [[89.44680555555556, 24.27208333333333], [89.44930555555555, 24.282916666666665], [89.44347222222223, 24.28625], [89.44680555555556, 24.27208333333333]], [[89.42680555555556, 24.31625], [89.43347222222222, 24.32263888888889], [89.42791666666668, 24.32375], [89.42680555555556, 24.31625]], [[89.43097222222222, 24.28875], [89.43319444444445, 24.285416666666666], [89.43208333333334, 24.292916666666667], [89.43097222222222, 24.28875]]], [[[89.66791391639165, 24.14976760176018], [89.67152777777778, 24.152638888888887], [89.66509920634918, 24.153194444444445], [89.67736111111111, 24.153194444444445], [89.68930555555556, 24.166527777777777], [89.69499691358025, 24.18685405643738], [89.69569444444444, 24.18486111111111], [89.69632643549589, 24.191602348993232], [89.70680555555556, 24.229027777777777], [89.71063213757894, 24.228845559586187], [89.70628789392366, 24.236332447587845], [89.71097222222222, 24.250138888888888], [89.70236111111112, 24.246527777777775], [89.70486111111111, 24.243194444444445], [89.70537250594911, 24.23791003111844], [89.70069444444445, 24.24597222222222], [89.70847222222223, 24.25208333333333], [89.70263888888888, 24.253194444444443], [89.70458333333333, 24.27875], [89.71958333333333, 24.301527777777775], [89.71513888888889, 24.33625], [89.72708333333334, 24.344305555555554], [89.72222061842443, 24.376156338208876], [89.73069444444445, 24.381805555555555], [89.74569444444445, 24.379583333333333], [89.75402777777778, 24.39708333333333], [89.74569444444445, 24.41236111111111], [89.74541666666667, 24.40736111111111], [89.73569444444445, 24.40958333333333], [89.73013888888889, 24.396527777777777], [89.73319444444445, 24.40625], [89.71597222222222, 24.43958333333333], [89.72069444444445, 24.465416666666666], [89.71347222222222, 24.47958333333333], [89.69708333333334, 24.481527777777778], [89.68819444444445, 24.49236111111111], [89.70458333333333, 24.481805555555553], [89.68597222222222, 24.528194444444445], [89.69347222222223, 24.52208333333333], [89.66791666666667, 24.558194444444442], [89.66319444444444, 24.58513888888889], [89.64875, 24.603194444444444], [89.65273416233606, 24.608203105666913], [89.66180555555556, 24.609027777777776], [89.66291666666667, 24.650972222222222], [89.65097222222222, 24.669583333333332], [89.63763888888889, 24.67597222222222], [89.63208333333334, 24.691805555555554], [89.63736111111112, 24.69597222222222], [89.65986111111111, 24.678194444444443], [89.66458333333334, 24.685972222222222], [89.66152777777778, 24.677638888888886], [89.66847222222222, 24.67236111111111], [89.66708333333334, 24.68986111111111], [89.65486111111112, 24.693194444444444], [89.65402777777778, 24.71236111111111], [89.64708333333334, 24.71763888888889], [89.65513888888889, 24.712083333333332], [89.65652777777778, 24.692916666666665], [89.66652777777779, 24.692083333333333], [89.65597222222223, 24.747916666666665], [89.66652777777779, 24.74736111111111], [89.66597222222222, 24.75597222222222], [89.72319444444445, 24.734305555555554], [89.72319444444445, 24.762916666666666], [89.70652777777778, 24.77125], [89.72125, 24.765416666666667], [89.70861742424243, 24.774753787878787], [89.69541666666667, 24.77958333333333], [89.71986111111111, 24.775972222222222], [89.73041666666667, 24.765694444444442], [89.73875, 24.742638888888887], [89.73152777777779, 24.720694444444444], [89.74319444444444, 24.69763888888889], [89.79430555555555, 24.67513888888889], [89.78708333333334, 24.677638888888886], [89.79125, 24.67236111111111], [89.78236111111111, 24.671527777777776], [89.78430555555556, 24.626805555555553], [89.76375, 24.645138888888887], [89.74486111111112, 24.679583333333333], [89.71708333333333, 24.709027777777777], [89.69819444444445, 24.682916666666664], [89.70180555555555, 24.674027777777777], [89.70736111111111, 24.69347222222222], [89.70402777777778, 24.677083333333332], [89.71486111111112, 24.624583333333334], [89.75180555555556, 24.597638888888888], [89.74961423792904, 24.594776759744036], [89.74680555555555, 24.594027777777775], [89.74041666666668, 24.586805555555554], [89.74824006699006, 24.592981924231914], [89.73819444444445, 24.57986111111111], [89.75847222222222, 24.562083333333334], [89.76569444444445, 24.540138888888887], [89.76013888888889, 24.549027777777777], [89.75902777777777, 24.538194444444443], [89.75208333333333, 24.53736111111111], [89.75763888888889, 24.54847222222222], [89.75402777777778, 24.55875], [89.74458333333334, 24.568194444444444], [89.73569444444445, 24.56625], [89.74680555555555, 24.54375], [89.71930555555556, 24.492916666666666], [89.73041666666667, 24.47458333333333], [89.74291666666667, 24.46736111111111], [89.74236111111111, 24.455694444444443], [89.7551388888889, 24.455416666666665], [89.74680555555555, 24.434027777777775], [89.73736111111111, 24.44125], [89.73125, 24.434305555555554], [89.74069444444444, 24.41708333333333], [89.74152777777778, 24.428194444444443], [89.74875, 24.425694444444442], [89.76597222222223, 24.37569444444444], [89.76263888888889, 24.38347222222222], [89.75708333333334, 24.365972222222222], [89.75597222222223, 24.394027777777776], [89.74708333333334, 24.379027777777775], [89.73097222222222, 24.381249999999998], [89.72291666666666, 24.375138888888888], [89.72847222222222, 24.345138888888886], [89.71625, 24.332638888888887], [89.72041666666667, 24.300694444444442], [89.70813049560353, 24.27542665867307], [89.70875000000001, 24.27263888888889], [89.71569444444445, 24.27986111111111], [89.71180555555556, 24.27208333333333], [89.72069444444445, 24.276527777777776], [89.72911819172116, 24.302242374727733], [89.72375000000001, 24.279305555555553], [89.70902777777778, 24.26458333333333], [89.70652777777778, 24.255138888888887], [89.71458333333334, 24.248194444444444], [89.71375, 24.239027777777775], [89.72541666666667, 24.245694444444442], [89.7226388888889, 24.261527777777776], [89.72680555555556, 24.24625], [89.73819444444445, 24.268194444444443], [89.74763888888889, 24.269305555555555], [89.7376388888889, 24.265694444444442], [89.73291666666667, 24.252916666666664], [89.74180555555556, 24.25597222222222], [89.74791666666667, 24.268194444444443], [89.74291666666667, 24.255416666666665], [89.75347222222223, 24.261527777777776], [89.76152777777779, 24.294027777777778], [89.75680555555556, 24.314027777777778], [89.73019276796153, 24.305522660093086], [89.73125, 24.30875], [89.75597222222223, 24.316527777777775], [89.75486111111111, 24.34708333333333], [89.76458333333333, 24.340416666666666], [89.77263888888889, 24.32597222222222], [89.77402777777777, 24.301805555555553], [89.78791666666667, 24.285416666666666], [89.77819444444445, 24.275972222222222], [89.77541666666667, 24.237916666666667], [89.78152777777778, 24.209305555555556], [89.78625000000001, 24.21736111111111], [89.78347222222223, 24.205694444444443], [89.79541666666667, 24.171527777777776], [89.78013888888889, 24.166249999999998], [89.79791666666667, 24.155694444444443], [89.78847222222223, 24.136805555555554], [89.78680555555556, 24.104305555555555], [89.79263888888889, 24.080416666666665], [89.78291666666667, 24.051805555555553], [89.78680555555556, 24.047083333333333], [89.79680555555557, 24.054583333333333], [89.79791666666667, 24.049027777777777], [89.78958333333334, 24.045416666666664], [89.79819444444445, 24.047083333333333], [89.78541666666666, 24.044027777777778], [89.78458333333333, 24.03458333333333], [89.76347222222222, 24.023194444444442], [89.77208333333334, 24.04236111111111], [89.76402777777778, 24.046805555555554], [89.75847222222222, 24.02236111111111], [89.74819444444445, 24.026527777777776], [89.72180555555556, 24.01347222222222], [89.70652777777778, 24.023194444444442], [89.71125, 24.026805555555555], [89.70569444444445, 24.032083333333333], [89.71208333333334, 24.030416666666664], [89.70708333333333, 24.038194444444443], [89.71375, 24.04236111111111], [89.70458333333333, 24.060694444444444], [89.71291666666667, 24.07208333333333], [89.70727564102565, 24.075844017094013], [89.70375, 24.06597222222222], [89.70402777777778, 24.02375], [89.6973611111111, 24.035138888888888], [89.70236111111112, 24.03847222222222], [89.68291666666667, 24.034305555555555], [89.68486111111112, 24.060138888888886], [89.66319444444444, 24.07208333333333], [89.67319444444445, 24.08625], [89.66736111111112, 24.12097222222222], [89.67652777777778, 24.152638888888887], [89.66791391639165, 24.14976760176018]], [[89.71197929345621, 24.226523865414713], [89.70819444444444, 24.213749999999997], [89.71375, 24.22347222222222], [89.71197929345621, 24.226523865414713]], [[89.70756526104418, 24.076654953145916], [89.71041666666667, 24.080694444444443], [89.71486111111112, 24.074305555555554], [89.71069444444444, 24.085416666666664], [89.70756526104418, 24.076654953145916]], [[89.76708333333333, 24.664861111111108], [89.7826388888889, 24.63847222222222], [89.77958333333333, 24.661527777777778], [89.76708333333333, 24.664861111111108]], [[89.77986111111112, 24.08486111111111], [89.77819444444445, 24.088749999999997], [89.77875, 24.078194444444442], [89.77986111111112, 24.08486111111111]], [[89.76847222222223, 24.67486111111111], [89.7551388888889, 24.678749999999997], [89.76375, 24.66708333333333], [89.77791666666667, 24.665138888888887], [89.77513888888889, 24.67375], [89.76847222222223, 24.67486111111111]], [[89.74652777777779, 24.039583333333333], [89.75125, 24.046527777777776], [89.75402777777778, 24.03125], [89.75319444444445, 24.05236111111111], [89.75902777777777, 24.041249999999998], [89.75875, 24.054583333333333], [89.76958333333333, 24.04958333333333], [89.76597222222223, 24.053749999999997], [89.77152777777778, 24.058194444444442], [89.77430555555556, 24.045416666666664], [89.77430555555556, 24.058194444444442], [89.76958333333333, 24.06347222222222], [89.75069444444445, 24.052638888888886], [89.74652777777779, 24.039583333333333]], [[89.76291666666667, 24.06486111111111], [89.76930555555556, 24.099305555555553], [89.76291666666667, 24.094583333333333], [89.76652777777778, 24.087083333333332], [89.7551388888889, 24.080416666666665], [89.76291666666667, 24.08236111111111], [89.75736111111111, 24.06986111111111], [89.76291666666667, 24.06486111111111]], [[89.72409466019418, 24.157118392664508], [89.72069444444445, 24.151805555555555], [89.72478059581321, 24.146902173913038], [89.72375000000001, 24.144583333333333], [89.73347222222222, 24.15347222222222], [89.73047759516786, 24.16864499929768], [89.73569444444445, 24.157083333333333], [89.72541666666667, 24.136805555555554], [89.72513888888889, 24.12125], [89.71097222222222, 24.10986111111111], [89.70986111111111, 24.10097222222222], [89.71347222222222, 24.10736111111111], [89.7201388888889, 24.09847222222222], [89.71930555555556, 24.108194444444443], [89.73180555555555, 24.131527777777777], [89.72986111111112, 24.123749999999998], [89.74236111111111, 24.135694444444443], [89.74125000000001, 24.130416666666665], [89.75097222222223, 24.137083333333333], [89.74513888888889, 24.145138888888887], [89.75125, 24.13986111111111], [89.75097222222223, 24.15736111111111], [89.75208333333333, 24.152083333333334], [89.75541666666668, 24.15486111111111], [89.7526388888889, 24.139027777777777], [89.75703189300413, 24.143420781893006], [89.75625000000001, 24.141527777777778], [89.7676388888889, 24.157638888888886], [89.75625312109864, 24.17827559300874], [89.76708333333333, 24.170694444444443], [89.76513888888888, 24.203194444444442], [89.75458333333333, 24.22513888888889], [89.74819444444445, 24.21708333333333], [89.75291666666666, 24.211805555555554], [89.72541666666667, 24.17986111111111], [89.72758010732676, 24.175066458837392], [89.72236111111111, 24.176527777777775], [89.71236111111111, 24.168194444444442], [89.71847222222223, 24.140138888888888], [89.71875, 24.15513888888889], [89.72409466019418, 24.157118392664508]], [[89.76125, 24.086805555555554], [89.75763888888889, 24.09097222222222], [89.75347222222223, 24.08236111111111], [89.76125, 24.086805555555554]], [[89.74486111111112, 24.076249999999998], [89.75152777777778, 24.074861111111108], [89.7501388888889, 24.08375], [89.74486111111112, 24.076249999999998]], [[89.72069444444445, 24.189305555555553], [89.72375000000001, 24.18208333333333], [89.74763888888889, 24.221249999999998], [89.73458333333333, 24.212638888888886], [89.73013888888889, 24.19708333333333], [89.73041666666667, 24.205972222222222], [89.71652777777778, 24.192638888888887], [89.71152777777777, 24.178472222222222], [89.72069444444445, 24.189305555555553]], [[89.73236111111112, 24.233472222222222], [89.72791666666667, 24.23097222222222], [89.73875, 24.233749999999997], [89.73486111111112, 24.22958333333333], [89.74375, 24.229027777777777], [89.74652777777779, 24.23625], [89.72847222222222, 24.23986111111111], [89.73236111111112, 24.233472222222222]], [[89.72152777777778, 24.59263888888889], [89.71652777777778, 24.594027777777775], [89.72652777777778, 24.574305555555554], [89.73108166562436, 24.589306597873673], [89.73597222222223, 24.58625], [89.74625, 24.59708333333333], [89.71263888888889, 24.623194444444444], [89.71152777777777, 24.614305555555553], [89.71013888888889, 24.625138888888888], [89.70291666666667, 24.625138888888888], [89.70097222222222, 24.615694444444443], [89.7226388888889, 24.594583333333333], [89.72930555555557, 24.590416666666663], [89.72152777777778, 24.59263888888889]], [[89.73597222222223, 24.576805555555556], [89.7351388888889, 24.58597222222222], [89.72875, 24.57208333333333], [89.74180555555556, 24.567916666666665], [89.73597222222223, 24.576805555555556]], [[89.72486111111111, 24.113194444444442], [89.72291666666666, 24.106527777777778], [89.73902777777778, 24.129027777777775], [89.72486111111111, 24.113194444444442]], [[89.73208333333334, 24.746805555555554], [89.73152777777779, 24.733194444444443], [89.73375, 24.75097222222222], [89.73208333333334, 24.746805555555554]], [[89.72236111111111, 24.548194444444444], [89.72208333333333, 24.55736111111111], [89.72791666666667, 24.549305555555556], [89.72986111111112, 24.554583333333333], [89.71875, 24.560972222222222], [89.71041666666667, 24.544027777777778], [89.72236111111111, 24.548194444444444]], [[89.72208333333333, 24.525694444444444], [89.71875, 24.506249999999998], [89.72958333333334, 24.531805555555554], [89.72208333333333, 24.525694444444444]], [[89.72208333333333, 24.72458333333333], [89.7201388888889, 24.71236111111111], [89.72680555555556, 24.708194444444445], [89.72208333333333, 24.72458333333333]], [[89.71680555555555, 24.20736111111111], [89.72513888888889, 24.214583333333334], [89.71819444444445, 24.214583333333334], [89.71680555555555, 24.20736111111111]], [[89.71930555555556, 24.179583333333333], [89.71819444444445, 24.17513888888889], [89.72319444444445, 24.181805555555552], [89.71930555555556, 24.179583333333333]], [[89.71458333333334, 24.13597222222222], [89.71263888888889, 24.12763888888889], [89.71826645590143, 24.12274535235625], [89.72208333333333, 24.12736111111111], [89.70930555555556, 24.159027777777776], [89.70041666666667, 24.141527777777778], [89.70680555555556, 24.114305555555553], [89.70736111111111, 24.132638888888888], [89.70208333333333, 24.135416666666664], [89.71458333333334, 24.13597222222222]], [[89.71486111111112, 24.059027777777775], [89.71763888888889, 24.054027777777776], [89.71819444444445, 24.06375], [89.71486111111112, 24.059027777777775]], [[89.70430555555556, 24.597013888888885], [89.70152777777778, 24.59875], [89.69930555555555, 24.635694444444443], [89.69402777777778, 24.637638888888887], [89.69208333333333, 24.606527777777778], [89.71736111111112, 24.579583333333332], [89.71263888888889, 24.591805555555553], [89.70720029239766, 24.595204678362574], [89.71430555555555, 24.59263888888889], [89.70430555555556, 24.60763888888889], [89.70430555555556, 24.597013888888885]], [[89.70419078509647, 24.556640884896865], [89.70236111111112, 24.550694444444442], [89.70902777777778, 24.54513888888889], [89.71569444444445, 24.55486111111111], [89.70791666666666, 24.568749999999998], [89.70487573099416, 24.558866959064336], [89.70180555555555, 24.573194444444443], [89.69986111111112, 24.552083333333332], [89.70419078509647, 24.556640884896865]], [[89.69819444444445, 24.69625], [89.69625, 24.727361111111108], [89.70069444444445, 24.703194444444442], [89.70902777777778, 24.714583333333334], [89.70486111111111, 24.727083333333333], [89.71347222222222, 24.72458333333333], [89.70375, 24.73486111111111], [89.67819444444444, 24.73625], [89.69430555555556, 24.685694444444444], [89.69819444444445, 24.69625]], [[89.70569444444445, 24.267916666666665], [89.70597222222223, 24.26125], [89.71319444444444, 24.270416666666666], [89.70569444444445, 24.267916666666665]], [[89.70208333333333, 24.630138888888887], [89.71041666666667, 24.629583333333333], [89.70847222222223, 24.637083333333333], [89.70208333333333, 24.630138888888887]], [[89.69680555555556, 24.09986111111111], [89.70375, 24.09736111111111], [89.69625, 24.102916666666665], [89.69680555555556, 24.09375], [89.69680555555556, 24.09986111111111]], [[89.69208333333333, 24.541805555555555], [89.70041666666667, 24.52236111111111], [89.70125, 24.535416666666666], [89.69208333333333, 24.541805555555555]], [[89.69986111111112, 24.662916666666664], [89.68986111111111, 24.645138888888887], [89.69819444444445, 24.638194444444444], [89.69986111111112, 24.662916666666664]], [[89.68819444444445, 24.134287037037033], [89.68819444444445, 24.138749999999998], [89.69513888888889, 24.13486111111111], [89.6973611111111, 24.14875], [89.68041666666667, 24.134027777777778], [89.68819444444445, 24.134287037037033]], [[89.69097222222223, 24.128194444444443], [89.69569444444444, 24.124027777777776], [89.69097222222223, 24.13458333333333], [89.69097222222223, 24.128194444444443]], [[89.68736111111112, 24.08486111111111], [89.69430555555556, 24.074583333333333], [89.68541666666667, 24.088749999999997], [89.68736111111112, 24.08486111111111]], [[89.68625, 24.575694444444444], [89.69069444444445, 24.575138888888887], [89.69125, 24.587638888888886], [89.67847222222223, 24.59736111111111], [89.68125, 24.582638888888887], [89.68847222222223, 24.582916666666666], [89.68625, 24.575694444444444]], [[89.68569444444445, 24.119305555555552], [89.68930555555556, 24.117083333333333], [89.68069444444444, 24.123749999999998], [89.68569444444445, 24.119305555555552]], [[89.68736111111112, 24.705416666666665], [89.68291666666667, 24.69847222222222], [89.68930555555556, 24.69347222222222], [89.68736111111112, 24.705416666666665]], [[89.68236111111112, 24.561249999999998], [89.6876388888889, 24.547638888888887], [89.68902777777778, 24.55625], [89.68236111111112, 24.561249999999998]], [[89.68319444444445, 24.07347222222222], [89.68736111111112, 24.07208333333333], [89.68430555555555, 24.077916666666667], [89.68319444444445, 24.07347222222222]], [[89.67847222222223, 24.661805555555553], [89.68708333333333, 24.66347222222222], [89.68541666666667, 24.670694444444443], [89.67847222222223, 24.661805555555553]], [[89.68625, 24.565694444444443], [89.68180555555556, 24.57347222222222], [89.67930555555556, 24.565416666666664], [89.68486111111112, 24.56375], [89.68180555555556, 24.57125], [89.68625, 24.565694444444443]], [[89.68263888888889, 24.62986111111111], [89.68263888888889, 24.646805555555556], [89.67680555555556, 24.622638888888886], [89.68569444444445, 24.61347222222222], [89.68263888888889, 24.62986111111111]], [[89.67569444444445, 24.693749999999998], [89.67708333333334, 24.684305555555554], [89.68458333333334, 24.680416666666666], [89.67569444444445, 24.693749999999998]], [[89.67875000000001, 24.714305555555555], [89.67958333333334, 24.705416666666665], [89.68430555555555, 24.711527777777775], [89.67875000000001, 24.714305555555555]], [[89.67430555555556, 24.560694444444444], [89.67875000000001, 24.55736111111111], [89.67736111111111, 24.56347222222222], [89.67430555555556, 24.560694444444444]], [[89.67375, 24.57125], [89.66958333333334, 24.571527777777778], [89.67458333333333, 24.56319444444444], [89.67375, 24.57125]], [[89.66263888888889, 24.60763888888889], [89.64986111111111, 24.603749999999998], [89.66430555555556, 24.58625], [89.66263888888889, 24.60763888888889]]], [[[89.65695031298905, 24.153898669796554], [89.65034164639091, 24.154469789132197], [89.65513888888889, 24.166805555555555], [89.66041666666666, 24.160138888888888], [89.66152777777778, 24.16986111111111], [89.67486111111111, 24.164305555555554], [89.66791666666667, 24.16263888888889], [89.6726388888889, 24.163194444444443], [89.66819444444445, 24.156805555555554], [89.65236111111112, 24.155694444444443], [89.65695031298905, 24.153898669796554]]], [[[89.49348042230423, 24.280656262812627], [89.49375, 24.28625], [89.50763888888889, 24.294583333333332], [89.50795221740178, 24.30172722342733], [89.50652777777778, 24.302083333333332], [89.5077788015288, 24.30323812448813], [89.50796997334666, 24.302132058970532], [89.50802859821847, 24.30346870604782], [89.51013888888889, 24.305416666666666], [89.51125, 24.310972222222222], [89.51097222222222, 24.30097222222222], [89.50804390681004, 24.301704301075265], [89.51013888888889, 24.289583333333333], [89.49458333333334, 24.28486111111111], [89.49348042230423, 24.280656262812627]]], [[[89.59237654320988, 24.290985449735444], [89.59375, 24.295694444444443], [89.57513888888889, 24.30875], [89.58375000000001, 24.305138888888887], [89.58791666666667, 24.31513888888889], [89.58104758828597, 24.330750430663205], [89.59069444444445, 24.320138888888888], [89.59625, 24.294305555555553], [89.59237654320988, 24.290985449735444]], [[89.59152777777778, 24.308194444444442], [89.58569444444444, 24.30847222222222], [89.58736111111111, 24.303194444444443], [89.59152777777778, 24.308194444444442]]], [[[89.57893286445014, 24.335556621199203], [89.57569444444445, 24.342916666666664], [89.5857919103314, 24.336007874217707], [89.57893286445014, 24.335556621199203]]], [[[89.59764069174017, 24.340448424585347], [89.58605810322156, 24.352732988165688], [89.5951388888889, 24.347638888888888], [89.5951388888889, 24.358194444444443], [89.60708333333334, 24.364583333333332], [89.61597222222223, 24.35347222222222], [89.60569444444445, 24.34486111111111], [89.61152777777778, 24.34263888888889], [89.62263888888889, 24.352361111111108], [89.62152777777779, 24.36958333333333], [89.62541666666667, 24.35597222222222], [89.61930555555556, 24.344583333333333], [89.60708333333334, 24.340694444444445], [89.60458333333334, 24.345972222222223], [89.61375, 24.352638888888887], [89.60486111111112, 24.361805555555556], [89.59652777777778, 24.355138888888888], [89.59764069174017, 24.340448424585347]]], [[[89.58363953394614, 24.355298137397188], [89.57986111111111, 24.359305555555554], [89.60680555555555, 24.373194444444444], [89.60708333333334, 24.386527777777776], [89.58541666666667, 24.39236111111111], [89.57819444444445, 24.401527777777776], [89.59009601643446, 24.421522418720997], [89.58180555555556, 24.401527777777776], [89.58986111111112, 24.392638888888886], [89.60180555555556, 24.39236111111111], [89.59236111111112, 24.399305555555554], [89.60625, 24.391527777777778], [89.61125, 24.379305555555554], [89.60708333333334, 24.370416666666664], [89.58319444444444, 24.360416666666666], [89.58363953394614, 24.355298137397188]]], [[[89.5918194889126, 24.42567902881536], [89.58930555555555, 24.43347222222222], [89.57263888888889, 24.435972222222222], [89.56736111111111, 24.447916666666664], [89.5664511494253, 24.44659722222225], [89.5676388888889, 24.44875], [89.57319444444445, 24.436805555555555], [89.58569444444444, 24.43736111111111], [89.57319444444445, 24.464027777777776], [89.59325181159421, 24.42913345410628], [89.5918194889126, 24.42567902881536]]], [[[89.56307775032035, 24.44170579352005], [89.56180555555555, 24.43986111111111], [89.56069444444445, 24.454305555555553], [89.54736111111112, 24.448194444444443], [89.54205572458868, 24.471007606490875], [89.54486111111112, 24.469583333333333], [89.54819444444445, 24.44875], [89.56152777777778, 24.455138888888886], [89.56307775032035, 24.44170579352005]]], [[[89.53326935826044, 24.47546837708829], [89.52569444444444, 24.47847222222222], [89.53319444444445, 24.485416666666666], [89.53152777777778, 24.494027777777777], [89.51486111111112, 24.48708333333333], [89.51291666666667, 24.49458333333333], [89.51458333333333, 24.50347222222222], [89.52541666666667, 24.51097222222222], [89.51652777777778, 24.520694444444445], [89.53597222222223, 24.527083333333334], [89.52458333333334, 24.531805555555554], [89.53013888888889, 24.544583333333332], [89.51680555555556, 24.535416666666666], [89.53041666666667, 24.545416666666664], [89.52597222222222, 24.531805555555554], [89.53680555555556, 24.526805555555555], [89.52180555555556, 24.521527777777777], [89.52680555555555, 24.510694444444443], [89.51486111111112, 24.501805555555553], [89.51486111111112, 24.48847222222222], [89.53152777777778, 24.49513888888889], [89.53430555555556, 24.485694444444444], [89.52680555555555, 24.478749999999998], [89.53326935826044, 24.47546837708829]]], [[[89.59644234246451, 24.435738518217157], [89.59819444444445, 24.43986111111111], [89.61236111111111, 24.437638888888888], [89.61371737841044, 24.470383056544094], [89.61486111111111, 24.45208333333333], [89.64819444444444, 24.453194444444442], [89.61597222222223, 24.451805555555556], [89.61375, 24.43736111111111], [89.59644234246451, 24.435738518217157]]], [[[89.61390711198317, 24.474963767085626], [89.61430555555556, 24.484583333333333], [89.62236111111112, 24.489583333333332], [89.61125, 24.49513888888889], [89.61625000000001, 24.513749999999998], [89.60236111111111, 24.518749999999997], [89.60041666666667, 24.544027777777778], [89.59152777777778, 24.55236111111111], [89.59569444444445, 24.559027777777775], [89.59208333333333, 24.552916666666665], [89.60125000000001, 24.544027777777778], [89.60319444444444, 24.518749999999997], [89.61708333333334, 24.515694444444442], [89.61208333333333, 24.49513888888889], [89.62375, 24.48986111111111], [89.61390711198317, 24.474963767085626]]], [[[89.63402314969085, 24.244869997038016], [89.62708333333333, 24.25819444444444], [89.66652777777779, 24.295694444444443], [89.64541666666666, 24.30763888888889], [89.64998123123127, 24.31616741741748], [89.64625000000001, 24.30763888888889], [89.66763888888889, 24.296249999999997], [89.62791666666666, 24.25736111111111], [89.63569444444445, 24.247083333333332], [89.63402314969085, 24.244869997038016]]], [[[89.75596072796935, 24.178805555555556], [89.75430555555556, 24.181805555555552], [89.75347222222223, 24.192638888888887], [89.75625000000001, 24.187916666666666], [89.76069444444445, 24.201249999999998], [89.75708333333334, 24.18819444444444], [89.76430555555555, 24.18819444444444], [89.75569444444444, 24.186527777777776], [89.75596072796935, 24.178805555555556]]], [[[89.75709801503407, 24.143580866807607], [89.75847222222222, 24.15375], [89.74902777777778, 24.169027777777778], [89.76152777777779, 24.154305555555553], [89.75709801503407, 24.143580866807607]]], [[[89.72552088070336, 24.159346862210096], [89.71902777777778, 24.172083333333333], [89.72958333333334, 24.165694444444444], [89.72552088070336, 24.159346862210096]]], [[[89.74319444444444, 24.49513888888889], [89.74375, 24.512638888888887], [89.74458333333334, 24.502916666666664], [89.75597222222223, 24.497083333333332], [89.74319444444444, 24.49513888888889]]], [[[89.74375, 24.27986111111111], [89.74986111111112, 24.274305555555554], [89.7401388888889, 24.27847222222222], [89.73958333333334, 24.287916666666664], [89.74375, 24.27986111111111]]], [[[89.72208333333333, 24.380694444444444], [89.71763888888889, 24.391527777777778], [89.72402777777778, 24.39097222222222], [89.72208333333333, 24.380694444444444]]], [[[89.68263888888889, 24.35736111111111], [89.70430555555556, 24.366805555555555], [89.69236111111111, 24.356805555555553], [89.68263888888889, 24.35736111111111]]], [[[89.69680555555556, 24.27486111111111], [89.70208333333333, 24.281805555555554], [89.70291666666667, 24.275138888888886], [89.69680555555556, 24.27486111111111]]], [[[89.68513888888889, 24.231805555555553], [89.69402777777778, 24.232083333333332], [89.68708333333333, 24.21847222222222], [89.68513888888889, 24.231805555555553]]], [[[89.68513888888889, 24.201805555555556], [89.68375, 24.19486111111111], [89.6901388888889, 24.19625], [89.69208333333333, 24.18819444444444], [89.68319444444445, 24.19347222222222], [89.68513888888889, 24.201805555555556]]], [[[89.66652777777779, 24.213749999999997], [89.66291666666667, 24.19736111111111], [89.67791666666668, 24.192638888888887], [89.67013888888889, 24.191527777777775], [89.66875, 24.185138888888886], [89.68430555555555, 24.179583333333333], [89.68791666666667, 24.170416666666664], [89.67791666666668, 24.18125], [89.64180555555556, 24.189305555555553], [89.65180555555555, 24.18875], [89.64597222222223, 24.190694444444443], [89.65208333333334, 24.194305555555555], [89.64680555555556, 24.195416666666667], [89.64930555555556, 24.20347222222222], [89.65791666666667, 24.189027777777778], [89.66847222222222, 24.186249999999998], [89.66375000000001, 24.192083333333333], [89.66847222222222, 24.194027777777777], [89.65819444444445, 24.19486111111111], [89.65458333333333, 24.204583333333332], [89.65930555555556, 24.204027777777778], [89.65458333333333, 24.213472222222222], [89.66097222222223, 24.219305555555554], [89.66652777777779, 24.213749999999997]]], [[[89.67625, 24.21236111111111], [89.68291666666667, 24.21625], [89.68569444444445, 24.21125], [89.67625, 24.21236111111111]]], [[[89.67847222222223, 24.227916666666665], [89.68069444444444, 24.21875], [89.67291666666667, 24.212916666666665], [89.67180555555557, 24.222638888888888], [89.67791666666668, 24.21875], [89.67847222222223, 24.227916666666665]]], [[[89.67347222222223, 24.202638888888888], [89.67291666666667, 24.207916666666666], [89.68041666666667, 24.20847222222222], [89.67930555555556, 24.193194444444444], [89.67625, 24.200416666666666], [89.67625, 24.19458333333333], [89.66430555555556, 24.19763888888889], [89.66708333333334, 24.209027777777777], [89.66930555555555, 24.200138888888887], [89.67347222222223, 24.202638888888888]]], [[[89.64149341952015, 24.176549906825063], [89.65041666666667, 24.17736111111111], [89.63958333333333, 24.181805555555552], [89.6426388888889, 24.187916666666666], [89.67329964985316, 24.180310896504984], [89.66486111111111, 24.17513888888889], [89.67152777777778, 24.17597222222222], [89.67341358294485, 24.180282634032633], [89.67847222222223, 24.179027777777776], [89.67791666666668, 24.17375], [89.64416370896186, 24.16874149659864], [89.63375, 24.17458333333333], [89.64291666666666, 24.174305555555556], [89.64149341952015, 24.176549906825063]], [[89.65652777777778, 24.178472222222222], [89.66430555555556, 24.180138888888887], [89.65680555555556, 24.18375], [89.65652777777778, 24.178472222222222]]], [[[89.67541666666666, 24.304583333333333], [89.67208333333333, 24.29236111111111], [89.66708333333334, 24.298194444444444], [89.67541666666666, 24.304583333333333]]], [[[89.67319444444445, 24.236527777777777], [89.6726388888889, 24.22847222222222], [89.66597222222222, 24.243194444444445], [89.67319444444445, 24.236527777777777]]], [[[89.66625, 24.230416666666667], [89.65625, 24.21597222222222], [89.65680555555556, 24.23263888888889], [89.66625, 24.230416666666667]]], [[[89.65858097643098, 24.125700841750838], [89.66319444444444, 24.12597222222222], [89.65902777777778, 24.116249999999997], [89.66541666666667, 24.113194444444442], [89.64708333333334, 24.116805555555555], [89.65319444444445, 24.12847222222222], [89.65708333333333, 24.116527777777776], [89.65858097643098, 24.125700841750838]]], [[[89.6576388888889, 24.272916666666664], [89.66319444444444, 24.270694444444445], [89.66125000000001, 24.263194444444444], [89.66513888888889, 24.265694444444442], [89.66097222222223, 24.259027777777778], [89.65764012483007, 24.25934016190829], [89.65791666666667, 24.267083333333332], [89.65347222222222, 24.262083333333333], [89.65097222222222, 24.26736111111111], [89.6576388888889, 24.272916666666664]]], [[[89.64958333333334, 24.231805555555553], [89.64986111111111, 24.22208333333333], [89.64319444444445, 24.21736111111111], [89.63180555555556, 24.220416666666665], [89.64791666666667, 24.221527777777776], [89.64958333333334, 24.231805555555553]]], [[[89.64791666666667, 24.234583333333333], [89.64236111111111, 24.230694444444442], [89.63652777777779, 24.23597222222222], [89.64791666666667, 24.234583333333333]]], [[[89.63986111111112, 24.14597222222222], [89.63069444444444, 24.147916666666664], [89.63208333333334, 24.15513888888889], [89.63986111111112, 24.15625], [89.64402777777778, 24.14625], [89.63986111111112, 24.14597222222222]]], [[[89.59958333333334, 24.27263888888889], [89.60291666666667, 24.265138888888888], [89.59680555555556, 24.262083333333333], [89.59958333333334, 24.27263888888889]]], [[[89.59291666666667, 24.193194444444444], [89.59263888888889, 24.18819444444444], [89.58347222222223, 24.192083333333333], [89.59291666666667, 24.193194444444444]]], [[[89.59263888888889, 24.184027777777775], [89.58291666666666, 24.178194444444443], [89.58180555555556, 24.191805555555554], [89.59263888888889, 24.184027777777775]]], [[[89.55625, 24.132638888888888], [89.57097222222222, 24.12847222222222], [89.57847222222223, 24.11125], [89.55708333333334, 24.11375], [89.55569444444444, 24.11875], [89.56235972913213, 24.11799543946932], [89.56541666666666, 24.119305555555552], [89.56013888888889, 24.127916666666664], [89.54847222222223, 24.132916666666667], [89.55625, 24.132638888888888]]], [[[89.56652777777778, 24.23875], [89.57152777777777, 24.230138888888888], [89.56069444444445, 24.22847222222222], [89.56652777777778, 24.23875]]], [[[89.56597222222223, 24.22486111111111], [89.55291666666668, 24.212083333333332], [89.55680555555556, 24.221805555555555], [89.54736111111112, 24.219027777777775], [89.55986111111112, 24.227361111111108], [89.56597222222223, 24.22486111111111]]], [[[89.56041666666667, 24.256805555555555], [89.56291666666667, 24.24625], [89.55152777777778, 24.25486111111111], [89.56041666666667, 24.256805555555555]]], [[[89.55847222222222, 24.20097222222222], [89.54902777777778, 24.207083333333333], [89.55541666666667, 24.213472222222222], [89.55847222222222, 24.20097222222222]]], [[[89.55152777777778, 24.249583333333334], [89.55597222222222, 24.247638888888886], [89.55319444444444, 24.239027777777775], [89.54791666666667, 24.25208333333333], [89.55152777777778, 24.249583333333334]]], [[[89.54180555555556, 24.295416666666664], [89.5351388888889, 24.286527777777778], [89.53291666666667, 24.299305555555556], [89.54180555555556, 24.295416666666664]]], [[[89.52458333333334, 24.270694444444445], [89.53069444444445, 24.277916666666666], [89.53625000000001, 24.275694444444444], [89.52402777777777, 24.262916666666666], [89.52458333333334, 24.270694444444445]]], [[[89.48152777777779, 24.373749999999998], [89.49513888888889, 24.365138888888886], [89.48069444444445, 24.367083333333333], [89.47680555555556, 24.35763888888889], [89.46458333333334, 24.367638888888887], [89.47125, 24.374583333333334], [89.48152777777779, 24.373749999999998]]], [[[89.48291666666667, 24.357916666666664], [89.48402777777778, 24.365694444444443], [89.49208333333334, 24.357916666666664], [89.48291666666667, 24.357916666666664]]], [[[89.48020174490932, 24.34008896418516], [89.47319444444445, 24.35486111111111], [89.48236111111112, 24.347916666666666], [89.48020174490932, 24.34008896418516]]], [[[89.480319727004, 24.33984024517475], [89.48736111111111, 24.339027777777776], [89.48291666666667, 24.32736111111111], [89.48347222222222, 24.333194444444445], [89.480319727004, 24.33984024517475]]], [[[89.37819444444445, 24.366249999999997], [89.36680555555556, 24.360416666666666], [89.36625000000001, 24.367638888888887], [89.37125, 24.36375], [89.38875, 24.37486111111111], [89.40208333333334, 24.37736111111111], [89.4076388888889, 24.36958333333333], [89.39597222222223, 24.37097222222222], [89.39152777777778, 24.352361111111108], [89.3926388888889, 24.371805555555554], [89.37819444444445, 24.366249999999997]]], [[[89.39069444444445, 24.381249999999998], [89.39791666666667, 24.389027777777777], [89.38875, 24.38847222222222], [89.39097222222223, 24.394583333333333], [89.40125, 24.392916666666665], [89.39680555555556, 24.38208333333333], [89.40152777777779, 24.377916666666664], [89.38819444444445, 24.375416666666666], [89.39069444444445, 24.381249999999998]]], [[[89.37180555555555, 24.387916666666666], [89.3801388888889, 24.38319444444444], [89.37486111111112, 24.38097222222222], [89.3751388888889, 24.38597222222222], [89.36541666666668, 24.379027777777775], [89.36347222222223, 24.385416666666664], [89.37180555555555, 24.387916666666666]]], [[[89.2561130490956, 24.428712273901812], [89.25125, 24.436249999999998], [89.28625000000001, 24.455972222222222], [89.29402777777779, 24.449583333333333], [89.28430555555556, 24.434305555555554], [89.29041666666667, 24.428472222222222], [89.29625, 24.426527777777775], [89.30402777777778, 24.43875], [89.29902777777778, 24.423194444444444], [89.30347222222223, 24.41736111111111], [89.33041666666666, 24.411527777777778], [89.33402777777778, 24.41708333333333], [89.35013888888889, 24.408194444444444], [89.3451388888889, 24.41597222222222], [89.36152777777778, 24.42236111111111], [89.3651388888889, 24.40958333333333], [89.36791666666667, 24.417638888888888], [89.37069444444445, 24.408194444444444], [89.37291666666667, 24.415694444444444], [89.37736111111111, 24.414027777777775], [89.37236111111112, 24.39986111111111], [89.3601388888889, 24.401527777777776], [89.36319444444445, 24.390694444444442], [89.35652777777779, 24.384027777777778], [89.3626388888889, 24.38986111111111], [89.3626388888889, 24.380694444444444], [89.35291666666667, 24.371527777777775], [89.36291666666666, 24.37236111111111], [89.36236111111111, 24.367638888888887], [89.33791666666667, 24.363194444444442], [89.35486111111112, 24.365416666666665], [89.35347222222222, 24.35458333333333], [89.35208333333334, 24.36125], [89.34625, 24.35736111111111], [89.34236111111112, 24.363194444444442], [89.34208333333333, 24.357083333333332], [89.35819444444445, 24.35347222222222], [89.34958333333334, 24.34847222222222], [89.32375, 24.350694444444443], [89.32902777777778, 24.35736111111111], [89.32513888888889, 24.387083333333333], [89.28736111111111, 24.397916666666664], [89.28347222222223, 24.404305555555553], [89.29180555555556, 24.411527777777778], [89.28986111111111, 24.41736111111111], [89.27180555555556, 24.42736111111111], [89.25763888888889, 24.423194444444444], [89.26069444444445, 24.427083333333332], [89.2561130490956, 24.428712273901812]]]]}}