{"type": "Feature", "properties": {}, "geometry": {"type": "MultiPolygon", "coordinates": [[[[89.64957469903297, 24.15476909413854], [89.64930555555556, 24.13458333333333], [89.64291666666666, 24.12763888888889], [89.64819444444444, 24.15486111111111], [89.64957469903297, 24.15476909413854]]], [[[89.65981725146197, 24.15408625730994], [89.67736111111111, 24.152916666666666], [89.68958333333333, 24.166805555555555], [89.69541666666667, 24.176527777777775], [89.6926388888889, 24.19097222222222], [89.69569444444444, 24.184027777777775], [89.70708333333333, 24.229027777777777], [89.71263888888889, 24.228194444444444], [89.70736111111111, 24.212638888888886], [89.71319444444444, 24.22958333333333], [89.70597222222223, 24.231527777777778], [89.70097222222222, 24.244027777777777], [89.70736111111111, 24.232083333333332], [89.71291666666667, 24.243194444444445], [89.70402777777778, 24.256805555555555], [89.70902777777778, 24.28708333333333], [89.70541666666666, 24.260416666666664], [89.70875000000001, 24.26597222222222], [89.70597222222223, 24.255694444444444], [89.71402777777779, 24.249305555555555], [89.71319444444444, 24.238194444444442], [89.72875, 24.24736111111111], [89.73541666666667, 24.264027777777777], [89.73152777777779, 24.251805555555553], [89.75347222222223, 24.26125], [89.76180555555555, 24.29736111111111], [89.75708333333334, 24.31458333333333], [89.73801879413602, 24.309365669974067], [89.75652777777778, 24.316805555555554], [89.7551388888889, 24.34708333333333], [89.77208333333334, 24.327916666666667], [89.77402777777777, 24.301805555555553], [89.78430555555556, 24.291527777777777], [89.78097222222223, 24.285416666666666], [89.78791666666667, 24.285416666666666], [89.77819444444445, 24.276249999999997], [89.77541666666667, 24.23597222222222], [89.79513888888889, 24.172083333333333], [89.78013888888889, 24.166249999999998], [89.78763888888889, 24.157916666666665], [89.7976388888889, 24.159305555555555], [89.78569444444445, 24.123749999999998], [89.79097222222222, 24.078194444444442], [89.78291666666667, 24.05847222222222], [89.78236111111111, 24.032916666666665], [89.76375, 24.023194444444442], [89.77569444444444, 24.046527777777776], [89.77625, 24.05625], [89.76902777777778, 24.06375], [89.76303396493942, 24.060978667182265], [89.74597222222222, 24.056527777777777], [89.75616257193448, 24.057801571491808], [89.74319444444444, 24.051805555555553], [89.74736111111112, 24.034305555555555], [89.75819444444444, 24.02236111111111], [89.74402777777777, 24.02847222222222], [89.74291666666667, 24.02236111111111], [89.72180555555556, 24.01347222222222], [89.71069444444444, 24.020138888888887], [89.71597222222222, 24.090694444444445], [89.70569444444445, 24.081527777777776], [89.70265361952862, 24.05255050505052], [89.70180555555555, 24.05763888888889], [89.69291666666668, 24.045694444444443], [89.69680555555556, 24.039027777777775], [89.69680555555556, 24.04986111111111], [89.70069444444445, 24.042916666666667], [89.70184854745804, 24.04487864178978], [89.70097222222222, 24.036527777777778], [89.68291666666667, 24.034305555555555], [89.69078639714351, 24.07968766797205], [89.69236111111111, 24.07708333333333], [89.68902777777778, 24.059305555555554], [89.69930555555555, 24.074027777777776], [89.68513888888889, 24.089027777777776], [89.68722097097097, 24.085584334334328], [89.68152777777777, 24.090138888888887], [89.67236111111112, 24.065694444444443], [89.66319444444444, 24.07208333333333], [89.67319444444445, 24.085416666666664], [89.66763888888889, 24.12486111111111], [89.67736111111111, 24.151805555555555], [89.65981725146197, 24.15408625730994]], [[89.78569444444445, 24.071805555555553], [89.7826388888889, 24.076249999999998], [89.78208333333333, 24.067638888888887], [89.78569444444445, 24.071805555555553]], [[89.78152777777778, 24.089305555555555], [89.78541666666666, 24.09097222222222], [89.77819444444445, 24.097916666666666], [89.78152777777778, 24.089305555555555]], [[89.78236111111111, 24.088194444444444], [89.77708333333334, 24.090416666666666], [89.77930555555555, 24.075138888888887], [89.78236111111111, 24.088194444444444]], [[89.76819444444445, 24.07125], [89.76902777777778, 24.065694444444443], [89.77097222222223, 24.075694444444444], [89.76819444444445, 24.07125]], [[89.74263888888889, 24.066527777777775], [89.75152777777778, 24.070416666666667], [89.74791666666667, 24.060972222222222], [89.76375, 24.062638888888888], [89.77069444444444, 24.076527777777777], [89.76958333333333, 24.10013888888889], [89.73902777777778, 24.082083333333333], [89.74263888888889, 24.066527777777775]], [[89.75430555555556, 24.116527777777776], [89.75152777777778, 24.108194444444443], [89.76736111111111, 24.122638888888886], [89.75430555555556, 24.116527777777776]], [[89.71013888888889, 24.19236111111111], [89.71625, 24.141805555555553], [89.72402777777778, 24.137361111111108], [89.72930555555556, 24.14597222222222], [89.72652777777778, 24.12486111111111], [89.70986111111111, 24.108472222222222], [89.71041666666667, 24.09736111111111], [89.71819444444445, 24.097638888888888], [89.73236111111112, 24.121805555555554], [89.76625, 24.152083333333334], [89.76708333333333, 24.199583333333333], [89.75430555555556, 24.22513888888889], [89.73569444444445, 24.216527777777777], [89.74125000000001, 24.215416666666666], [89.71513888888889, 24.190694444444443], [89.71013888888889, 24.19236111111111]], [[89.72486111111111, 24.233472222222222], [89.74347222222222, 24.228749999999998], [89.75208333333333, 24.239583333333332], [89.72875, 24.240138888888886], [89.72125, 24.22847222222222], [89.72486111111111, 24.233472222222222]], [[89.74875, 24.23986111111111], [89.75097222222223, 24.24375], [89.73958333333334, 24.240694444444443], [89.74875, 24.23986111111111]], [[89.74347222222222, 24.05986111111111], [89.73569444444445, 24.074027777777776], [89.73736111111111, 24.05708333333333], [89.74347222222222, 24.05986111111111]], [[89.72208333333333, 24.21013888888889], [89.72986111111112, 24.219305555555554], [89.71875, 24.21625], [89.71291666666667, 24.204305555555553], [89.72208333333333, 24.21013888888889]], [[89.70236111111112, 24.120416666666664], [89.70902777777778, 24.111805555555556], [89.72486111111111, 24.12736111111111], [89.71347222222222, 24.141805555555553], [89.70986111111111, 24.159027777777776], [89.70041666666667, 24.14236111111111], [89.70236111111112, 24.120416666666664]], [[89.71763888888889, 24.200138888888887], [89.72291666666666, 24.205972222222222], [89.71208333333334, 24.198194444444443], [89.71763888888889, 24.200138888888887]], [[89.69291666666668, 24.097916666666666], [89.70208333333333, 24.085694444444442], [89.70847222222223, 24.088472222222222], [89.7051388888889, 24.102361111111108], [89.69291666666668, 24.097916666666666]], [[89.67291666666667, 24.120694444444442], [89.67958333333334, 24.11097222222222], [89.68013888888889, 24.123194444444444], [89.68569444444445, 24.102638888888887], [89.70708333333333, 24.10736111111111], [89.69791666666667, 24.121527777777775], [89.69763888888889, 24.14875], [89.67930555555556, 24.135694444444443], [89.67291666666667, 24.120694444444442]], [[89.70291666666667, 24.150972222222222], [89.70625, 24.158472222222223], [89.69902777777779, 24.146527777777777], [89.70291666666667, 24.150972222222222]], [[89.69069444444445, 24.046527777777776], [89.6973611111111, 24.057916666666664], [89.68736111111112, 24.05097222222222], [89.69069444444445, 24.046527777777776]], [[89.68291666666667, 24.154305555555553], [89.67652777777778, 24.142083333333332], [89.69291666666668, 24.16263888888889], [89.68291666666667, 24.154305555555553]]], [[[89.73041454045949, 24.306309058202128], [89.7226388888889, 24.277083333333334], [89.71013888888889, 24.267638888888886], [89.72152777777778, 24.277638888888887], [89.72819444444444, 24.305416666666666], [89.73041454045949, 24.306309058202128]]], [[[89.72930555555556, 24.14597222222222], [89.73388585155733, 24.16556571067422], [89.73569444444445, 24.163194444444443], [89.72930555555556, 24.14597222222222]]], [[[89.69180555555556, 24.52208333333333], [89.68291666666667, 24.540416666666665], [89.70208333333333, 24.55097222222222], [89.70902777777778, 24.54513888888889], [89.71763888888889, 24.559583333333332], [89.71236111111111, 24.541249999999998], [89.72319444444445, 24.554305555555555], [89.72958333333334, 24.549027777777777], [89.72125, 24.56236111111111], [89.74180555555556, 24.567916666666665], [89.74458333333334, 24.574027777777776], [89.76069444444445, 24.55847222222222], [89.76569444444445, 24.539861111111108], [89.76013888888889, 24.549027777777777], [89.75902777777777, 24.538194444444443], [89.75208333333333, 24.53736111111111], [89.75763888888889, 24.54847222222222], [89.75402777777778, 24.55875], [89.74458333333334, 24.568194444444444], [89.7351388888889, 24.565416666666664], [89.74680555555555, 24.54375], [89.71902777777778, 24.494305555555552], [89.72736111111111, 24.477916666666665], [89.74291666666667, 24.46708333333333], [89.74236111111111, 24.455694444444443], [89.7551388888889, 24.455416666666665], [89.74736111111112, 24.435138888888886], [89.73652777777778, 24.44125], [89.73125, 24.43347222222222], [89.73930555555556, 24.417638888888888], [89.74402777777777, 24.41736111111111], [89.74319444444444, 24.424027777777777], [89.74736111111112, 24.41708333333333], [89.74347222222222, 24.42625], [89.74930555555555, 24.424305555555556], [89.76597222222223, 24.37569444444444], [89.76152777777779, 24.38597222222222], [89.75736111111111, 24.366249999999997], [89.7551388888889, 24.395694444444445], [89.74652777777779, 24.37875], [89.72432230597433, 24.376854410943604], [89.72986111111112, 24.381527777777777], [89.74541666666667, 24.379305555555554], [89.75402777777778, 24.398194444444442], [89.74763888888889, 24.41208333333333], [89.74319444444444, 24.407083333333333], [89.7226388888889, 24.421249999999997], [89.71597222222222, 24.440416666666664], [89.72069444444445, 24.465694444444445], [89.71347222222222, 24.47986111111111], [89.69847222222222, 24.48097222222222], [89.6876388888889, 24.494027777777777], [89.70458333333333, 24.481805555555553], [89.68625, 24.527916666666666], [89.69180555555556, 24.52208333333333]], [[89.71875, 24.522916666666664], [89.71875, 24.506249999999998], [89.72958333333334, 24.531805555555554], [89.71875, 24.522916666666664]], [[89.70263888888888, 24.53013888888889], [89.69791666666667, 24.54236111111111], [89.68986111111111, 24.540416666666665], [89.70069444444445, 24.52236111111111], [89.70263888888888, 24.53013888888889]]], [[[89.72380280946346, 24.376416085762568], [89.72819444444444, 24.344027777777775], [89.71541666666667, 24.332638888888887], [89.72041666666667, 24.301527777777775], [89.70986111111111, 24.28708333333333], [89.7201388888889, 24.303194444444443], [89.71486111111112, 24.33236111111111], [89.72736111111111, 24.345972222222223], [89.72097222222223, 24.374027777777776], [89.72380280946346, 24.376416085762568]]], [[[89.75541666666668, 24.49736111111111], [89.74319444444444, 24.49513888888889], [89.74152777777778, 24.511527777777776], [89.74486111111112, 24.50236111111111], [89.75541666666668, 24.49736111111111]]], [[[89.65291666666667, 24.084305555555556], [89.65291666666667, 24.079027777777778], [89.63597222222222, 24.102361111111108], [89.65291666666667, 24.084305555555556]]], [[[89.62291666666667, 24.090138888888887], [89.61708333333334, 24.096249999999998], [89.63680555555555, 24.086527777777775], [89.62291666666667, 24.090138888888887]]], [[[89.51484062814433, 24.489177626850655], [89.51347222222222, 24.48875], [89.51375, 24.50236111111111], [89.52569444444444, 24.51097222222222], [89.51597222222223, 24.51986111111111], [89.53597222222223, 24.526805555555555], [89.52458333333334, 24.531805555555554], [89.52709504979497, 24.537307410661967], [89.52597222222222, 24.531805555555554], [89.53680555555556, 24.526805555555555], [89.51680555555556, 24.519583333333333], [89.52680555555555, 24.510694444444443], [89.51458333333333, 24.501527777777778], [89.51484062814433, 24.489177626850655]]], [[[89.54250353784352, 24.470797840774214], [89.54486111111112, 24.469583333333333], [89.54785219375367, 24.4491895880432], [89.54680555555557, 24.44875], [89.54250353784352, 24.470797840774214]]], [[[89.59037238873752, 24.431844535270965], [89.59569444444445, 24.430416666666666], [89.58908627574611, 24.416839883704643], [89.59037238873752, 24.431844535270965]]], [[[89.58099747474749, 24.398648989898977], [89.59319444444445, 24.390694444444442], [89.60625, 24.391527777777778], [89.61097222222223, 24.380416666666665], [89.60569444444445, 24.36958333333333], [89.58125, 24.358194444444443], [89.59844876776587, 24.34276613806623], [89.58402777777778, 24.34958333333333], [89.57986111111111, 24.359305555555554], [89.60486111111112, 24.370694444444442], [89.60986111111112, 24.379583333333333], [89.60625, 24.38986111111111], [89.58847222222222, 24.39097222222222], [89.58099747474749, 24.398648989898977]]], [[[89.59909888376414, 24.342182945773676], [89.60013888888889, 24.34125], [89.59041666666667, 24.334027777777777], [89.57680555555555, 24.335694444444442], [89.59041666666667, 24.318194444444444], [89.58513888888889, 24.30486111111111], [89.59430555555556, 24.30125], [89.59625, 24.293194444444442], [89.58236111111111, 24.283472222222223], [89.58763888888889, 24.27263888888889], [89.5810893435044, 24.259212320850683], [89.58541666666667, 24.27208333333333], [89.58041666666666, 24.285138888888888], [89.59486111111111, 24.29375], [89.58402777777778, 24.304583333333333], [89.58875, 24.317916666666665], [89.57541666666667, 24.33597222222222], [89.59125, 24.335416666666664], [89.59909888376414, 24.342182945773676]]], [[[89.57692821067822, 24.24683561808562], [89.57882234857749, 24.23252435395777], [89.57458333333334, 24.23986111111111], [89.57692821067822, 24.24683561808562]]], [[[89.57985022282995, 24.23074534082852], [89.60319444444444, 24.224305555555553], [89.62263888888889, 24.233472222222222], [89.63513888888889, 24.25069444444444], [89.62263888888889, 24.232916666666664], [89.60347222222222, 24.224305555555553], [89.6032228217426, 24.22214408473221], [89.58180555555556, 24.227361111111108], [89.57985022282995, 24.23074534082852]]], [[[89.60225331177347, 24.20969107710431], [89.62375, 24.201527777777777], [89.62616627922647, 24.1951850448083], [89.60180555555556, 24.205138888888886], [89.60225331177347, 24.20969107710431]]], [[[89.61565800129577, 24.18550817946226], [89.60819444444445, 24.182916666666664], [89.60541666666667, 24.16597222222222], [89.58986111111112, 24.156527777777775], [89.60375, 24.138194444444444], [89.59963932806325, 24.13439997804128], [89.58652777777777, 24.158749999999998], [89.60375, 24.166249999999998], [89.60513888888889, 24.18347222222222], [89.61565800129577, 24.18550817946226]]], [[[89.59754758230453, 24.132469135802467], [89.59291666666667, 24.128194444444443], [89.59597222222223, 24.116527777777776], [89.61597222222223, 24.096805555555555], [89.59930555555556, 24.103194444444444], [89.58708333333334, 24.12847222222222], [89.55208333333334, 24.136527777777776], [89.54347222222222, 24.129305555555554], [89.54347222222222, 24.137916666666666], [89.55180555555556, 24.13847222222222], [89.53736111111111, 24.139027777777777], [89.54041666666667, 24.13236111111111], [89.53541666666666, 24.13347222222222], [89.52875, 24.149305555555554], [89.53402777777778, 24.142916666666665], [89.55847222222222, 24.14125], [89.54375, 24.149027777777775], [89.54041666666667, 24.145138888888887], [89.54263888888889, 24.156527777777775], [89.53430555555556, 24.16708333333333], [89.54013888888889, 24.16597222222222], [89.54652777777778, 24.147916666666664], [89.55569444444444, 24.148194444444442], [89.5626388888889, 24.137916666666666], [89.59152777777778, 24.130138888888887], [89.59754758230453, 24.132469135802467]]], [[[89.59699156746032, 24.436902281746033], [89.59736111111111, 24.43875], [89.61541666666668, 24.44013888888889], [89.61680555555556, 24.463472222222222], [89.61541666666668, 24.439305555555553], [89.59699156746032, 24.436902281746033]]], [[[89.61291666666666, 24.35331790123456], [89.61291666666666, 24.34736111111111], [89.60551282051283, 24.34269943019943], [89.60402777777779, 24.343194444444443], [89.61291666666666, 24.35331790123456]]], [[[89.6055607966457, 24.342683438155134], [89.62033811143503, 24.34725097181729], [89.61152777777778, 24.340694444444445], [89.6055607966457, 24.342683438155134]]], [[[89.61430555555556, 24.104305555555555], [89.61791666666667, 24.115694444444443], [89.62097222222222, 24.095972222222223], [89.61430555555556, 24.104305555555555]]], [[[89.603195650208, 24.518494528847892], [89.60236111111111, 24.518749999999997], [89.59930555555556, 24.545416666666664], [89.60375, 24.52875], [89.603195650208, 24.518494528847892]]], [[[89.60353737997252, 24.51838991769548], [89.61708333333334, 24.515138888888888], [89.61180555555556, 24.495694444444442], [89.61847222222222, 24.492916666666666], [89.61125, 24.49513888888889], [89.61597222222223, 24.51458333333333], [89.60353737997252, 24.51838991769548]]], [[[89.48775598837899, 24.24499410055733], [89.48736111111111, 24.24513888888889], [89.49402777777777, 24.28625], [89.50791666666667, 24.29486111111111], [89.50680555555556, 24.31375], [89.50819444444444, 24.294305555555553], [89.49458333333334, 24.285138888888888], [89.48775598837899, 24.24499410055733]]], [[[89.47347222222223, 24.235416666666666], [89.47986111111112, 24.22958333333333], [89.48236111111109, 24.23091666666665], [89.47902777777779, 24.229027777777777], [89.46125, 24.238194444444442], [89.47347222222223, 24.235416666666666]]], [[[89.48741187253243, 24.23361040609137], [89.48819444444445, 24.234027777777776], [89.49375, 24.216527777777777], [89.48625, 24.222638888888888], [89.48375, 24.211805555555554], [89.46875, 24.206249999999997], [89.48319444444445, 24.212083333333332], [89.48625, 24.22347222222222], [89.49180555555556, 24.221527777777776], [89.48741187253243, 24.23361040609137]]], [[[89.30281222802437, 24.37465731070496], [89.28875000000001, 24.37486111111111], [89.29625, 24.379305555555554], [89.30281222802437, 24.37465731070496]]]]}}