{"type": "Feature", "properties": {}, "geometry": {"type": "MultiPolygon", "coordinates": [[[[89.29227859071109, 24.378818102337565], [89.28347222222223, 24.379027777777775], [89.2851388888889, 24.420416666666664], [89.27180555555556, 24.42736111111111], [89.2598611111111, 24.423194444444444], [89.24708333333334, 24.42736111111111], [89.25125, 24.436249999999998], [89.27125000000001, 24.44486111111111], [89.28125, 24.456527777777776], [89.28347222222223, 24.484583333333333], [89.29319444444445, 24.480416666666667], [89.29097222222222, 24.48736111111111], [89.33763888888889, 24.544305555555553], [89.34152777777778, 24.56319444444444], [89.3451388888889, 24.556527777777777], [89.35736111111112, 24.556527777777777], [89.35263888888889, 24.553749999999997], [89.35819444444445, 24.553749999999997], [89.35819444444445, 24.540694444444444], [89.36502136752136, 24.543728632478633], [89.36375, 24.54208333333333], [89.36902777777777, 24.540138888888887], [89.36680555555556, 24.54375], [89.37402777777778, 24.544583333333332], [89.36847222222222, 24.548194444444444], [89.36531167979003, 24.544104330708663], [89.35875, 24.545416666666664], [89.36347222222223, 24.55097222222222], [89.35875, 24.557916666666664], [89.3926388888889, 24.555416666666666], [89.39652777777778, 24.550416666666667], [89.41069444444445, 24.554305555555555], [89.41347222222223, 24.548194444444444], [89.41791666666667, 24.55236111111111], [89.41375000000001, 24.55875], [89.42291666666667, 24.560972222222222], [89.41791666666667, 24.554027777777776], [89.43041666666667, 24.553472222222222], [89.43569444444445, 24.550416666666667], [89.43263888888889, 24.545972222222222], [89.44597222222222, 24.54958333333333], [89.44486111111111, 24.542916666666667], [89.45375, 24.54347222222222], [89.44930555555555, 24.535138888888888], [89.46236111111111, 24.526527777777776], [89.45791666666666, 24.518194444444443], [89.45180555555555, 24.520416666666666], [89.45263888888888, 24.50375], [89.45847222222223, 24.506805555555555], [89.45347222222223, 24.49513888888889], [89.46597222222222, 24.512638888888887], [89.47736111111111, 24.517083333333332], [89.47672636632201, 24.52397484818644], [89.48375, 24.523194444444442], [89.48180555555555, 24.509305555555553], [89.4851388888889, 24.51625], [89.4901388888889, 24.51458333333333], [89.48347222222222, 24.517638888888886], [89.48847222222223, 24.532916666666665], [89.48319444444445, 24.532638888888886], [89.48375, 24.525416666666665], [89.476713584092, 24.5241136266837], [89.47627151354088, 24.528913249810174], [89.48208333333334, 24.532083333333333], [89.48041666666667, 24.541527777777777], [89.48597222222223, 24.537916666666664], [89.48410836177474, 24.543042282897233], [89.47569444444444, 24.541527777777777], [89.47430555555556, 24.55236111111111], [89.48708333333333, 24.545972222222222], [89.48652777777778, 24.55597222222222], [89.49930555555555, 24.552638888888886], [89.49347222222222, 24.549027777777777], [89.50763888888889, 24.54513888888889], [89.51125, 24.527916666666666], [89.53375, 24.525972222222222], [89.52458333333334, 24.531527777777775], [89.52902777777778, 24.54097222222222], [89.52180555555556, 24.532083333333333], [89.51652777777778, 24.535416666666666], [89.52125000000001, 24.550694444444442], [89.50430555555556, 24.55625], [89.52208333333334, 24.551805555555553], [89.51986111111111, 24.535416666666666], [89.53291666666667, 24.547083333333333], [89.52791666666667, 24.55486111111111], [89.53208333333333, 24.561249999999998], [89.53375, 24.554027777777776], [89.53541666666666, 24.55875], [89.53791666666667, 24.551805555555553], [89.54625, 24.553194444444443], [89.54513888888889, 24.54736111111111], [89.55319444444444, 24.548194444444444], [89.55513888888889, 24.555416666666666], [89.56375, 24.553472222222222], [89.5651388888889, 24.546805555555554], [89.58791666666667, 24.55236111111111], [89.58375000000001, 24.54486111111111], [89.59291666666667, 24.541805555555555], [89.59069444444445, 24.52875], [89.5951388888889, 24.533472222222223], [89.60069444444444, 24.524583333333332], [89.58291666666666, 24.519027777777776], [89.58125, 24.512638888888887], [89.59569444444445, 24.521527777777777], [89.59125, 24.509027777777778], [89.60263888888889, 24.509305555555553], [89.5951388888889, 24.504305555555554], [89.60708333333334, 24.507916666666667], [89.60347222222222, 24.515416666666667], [89.61569444444444, 24.504583333333333], [89.61541666666668, 24.511805555555554], [89.60208333333334, 24.517638888888886], [89.60208333333334, 24.531527777777775], [89.59013888888889, 24.554305555555555], [89.60125000000001, 24.55763888888889], [89.59708333333333, 24.55986111111111], [89.60430555555556, 24.569305555555555], [89.60430555555556, 24.586527777777775], [89.59930555555556, 24.59486111111111], [89.60736111111112, 24.59263888888889], [89.60597222222222, 24.600416666666664], [89.61208333333333, 24.605138888888888], [89.60569444444445, 24.60736111111111], [89.61208333333333, 24.608194444444443], [89.61236111111111, 24.56958333333333], [89.62208333333334, 24.577916666666667], [89.61291666666666, 24.585694444444442], [89.61708333333334, 24.59347222222222], [89.62291666666667, 24.587916666666665], [89.61819444444444, 24.59708333333333], [89.62375, 24.60013888888889], [89.63930555555555, 24.584027777777777], [89.63097222222223, 24.580138888888886], [89.6348611111111, 24.57847222222222], [89.62986111111111, 24.569305555555555], [89.6348611111111, 24.56847222222222], [89.63819444444445, 24.57875], [89.64597222222223, 24.56375], [89.65152777777779, 24.567083333333333], [89.6550497903564, 24.562020440251565], [89.64986111111111, 24.56375], [89.63958333333333, 24.54847222222222], [89.62236111111112, 24.547916666666666], [89.6151388888889, 24.537916666666664], [89.61041666666667, 24.537916666666664], [89.6101388888889, 24.547638888888887], [89.60041666666667, 24.547083333333333], [89.60375, 24.523194444444442], [89.61041666666667, 24.531527777777775], [89.60875, 24.51986111111111], [89.61541666666668, 24.530416666666664], [89.61819444444444, 24.523194444444442], [89.62102572016461, 24.527677297668035], [89.62180555555555, 24.520138888888887], [89.61736111111111, 24.52236111111111], [89.61736111111111, 24.51097222222222], [89.62041877904521, 24.509035699197295], [89.62486111111112, 24.525694444444444], [89.62986111111111, 24.52875], [89.63708333333334, 24.518749999999997], [89.64708333333334, 24.524305555555554], [89.63236111111111, 24.539305555555554], [89.65680555555556, 24.540138888888887], [89.64875, 24.521805555555556], [89.65930555555556, 24.540416666666665], [89.63986111111112, 24.548194444444444], [89.65069444444444, 24.549027777777777], [89.64680555555556, 24.55236111111111], [89.65541666666667, 24.554027777777776], [89.65375, 24.559583333333332], [89.66131172839506, 24.559751371742113], [89.65791666666667, 24.560694444444444], [89.66180555555556, 24.565416666666664], [89.66282947686118, 24.559785099485804], [89.66615703177823, 24.559859045150628], [89.66319444444444, 24.565694444444443], [89.66319444444444, 24.58458333333333], [89.65234004606224, 24.593343023255812], [89.64875, 24.605138888888888], [89.65875, 24.616249999999997], [89.66263888888889, 24.651249999999997], [89.65069444444444, 24.669305555555553], [89.63791666666667, 24.67458333333333], [89.63208333333334, 24.690694444444443], [89.64125, 24.69736111111111], [89.65958333333333, 24.678472222222222], [89.66291666666667, 24.68847222222222], [89.66736111111112, 24.68347222222222], [89.66680555555556, 24.69013888888889], [89.66044234360412, 24.692575863678805], [89.66513888888889, 24.693749999999998], [89.65902777777778, 24.696527777777778], [89.66458333333334, 24.69708333333333], [89.66125000000001, 24.701527777777777], [89.66708333333334, 24.695416666666667], [89.65541666666667, 24.745694444444442], [89.66652777777779, 24.74736111111111], [89.66402777777778, 24.75486111111111], [89.67097222222222, 24.754583333333333], [89.67486111111111, 24.765138888888888], [89.67208333333333, 24.754583333333333], [89.69958333333334, 24.745416666666664], [89.69958333333334, 24.75736111111111], [89.70125, 24.74486111111111], [89.70680555555556, 24.747083333333332], [89.72291666666666, 24.73486111111111], [89.72291666666666, 24.762916666666666], [89.69541666666667, 24.77986111111111], [89.72180555555556, 24.77486111111111], [89.73819444444445, 24.74513888888889], [89.73180555555555, 24.720138888888886], [89.74180555555556, 24.700138888888887], [89.75569444444444, 24.68847222222222], [89.76152777777779, 24.686805555555555], [89.74930555555555, 24.69736111111111], [89.76347222222222, 24.685972222222222], [89.79097222222222, 24.677638888888886], [89.78791666666667, 24.69347222222222], [89.79736111111112, 24.678194444444443], [89.78236111111111, 24.671527777777776], [89.78236111111111, 24.639201388888893], [89.78041666666667, 24.64236111111111], [89.77236111111111, 24.657083333333333], [89.78125, 24.649027777777775], [89.77291666666667, 24.65958333333333], [89.77902777777778, 24.660138888888888], [89.76402777777778, 24.664583333333333], [89.78236111111111, 24.639135572139306], [89.78236111111111, 24.625416666666666], [89.7598611111111, 24.650416666666665], [89.74236111111111, 24.68263888888889], [89.72930555555556, 24.69486111111111], [89.72041666666667, 24.69458333333333], [89.72819444444444, 24.69625], [89.71569444444445, 24.70736111111111], [89.70680555555556, 24.69097222222222], [89.71680555555555, 24.700138888888887], [89.70652777777778, 24.669305555555553], [89.71375, 24.63347222222222], [89.71819444444445, 24.654027777777777], [89.72106996726677, 24.64723108747044], [89.72069444444445, 24.645138888888887], [89.72129867405168, 24.645833752937207], [89.71541666666667, 24.636805555555554], [89.71652777777778, 24.623472222222222], [89.74458333333334, 24.605416666666667], [89.74069444444444, 24.60986111111111], [89.74569444444445, 24.613194444444442], [89.75819444444444, 24.570416666666667], [89.75708333333334, 24.603749999999998], [89.76319444444445, 24.603194444444444], [89.7676388888889, 24.586527777777775], [89.75791666666667, 24.584305555555556], [89.76013888888889, 24.57847222222222], [89.76458333333333, 24.58347222222222], [89.76069444444445, 24.57069444444444], [89.76847222222223, 24.583194444444445], [89.77347222222222, 24.582083333333333], [89.76986111111111, 24.576527777777777], [89.77430555555556, 24.576805555555556], [89.75958333333334, 24.56597222222222], [89.76319444444445, 24.549305555555556], [89.7676388888889, 24.55597222222222], [89.7676388888889, 24.539861111111108], [89.75152777777778, 24.53736111111111], [89.75097222222223, 24.54347222222222], [89.74791666666667, 24.53736111111111], [89.74680555555555, 24.543194444444442], [89.74291666666667, 24.536527777777778], [89.74736111111112, 24.539861111111108], [89.74763888888889, 24.534305555555555], [89.74069444444444, 24.53486111111111], [89.73319444444445, 24.515138888888888], [89.74930555555555, 24.50958333333333], [89.75763888888889, 24.499027777777776], [89.74736111111112, 24.483194444444443], [89.75763888888889, 24.482916666666664], [89.74236111111111, 24.470694444444444], [89.74236111111111, 24.455694444444443], [89.7551388888889, 24.455416666666665], [89.74652777777779, 24.430416666666666], [89.76597222222223, 24.37708333333333], [89.7526388888889, 24.36097222222222], [89.75180555555556, 24.350416666666664], [89.77125000000001, 24.330972222222222], [89.77402777777777, 24.301805555555553], [89.79013888888889, 24.276527777777776], [89.78069444444445, 24.220416666666665], [89.7851388888889, 24.224027777777778], [89.79847222222223, 24.174305555555556], [89.78013888888889, 24.166249999999998], [89.78763888888889, 24.157916666666665], [89.80319444444444, 24.158749999999998], [89.80652777777777, 24.140138888888888], [89.81331822107082, 24.140416049839622], [89.80986111111112, 24.14708333333333], [89.81652777777778, 24.142916666666665], [89.81448356807512, 24.14046361502347], [89.82013888888889, 24.140694444444442], [89.81458333333333, 24.116249999999997], [89.82486111111112, 24.087083333333332], [89.82291666666667, 24.072916666666664], [89.76652777777778, 24.02375], [89.74097222222223, 24.02208333333333], [89.72180555555556, 24.01347222222222], [89.70291666666667, 24.02375], [89.69875, 24.03847222222222], [89.68291666666667, 24.034305555555555], [89.68125, 24.062083333333334], [89.63736111111112, 24.086805555555554], [89.62986111111111, 24.083194444444445], [89.61652777777778, 24.096805555555555], [89.60458333333334, 24.096527777777776], [89.59013888888889, 24.107916666666664], [89.55930555555555, 24.11125], [89.55541666666667, 24.119027777777777], [89.56194744204637, 24.11811650679456], [89.56430555555556, 24.12236111111111], [89.55680555555556, 24.12763888888889], [89.54652777777778, 24.124305555555555], [89.5476388888889, 24.13347222222222], [89.53291666666667, 24.130138888888887], [89.52180555555556, 24.154305555555553], [89.52930555555555, 24.158749999999998], [89.52319444444444, 24.16847222222222], [89.53347222222223, 24.166527777777777], [89.5351388888889, 24.172916666666666], [89.5176388888889, 24.179027777777776], [89.51708333333333, 24.18875], [89.52513888888889, 24.19125], [89.52236111111111, 24.19736111111111], [89.51041666666667, 24.199583333333333], [89.50097222222223, 24.21708333333333], [89.48930555555556, 24.21708333333333], [89.48597222222223, 24.20375], [89.46930555555556, 24.20097222222222], [89.47097222222223, 24.212638888888886], [89.46152777777777, 24.22458333333333], [89.47375000000001, 24.219305555555554], [89.47819444444444, 24.22958333333333], [89.47152777777778, 24.234583333333333], [89.45430555555556, 24.227638888888887], [89.44652777777777, 24.23125], [89.45652777777778, 24.233749999999997], [89.46319444444444, 24.250138888888888], [89.46097222222222, 24.261805555555554], [89.45236111111112, 24.266805555555553], [89.4401388888889, 24.260694444444443], [89.43930555555556, 24.25236111111111], [89.42458333333333, 24.250416666666666], [89.42930555555556, 24.26736111111111], [89.41763888888889, 24.292916666666667], [89.41902777777779, 24.304583333333333], [89.42541666666666, 24.306805555555552], [89.41791666666667, 24.324027777777776], [89.40013888888889, 24.321527777777778], [89.39930555555556, 24.33625], [89.38208333333334, 24.34208333333333], [89.3751388888889, 24.338194444444444], [89.37819444444445, 24.34819444444444], [89.36625000000001, 24.353749999999998], [89.35347222222222, 24.34819444444444], [89.32152777777777, 24.350694444444443], [89.32125, 24.355694444444442], [89.31486111111111, 24.351805555555554], [89.31736111111111, 24.370694444444442], [89.31375, 24.367638888888887], [89.30875, 24.37763888888889], [89.32541666666667, 24.364305555555553], [89.31041666666667, 24.378194444444443], [89.30902777777779, 24.382638888888888], [89.30347222222223, 24.38208333333333], [89.30736111111112, 24.37597222222222], [89.29625, 24.37763888888889], [89.30847222222222, 24.375138888888888], [89.31402777777778, 24.366527777777776], [89.31319444444445, 24.35097222222222], [89.31131423089757, 24.3586721443666], [89.31097222222222, 24.35736111111111], [89.30041666666666, 24.367083333333333], [89.29291666666667, 24.365138888888886], [89.29152777777779, 24.374027777777776], [89.30791666666667, 24.364305555555553], [89.30999843505478, 24.364060641627542], [89.30736111111112, 24.37486111111111], [89.28847222222223, 24.375416666666666], [89.29227859071109, 24.378818102337565]], [[89.66627306079666, 24.55963050314464], [89.66736111111112, 24.54875], [89.67541666666666, 24.542638888888888], [89.66958333333334, 24.535138888888888], [89.66263888888889, 24.536527777777778], [89.66208333333334, 24.531527777777775], [89.67236111111112, 24.531527777777775], [89.6601388888889, 24.51347222222222], [89.67347222222223, 24.50708333333333], [89.66938753706611, 24.51482273678702], [89.67819444444444, 24.50708333333333], [89.67180555555557, 24.516527777777778], [89.67930555555556, 24.520138888888887], [89.67791666666668, 24.50819444444444], [89.68263888888889, 24.506527777777777], [89.68736111111112, 24.52486111111111], [89.67958333333334, 24.52486111111111], [89.68180555555556, 24.542638888888888], [89.67236111111112, 24.547638888888887], [89.66627306079666, 24.55963050314464]], [[89.62042255405694, 24.509033308356525], [89.62569444444445, 24.505694444444444], [89.62791666666666, 24.513749999999998], [89.63208333333334, 24.505694444444444], [89.63569444444445, 24.512083333333333], [89.62930555555556, 24.512083333333333], [89.62958333333333, 24.517638888888886], [89.62042255405694, 24.509033308356525]], [[89.8126388888889, 24.095694444444444], [89.81421875, 24.09464120370371], [89.81208333333333, 24.09986111111111], [89.8126388888889, 24.095694444444444]], [[89.81495624048706, 24.094149543378997], [89.81847222222223, 24.091805555555553], [89.81847222222223, 24.097916666666666], [89.81495624048706, 24.094149543378997]], [[89.79708333333333, 24.14625], [89.78875000000001, 24.12763888888889], [89.79486111111112, 24.137638888888887], [89.79902777777778, 24.13208333333333], [89.80291666666668, 24.13597222222222], [89.8126388888889, 24.12875], [89.80513888888889, 24.122083333333332], [89.81097222222222, 24.11736111111111], [89.81486111111111, 24.129305555555554], [89.80180936073062, 24.13916095890409], [89.80208333333334, 24.138749999999998], [89.79458333333334, 24.138749999999998], [89.79875, 24.143749999999997], [89.8014336158192, 24.13972457627119], [89.80486111111111, 24.14236111111111], [89.79930555555556, 24.14986111111111], [89.79708333333333, 24.14625]], [[89.79319444444445, 24.117916666666666], [89.78763888888889, 24.11236111111111], [89.79180555555556, 24.11486111111111], [89.79263888888889, 24.106527777777778], [89.80125, 24.104027777777777], [89.79347222222222, 24.114305555555553], [89.80041666666666, 24.119305555555552], [89.80652777777777, 24.113194444444442], [89.79847222222223, 24.125416666666666], [89.80486111111111, 24.125138888888888], [89.80458333333334, 24.131249999999998], [89.79930555555556, 24.131249999999998], [89.79319444444445, 24.117916666666666]], [[89.79291666666667, 24.07125], [89.8026388888889, 24.08597222222222], [89.79097222222222, 24.07597222222222], [89.79291666666667, 24.07125]], [[89.79041666666667, 24.067916666666665], [89.79930555555556, 24.068749999999998], [89.79152777777779, 24.07069444444444], [89.78819444444444, 24.064305555555553], [89.79041666666667, 24.067916666666665]], [[89.79569444444445, 24.080138888888886], [89.7976388888889, 24.084305555555556], [89.79097222222222, 24.084027777777777], [89.79569444444445, 24.080138888888886]], [[89.79680555555557, 24.061527777777776], [89.79680555555557, 24.06597222222222], [89.79180555555556, 24.06319444444444], [89.79680555555557, 24.061527777777776]], [[89.78902777777778, 24.08986111111111], [89.79152777777779, 24.086527777777775], [89.79347222222222, 24.09375], [89.78902777777778, 24.08986111111111]], [[89.79319444444445, 24.103194444444444], [89.78875000000001, 24.104027777777777], [89.78958333333334, 24.095138888888886], [89.79319444444445, 24.103194444444444]], [[89.76902777777778, 24.66847222222222], [89.75541666666668, 24.678194444444443], [89.75847222222222, 24.670972222222222], [89.76902777777778, 24.66847222222222]], [[89.75069444444445, 24.387916666666666], [89.75375, 24.39625], [89.74708333333334, 24.41208333333333], [89.74402777777777, 24.39986111111111], [89.69375000000001, 24.39486111111111], [89.70319444444445, 24.392638888888886], [89.71152777777777, 24.380138888888887], [89.71263888888889, 24.38513888888889], [89.71013888888889, 24.367916666666666], [89.71986111111111, 24.37125], [89.70125, 24.34236111111111], [89.71236111111111, 24.358194444444443], [89.71486111111112, 24.35097222222222], [89.71652777777778, 24.360694444444444], [89.72069444444445, 24.357916666666664], [89.72180555555556, 24.38236111111111], [89.71541666666667, 24.39125], [89.74569444444445, 24.392916666666665], [89.74847222222222, 24.384305555555553], [89.75069444444445, 24.387916666666666]], [[89.74402777777777, 24.574861111111108], [89.74847222222222, 24.57208333333333], [89.74375, 24.58625], [89.75347222222223, 24.575138888888887], [89.74569444444445, 24.588472222222222], [89.73958333333334, 24.581805555555555], [89.74402777777777, 24.574861111111108]], [[89.74819444444445, 24.37236111111111], [89.75236111111111, 24.373194444444444], [89.74875, 24.377916666666664], [89.74236111111111, 24.37736111111111], [89.74819444444445, 24.37236111111111]], [[89.74097222222223, 24.562638888888888], [89.75152777777778, 24.54375], [89.7456613611416, 24.564154927430174], [89.73597222222223, 24.566527777777775], [89.74097222222223, 24.562638888888888]], [[89.7461705767351, 24.56403022157054], [89.74986111111112, 24.55708333333333], [89.74958333333333, 24.56319444444444], [89.7461705767351, 24.56403022157054]], [[89.74430555555556, 24.389305555555556], [89.74236111111111, 24.38375], [89.74763888888889, 24.38375], [89.74430555555556, 24.389305555555556]], [[89.73958333333334, 24.599027777777778], [89.74430555555556, 24.59875], [89.73347222222222, 24.605694444444442], [89.73958333333334, 24.599027777777778]], [[89.73625, 24.576249999999998], [89.73152777777779, 24.577638888888888], [89.73569444444445, 24.585694444444442], [89.72958333333334, 24.575138888888887], [89.73263888888889, 24.56958333333333], [89.73625, 24.576249999999998]], [[89.7351388888889, 24.738194444444442], [89.73041666666667, 24.743194444444445], [89.73097222222222, 24.735416666666666], [89.7351388888889, 24.738194444444442]], [[89.73013888888889, 24.261805555555554], [89.72597222222223, 24.266527777777778], [89.72347222222223, 24.261805555555554], [89.72430555555556, 24.256527777777777], [89.72708333333334, 24.263194444444444], [89.73142524235645, 24.259618754660696], [89.73013888888889, 24.261805555555554]], [[89.73171080964686, 24.259133290267012], [89.72569444444444, 24.248194444444444], [89.73291666666667, 24.25708333333333], [89.73171080964686, 24.259133290267012]], [[89.71652777777778, 24.599027777777778], [89.72097222222223, 24.60013888888889], [89.71541666666667, 24.607083333333332], [89.72598919571746, 24.602699601775686], [89.73263888888889, 24.596805555555555], [89.73291666666667, 24.605694444444442], [89.71236111111111, 24.617638888888887], [89.71013888888889, 24.606527777777778], [89.71652777777778, 24.599027777777778]], [[89.72791666666667, 24.372638888888886], [89.72458333333334, 24.369305555555552], [89.73208333333334, 24.367083333333333], [89.72791666666667, 24.372638888888886]], [[89.72125, 24.59875], [89.73013888888889, 24.594305555555554], [89.72791666666667, 24.60097222222222], [89.72125, 24.59875]], [[89.72930555555556, 24.587916666666665], [89.72486111111111, 24.591527777777777], [89.72652777777778, 24.58347222222222], [89.72930555555556, 24.587916666666665]], [[89.71986111111111, 24.716805555555553], [89.72541666666667, 24.711527777777775], [89.72152777777778, 24.72458333333333], [89.71986111111111, 24.716805555555553]], [[89.7226388888889, 24.58486111111111], [89.72347222222223, 24.591805555555553], [89.71708333333333, 24.59375], [89.72402777777778, 24.580138888888886], [89.7226388888889, 24.58486111111111]], [[89.71958333333333, 24.357916666666664], [89.71569444444445, 24.353194444444444], [89.72236111111111, 24.353749999999998], [89.71958333333333, 24.357916666666664]], [[89.63097222222223, 24.446805555555553], [89.63680555555555, 24.449027777777776], [89.62458333333333, 24.44763888888889], [89.61347222222223, 24.437083333333334], [89.62486111111112, 24.436527777777776], [89.61763888888889, 24.440694444444443], [89.62486111111112, 24.437916666666666], [89.62236111111112, 24.445138888888888], [89.63392361111109, 24.44706597222222], [89.63097222222223, 24.446805555555553]], [[89.63402252252251, 24.447074699699698], [89.6301388888889, 24.440694444444443], [89.63569444444445, 24.44347222222222], [89.63763888888889, 24.43819444444444], [89.64189436885866, 24.447769274376416], [89.63402252252251, 24.447074699699698]], [[89.64202277131783, 24.447780604005168], [89.64041666666667, 24.436805555555555], [89.64763888888889, 24.437916666666666], [89.64843484848485, 24.441697474747475], [89.6576388888889, 24.448194444444443], [89.66430555555556, 24.44013888888889], [89.66930555555555, 24.442638888888887], [89.66986111111112, 24.436527777777776], [89.67708333333334, 24.444305555555555], [89.67069444444445, 24.441805555555554], [89.66680555555556, 24.44708333333333], [89.67847222222223, 24.445416666666667], [89.68708333333333, 24.451805555555556], [89.68347222222222, 24.443194444444444], [89.69291666666668, 24.442916666666665], [89.67930555555556, 24.43958333333333], [89.68513888888889, 24.436527777777776], [89.67798458725184, 24.42717215256009], [89.68319444444445, 24.42986111111111], [89.68375, 24.42347222222222], [89.69180555555556, 24.426805555555553], [89.68736111111112, 24.43375], [89.69303763047508, 24.433996805189736], [89.69513888888889, 24.425416666666667], [89.68875, 24.421805555555554], [89.69763888888889, 24.416527777777777], [89.69513888888889, 24.408472222222223], [89.70208333333333, 24.408472222222223], [89.70541666666666, 24.400138888888886], [89.71458333333334, 24.414861111111108], [89.71291666666667, 24.44125], [89.72097222222223, 24.462638888888886], [89.71347222222222, 24.47958333333333], [89.69291666666668, 24.485416666666666], [89.68708333333333, 24.477083333333333], [89.69208333333333, 24.474305555555553], [89.6926388888889, 24.481805555555553], [89.70347222222223, 24.46847222222222], [89.69486111111111, 24.469027777777775], [89.69597222222222, 24.463749999999997], [89.69125, 24.47208333333333], [89.68625, 24.472638888888888], [89.69125, 24.465416666666666], [89.6776388888889, 24.470416666666665], [89.68819444444445, 24.461805555555554], [89.68125, 24.457638888888887], [89.68930555555556, 24.458194444444445], [89.68486111111112, 24.45375], [89.6726388888889, 24.44708333333333], [89.66844847062913, 24.452179787973584], [89.67347222222223, 24.450138888888887], [89.67625, 24.453194444444442], [89.66726229809105, 24.45362243024963], [89.66236111111111, 24.45958333333333], [89.66263888888889, 24.44847222222222], [89.65013888888889, 24.44847222222222], [89.64901936026936, 24.444473905723896], [89.64986111111111, 24.44847222222222], [89.64202277131783, 24.447780604005168]], [[89.6928101217656, 24.40096841704718], [89.6926388888889, 24.400416666666665], [89.67492599351176, 24.396234455258174], [89.68986111111111, 24.39486111111111], [89.69819444444445, 24.387916666666666], [89.69125, 24.394305555555555], [89.6973611111111, 24.40347222222222], [89.6926388888889, 24.399027777777775], [89.6928101217656, 24.40096841704718]], [[89.67311020858403, 24.39640142398716], [89.67930555555556, 24.405694444444443], [89.68986111111111, 24.40625], [89.68347222222222, 24.41597222222222], [89.68652777777778, 24.406805555555554], [89.67958333333334, 24.409305555555555], [89.6718567251462, 24.39651668683202], [89.67311020858403, 24.39640142398716]], [[89.67464894019682, 24.425356106484983], [89.67158384301733, 24.42373598369011], [89.67819444444444, 24.422083333333333], [89.67464894019682, 24.425356106484983]], [[89.67152527936769, 24.423705028618148], [89.66744936342593, 24.42155061590608], [89.67097222222222, 24.41375], [89.67152527936769, 24.423705028618148]], [[89.66653623102934, 24.42106796021074], [89.66328475958665, 24.419349325305316], [89.66402777777778, 24.415138888888887], [89.66653623102934, 24.42106796021074]], [[89.65852746212121, 24.416834753787874], [89.65847222222223, 24.416805555555555], [89.6585261904762, 24.41684047619047], [89.65791666666667, 24.419583333333332], [89.64708333333334, 24.419027777777778], [89.64041666666667, 24.416249999999998], [89.65013888888889, 24.41263888888889], [89.64652777777778, 24.40375], [89.65097222222222, 24.407638888888886], [89.65159600389865, 24.405143762183215], [89.65347222222222, 24.412916666666664], [89.65958333333333, 24.41208333333333], [89.65852746212121, 24.416834753787874]], [[89.6516874201788, 24.404778097062586], [89.65263888888889, 24.400972222222222], [89.64430555555556, 24.40236111111111], [89.65875, 24.39875], [89.65486111111112, 24.394583333333333], [89.66541666666667, 24.39763888888889], [89.65870592948718, 24.401128472222222], [89.66041666666666, 24.404305555555553], [89.65986111111111, 24.411805555555553], [89.65853742827335, 24.401216092853417], [89.6516874201788, 24.404778097062586]], [[89.71263888888889, 24.34208333333333], [89.71597222222222, 24.339027777777776], [89.71875, 24.350694444444443], [89.71263888888889, 24.34208333333333]], [[89.71013888888889, 24.589027777777776], [89.71597222222222, 24.580972222222222], [89.71791666666667, 24.588472222222222], [89.71013888888889, 24.589027777777776]], [[89.64958333333334, 24.240972222222222], [89.65180555555555, 24.233472222222222], [89.65847222222223, 24.245416666666664], [89.65908730158732, 24.245515873015872], [89.64097222222223, 24.24486111111111], [89.63569444444445, 24.235138888888887], [89.6426388888889, 24.242083333333333], [89.64736111111111, 24.234583333333333], [89.64402777777778, 24.240972222222222], [89.64958333333334, 24.240972222222222]], [[89.66412423116861, 24.246328281012858], [89.66708333333334, 24.246805555555554], [89.67486111111111, 24.240138888888886], [89.67486111111111, 24.23236111111111], [89.66486111111111, 24.227361111111108], [89.66847222222222, 24.219027777777775], [89.66763888888889, 24.21486111111111], [89.67958333333334, 24.23097222222222], [89.68319444444445, 24.22513888888889], [89.67930555555556, 24.234583333333333], [89.67812578027466, 24.23399344569288], [89.6751388888889, 24.24458333333333], [89.68041666666667, 24.24736111111111], [89.6726388888889, 24.247638888888886], [89.67125, 24.25208333333333], [89.66902777777779, 24.25208333333333], [89.66597222222222, 24.259027777777778], [89.66924351785572, 24.263571243935413], [89.66152777777778, 24.25958333333333], [89.66597222222222, 24.25847222222222], [89.66412423116861, 24.246328281012858]], [[89.67087485889373, 24.264414408966292], [89.67069444444445, 24.261527777777776], [89.68041666666667, 24.265416666666667], [89.68013888888889, 24.255694444444444], [89.67430555555556, 24.257916666666667], [89.68236111111112, 24.25097222222222], [89.68152777777777, 24.266805555555553], [89.69597222222222, 24.274583333333332], [89.69680555555556, 24.283194444444444], [89.69097222222223, 24.27875], [89.69430555555556, 24.28625], [89.70210282651072, 24.286737329434697], [89.70041666666667, 24.292638888888888], [89.70708333333333, 24.286805555555553], [89.70819444444444, 24.300416666666667], [89.70236111111112, 24.30486111111111], [89.70875000000001, 24.304027777777776], [89.71314070204274, 24.32658002008818], [89.70430555555556, 24.322916666666664], [89.70819444444444, 24.318749999999998], [89.69763888888889, 24.315694444444443], [89.6973611111111, 24.327916666666667], [89.69152777777778, 24.328194444444442], [89.69791666666667, 24.331805555555555], [89.69847222222222, 24.324861111111108], [89.70041666666667, 24.334027777777777], [89.69236111111111, 24.329583333333332], [89.6901388888889, 24.337638888888886], [89.68347222222222, 24.32986111111111], [89.6876388888889, 24.33736111111111], [89.68347222222222, 24.331527777777776], [89.67875000000001, 24.335694444444442], [89.67680555555556, 24.327638888888888], [89.68430555555555, 24.329583333333332], [89.68125, 24.318749999999998], [89.68597222222222, 24.324583333333333], [89.69458333333334, 24.317083333333333], [89.68569444444445, 24.314027777777778], [89.68776988709264, 24.31000660764691], [89.70375, 24.315694444444443], [89.70791666666666, 24.317638888888887], [89.70791666666666, 24.30708333333333], [89.69347222222223, 24.30486111111111], [89.6881986745629, 24.30917583192329], [89.6901388888889, 24.305416666666666], [89.67736111111111, 24.300694444444442], [89.67958333333334, 24.290138888888887], [89.67319444444445, 24.289027777777775], [89.68236111111112, 24.283749999999998], [89.6726388888889, 24.282916666666665], [89.68263888888889, 24.27958333333333], [89.67569444444445, 24.27125], [89.68180555555556, 24.278194444444445], [89.68625, 24.27236111111111], [89.67087485889373, 24.264414408966292]], [[89.71125, 24.562916666666666], [89.70902777777778, 24.56736111111111], [89.7076388888889, 24.560416666666665], [89.71125, 24.562916666666666]], [[89.70375, 24.623194444444444], [89.70875000000001, 24.624583333333334], [89.70263888888888, 24.624305555555555], [89.70152777777778, 24.616249999999997], [89.70375, 24.623194444444444]], [[89.70013888888889, 24.73263888888889], [89.69847222222222, 24.715138888888887], [89.70541666666666, 24.71763888888889], [89.70236111111112, 24.722638888888888], [89.7076388888889, 24.719305555555554], [89.70041666666667, 24.730416666666667], [89.70819444444444, 24.725694444444443], [89.70847222222223, 24.730694444444442], [89.70013888888889, 24.73263888888889]], [[89.70847222222223, 24.608194444444443], [89.70819444444444, 24.623472222222222], [89.70375, 24.615416666666665], [89.70847222222223, 24.608194444444443]], [[89.70430555555556, 24.36208333333333], [89.69291666666668, 24.355694444444442], [89.70791666666666, 24.364027777777775], [89.70430555555556, 24.36208333333333]], [[89.70680555555556, 24.636805555555554], [89.70291666666667, 24.627916666666664], [89.70791666666666, 24.629305555555554], [89.70680555555556, 24.636805555555554]], [[89.70236111111112, 24.38347222222222], [89.70263888888888, 24.37597222222222], [89.70263888888888, 24.38513888888889], [89.7076388888889, 24.38347222222222], [89.69847222222222, 24.38847222222222], [89.70236111111112, 24.38347222222222]], [[89.68875, 24.21486111111111], [89.69125, 24.20875], [89.69625, 24.220138888888886], [89.70708333333333, 24.225694444444443], [89.70041666666667, 24.243194444444445], [89.70319444444445, 24.275694444444444], [89.69625, 24.268194444444443], [89.70097222222222, 24.26458333333333], [89.68375, 24.25208333333333], [89.68541666666667, 24.241249999999997], [89.69152777777778, 24.240972222222222], [89.67958333333334, 24.236527777777777], [89.68263888888889, 24.23236111111111], [89.69069444444445, 24.240138888888886], [89.68902777777778, 24.235416666666666], [89.69763888888889, 24.233194444444443], [89.6901388888889, 24.227361111111108], [89.69652777777777, 24.22625], [89.69513888888889, 24.221527777777776], [89.68486111111112, 24.218194444444443], [89.68875, 24.21486111111111]], [[89.69246794871795, 24.622040598290603], [89.69125, 24.60986111111111], [89.70652777777778, 24.59097222222222], [89.69652777777777, 24.60986111111111], [89.69246794871795, 24.622040598290603]], [[89.69247959452343, 24.622157056345447], [89.6973611111111, 24.61375], [89.69930555555555, 24.635416666666664], [89.69402777777778, 24.637638888888887], [89.69247959452343, 24.622157056345447]], [[89.69819444444445, 24.36236111111111], [89.70375, 24.366805555555555], [89.69402777777778, 24.366527777777776], [89.69819444444445, 24.36236111111111]], [[89.70069444444445, 24.335416666666664], [89.70069444444445, 24.345416666666665], [89.69541666666667, 24.339305555555555], [89.70041666666667, 24.34125], [89.70069444444445, 24.335416666666664]], [[89.68541666666667, 24.37597222222222], [89.68097222222222, 24.371805555555554], [89.70013888888889, 24.376805555555553], [89.68541666666667, 24.37597222222222]], [[89.69838606654784, 24.654592245989285], [89.69763888888889, 24.664305555555554], [89.69152777777778, 24.645416666666666], [89.69652777777777, 24.640138888888888], [89.69838606654784, 24.654592245989285]], [[89.68803774928776, 24.71707977207977], [89.69208333333333, 24.71986111111111], [89.69465777051562, 24.724237654320987], [89.69680555555556, 24.72319444444444], [89.69319444444444, 24.733472222222222], [89.67708333333334, 24.73625], [89.68803774928776, 24.71707977207977]], [[89.69430555555556, 24.686249999999998], [89.69680555555556, 24.707638888888887], [89.69125, 24.706527777777776], [89.69430555555556, 24.686249999999998]], [[89.68680555555555, 24.382916666666667], [89.68958333333333, 24.37875], [89.69430555555556, 24.38347222222222], [89.68680555555555, 24.382916666666667]], [[89.69319444444444, 24.222638888888888], [89.69069444444445, 24.22625], [89.68902777777778, 24.220694444444444], [89.69319444444444, 24.222638888888888]], [[89.68569444444445, 24.35763888888889], [89.69180555555556, 24.36208333333333], [89.68263888888889, 24.36236111111111], [89.68569444444445, 24.35763888888889]], [[89.68152777777777, 24.487916666666667], [89.69097222222223, 24.484305555555554], [89.68319444444445, 24.50486111111111], [89.67902777777778, 24.50263888888889], [89.68236111111112, 24.490972222222222], [89.67930555555556, 24.49458333333333], [89.67708333333334, 24.48986111111111], [89.68208333333334, 24.481805555555553], [89.68152777777777, 24.487916666666667]], [[89.67652777777778, 24.20958333333333], [89.68513888888889, 24.204027777777778], [89.6901388888889, 24.209027777777777], [89.67652777777778, 24.20958333333333]], [[89.68513888888889, 24.336527777777775], [89.68875, 24.341527777777777], [89.67819444444444, 24.337916666666665], [89.68513888888889, 24.336527777777775]], [[89.68208333333334, 24.38375], [89.68791666666667, 24.39125], [89.68041666666667, 24.389027777777777], [89.68208333333334, 24.38375]], [[89.68375, 24.476527777777775], [89.6726388888889, 24.476527777777775], [89.67319444444445, 24.46708333333333], [89.67819444444444, 24.47513888888889], [89.68680555555555, 24.472916666666666], [89.68347222222222, 24.483472222222222], [89.68375, 24.476527777777775]], [[89.68069444444444, 24.634305555555553], [89.67875000000001, 24.623749999999998], [89.68486111111112, 24.62125], [89.68208333333334, 24.64597222222222], [89.67680555555556, 24.629027777777775], [89.68069444444444, 24.634305555555553]], [[89.68041666666667, 24.59236111111111], [89.68291666666667, 24.586805555555554], [89.67875000000001, 24.59736111111111], [89.68041666666667, 24.59236111111111]], [[89.68208333333334, 24.41847222222222], [89.68208333333334, 24.423194444444444], [89.67708333333334, 24.409027777777776], [89.68208333333334, 24.41847222222222]], [[89.64402777777778, 24.36347222222222], [89.64013888888888, 24.35763888888889], [89.64625000000001, 24.36263888888889], [89.64902777777777, 24.35736111111111], [89.67569444444445, 24.355694444444442], [89.6751388888889, 24.34263888888889], [89.67986111111111, 24.35736111111111], [89.67541666666666, 24.362916666666667], [89.67402777777778, 24.358194444444443], [89.65958333333333, 24.361527777777777], [89.66208333333334, 24.365416666666665], [89.64402777777778, 24.36347222222222]], [[89.66291666666667, 24.487916666666667], [89.67791666666668, 24.49597222222222], [89.67819444444444, 24.506249999999998], [89.67041666666667, 24.506805555555555], [89.67236111111112, 24.496805555555554], [89.66236111111111, 24.494305555555552], [89.66291666666667, 24.487916666666667]], [[89.67180555555557, 24.426805555555553], [89.67736111111111, 24.42986111111111], [89.67569444444445, 24.437916666666666], [89.67180555555557, 24.426805555555553]], [[89.66208333333334, 24.140138888888888], [89.67152777777778, 24.139027777777777], [89.67652777777778, 24.15236111111111], [89.66208333333334, 24.140138888888888]], [[89.65541666666667, 24.388194444444444], [89.65652777777778, 24.37875], [89.6601388888889, 24.387916666666666], [89.66513888888889, 24.388194444444444], [89.66402777777778, 24.382638888888888], [89.6751388888889, 24.381249999999998], [89.67625, 24.385694444444443], [89.67013888888889, 24.39236111111111], [89.65541666666667, 24.388194444444444]], [[89.67208333333333, 24.318194444444444], [89.67597222222223, 24.329305555555553], [89.66736111111112, 24.318194444444444], [89.65625, 24.32347222222222], [89.65958333333333, 24.31513888888889], [89.67208333333333, 24.318194444444444]], [[89.67125, 24.276527777777776], [89.67541666666666, 24.27486111111111], [89.67402777777778, 24.280694444444443], [89.66680555555556, 24.27958333333333], [89.67125, 24.276527777777776]], [[89.66097222222223, 24.17236111111111], [89.66097222222223, 24.167638888888888], [89.67541666666666, 24.169583333333332], [89.66097222222223, 24.17236111111111]], [[89.67291666666667, 24.367083333333333], [89.6751388888889, 24.371805555555554], [89.66958333333334, 24.36986111111111], [89.66597222222222, 24.372916666666665], [89.6726388888889, 24.373472222222222], [89.66597222222222, 24.37625], [89.66486111111111, 24.36986111111111], [89.67291666666667, 24.367083333333333]], [[89.66458333333334, 24.485416666666666], [89.67430555555556, 24.480138888888888], [89.67069444444445, 24.48875], [89.66458333333334, 24.485416666666666]], [[89.67319444444445, 24.410138888888888], [89.67347222222223, 24.414305555555554], [89.67125, 24.40513888888889], [89.67319444444445, 24.410138888888888]], [[89.66875, 24.210694444444442], [89.66569444444444, 24.207083333333333], [89.67347222222223, 24.212916666666665], [89.66875, 24.210694444444442]], [[89.66458333333334, 24.304305555555555], [89.66402777777778, 24.29986111111111], [89.67180555555557, 24.29958333333333], [89.67152777777778, 24.307916666666664], [89.66458333333334, 24.304305555555555]], [[89.66208333333334, 24.503194444444443], [89.66513888888889, 24.499305555555555], [89.66986111111112, 24.50847222222222], [89.66208333333334, 24.503194444444443]], [[89.66208333333334, 24.554583333333333], [89.66680555555556, 24.551527777777775], [89.66569444444444, 24.557916666666664], [89.66208333333334, 24.554583333333333]], [[89.65347222222222, 24.433194444444442], [89.65513888888889, 24.423194444444444], [89.66652777777779, 24.435416666666665], [89.66180555555556, 24.44097222222222], [89.65347222222222, 24.433194444444442]], [[89.65736111111111, 24.603194444444444], [89.65930555555556, 24.591805555555553], [89.65847222222223, 24.600416666666664], [89.66125000000001, 24.595416666666665], [89.66392552828903, 24.602105487389238], [89.66347222222223, 24.60625], [89.65069444444444, 24.60458333333333], [89.65736111111111, 24.603194444444444]], [[89.66069444444445, 24.34236111111111], [89.66458333333334, 24.34708333333333], [89.65819444444445, 24.34819444444444], [89.66069444444445, 24.34236111111111]], [[89.65791666666667, 24.52208333333333], [89.65819444444445, 24.515416666666667], [89.66430555555556, 24.52375], [89.65791666666667, 24.52208333333333]], [[89.66291666666667, 24.462638888888886], [89.66402777777778, 24.467916666666664], [89.65652777777778, 24.460694444444442], [89.66291666666667, 24.462638888888886]], [[89.65375, 24.477083333333333], [89.64930555555556, 24.472638888888888], [89.66180555555556, 24.471249999999998], [89.66152777777778, 24.477638888888887], [89.65375, 24.477083333333333]], [[89.65486111111112, 24.610138888888887], [89.66152777777778, 24.60986111111111], [89.66069444444445, 24.616527777777776], [89.65486111111112, 24.610138888888887]], [[89.65263888888889, 24.185416666666665], [89.66069444444445, 24.185972222222222], [89.64819444444444, 24.186527777777776], [89.65263888888889, 24.185416666666665]], [[89.64208333333333, 24.51013888888889], [89.64208333333333, 24.505694444444444], [89.64736111111111, 24.50847222222222], [89.64430555555556, 24.50097222222222], [89.64958333333334, 24.50986111111111], [89.64930555555556, 24.499305555555555], [89.65069444444444, 24.505694444444444], [89.65875, 24.501527777777778], [89.65486111111112, 24.507916666666667], [89.66069444444445, 24.506527777777777], [89.65178164091243, 24.513876931567328], [89.64486111111111, 24.519583333333333], [89.64041666666667, 24.519583333333333], [89.64208333333333, 24.51013888888889]], [[89.65178164091243, 24.513876931567328], [89.65652777777778, 24.51625], [89.65125, 24.520138888888887], [89.65430555555555, 24.515138888888888], [89.65178164091243, 24.513876931567328]], [[89.63986111111112, 24.496527777777775], [89.63597222222222, 24.48875], [89.65430555555555, 24.494305555555552], [89.65902777777778, 24.48736111111111], [89.65402777777778, 24.496805555555554], [89.63986111111112, 24.496527777777775]], [[89.65152777777779, 24.21013888888889], [89.64986111111111, 24.200694444444444], [89.65791666666667, 24.193194444444444], [89.65152777777779, 24.21013888888889]], [[89.64680555555556, 24.48097222222222], [89.64402777777778, 24.47625], [89.65791666666667, 24.48486111111111], [89.64680555555556, 24.48097222222222]], [[89.65152777777779, 24.46097222222222], [89.65652777777778, 24.465416666666666], [89.64458333333333, 24.459305555555556], [89.65152777777779, 24.46097222222222]], [[89.64319444444445, 24.21736111111111], [89.63513888888889, 24.21708333333333], [89.64013888888888, 24.213194444444444], [89.64791666666667, 24.219305555555554], [89.64875, 24.214583333333334], [89.65513888888889, 24.22347222222222], [89.64319444444445, 24.21736111111111]], [[89.65486111111112, 24.38958333333333], [89.64152777777778, 24.382916666666667], [89.63847222222222, 24.371805555555554], [89.64597222222223, 24.37013888888889], [89.64680555555556, 24.384027777777778], [89.65486111111112, 24.38958333333333]], [[89.64458333333333, 24.150694444444444], [89.65291666666667, 24.158194444444444], [89.6426388888889, 24.15458333333333], [89.64458333333333, 24.150694444444444]], [[89.6524667718493, 24.43535642570281], [89.64708333333334, 24.43347222222222], [89.65263888888889, 24.43375], [89.6524667718493, 24.43535642570281]], [[89.65097222222222, 24.422638888888887], [89.64708333333334, 24.428194444444443], [89.63652777777779, 24.425694444444442], [89.63847222222222, 24.42013888888889], [89.63986111111112, 24.42625], [89.65097222222222, 24.422638888888887]], [[89.64402777777778, 24.269027777777776], [89.64347222222223, 24.26125], [89.64902777777777, 24.262638888888887], [89.64791666666667, 24.270694444444445], [89.64402777777778, 24.269027777777776]], [[89.64097222222223, 24.466805555555553], [89.64902777777777, 24.46486111111111], [89.64180555555556, 24.469027777777775], [89.6426388888889, 24.475694444444443], [89.64097222222223, 24.466805555555553]], [[89.64097222222223, 24.345972222222223], [89.64236111111111, 24.351805555555554], [89.64569444444444, 24.349027777777778], [89.63847222222222, 24.359027777777776], [89.64097222222223, 24.345972222222223]], [[89.63708333333334, 24.338472222222222], [89.63819444444445, 24.32736111111111], [89.64458333333333, 24.33458333333333], [89.63708333333334, 24.338472222222222]], [[89.64347222222223, 24.408194444444444], [89.63263888888889, 24.408472222222223], [89.64430555555556, 24.402916666666666], [89.64347222222223, 24.408194444444444]], [[89.64097222222223, 24.28125], [89.64430555555556, 24.289583333333333], [89.63736111111112, 24.284027777777776], [89.64097222222223, 24.28125]], [[89.63458333333334, 24.16597222222222], [89.63680555555555, 24.16125], [89.64375, 24.16597222222222], [89.63458333333334, 24.16597222222222]], [[89.61402777777778, 24.566527777777775], [89.62875, 24.560694444444444], [89.62458333333333, 24.564027777777778], [89.63986111111112, 24.56236111111111], [89.64208333333333, 24.566805555555554], [89.62208333333334, 24.56597222222222], [89.62208333333334, 24.572916666666664], [89.61402777777778, 24.566527777777775]], [[89.63680555555555, 24.307916666666664], [89.64125, 24.312083333333334], [89.63263888888889, 24.31597222222222], [89.63680555555555, 24.307916666666664]], [[89.63041666666668, 24.554583333333333], [89.62625, 24.55013888888889], [89.63902777777778, 24.560138888888886], [89.63041666666668, 24.554583333333333]], [[89.63097222222223, 24.497638888888886], [89.62652777777778, 24.490416666666665], [89.63847222222222, 24.500416666666666], [89.63097222222223, 24.497638888888886]], [[89.63569444444445, 24.378194444444443], [89.6301388888889, 24.37125], [89.63819444444445, 24.36347222222222], [89.63569444444445, 24.378194444444443]], [[89.63319444444444, 24.200694444444444], [89.63819444444445, 24.19847222222222], [89.63791666666667, 24.203194444444442], [89.63319444444444, 24.200694444444444]], [[89.63125000000001, 24.457638888888887], [89.63791666666667, 24.46875], [89.62958333333333, 24.462638888888886], [89.63125000000001, 24.457638888888887]], [[89.63680555555555, 24.479027777777777], [89.63652777777779, 24.48736111111111], [89.63097222222223, 24.47986111111111], [89.63680555555555, 24.479027777777777]], [[89.62180555555555, 24.220138888888886], [89.63652777777779, 24.207638888888887], [89.62902777777778, 24.220972222222223], [89.63680555555555, 24.22625], [89.63236111111111, 24.23236111111111], [89.62819444444445, 24.220694444444444], [89.62541666666667, 24.22958333333333], [89.62180555555555, 24.220138888888886]], [[89.62680555555556, 24.42236111111111], [89.6280928689884, 24.419700663349914], [89.63347222222222, 24.418194444444442], [89.63597222222222, 24.42458333333333], [89.62680555555556, 24.42236111111111]], [[89.62875, 24.321527777777778], [89.63291666666667, 24.324861111111108], [89.62347222222222, 24.328194444444442], [89.6276388888889, 24.317083333333333], [89.62875, 24.321527777777778]], [[89.61958333333334, 24.40458333333333], [89.63097222222223, 24.402916666666666], [89.63180555555556, 24.407916666666665], [89.61958333333334, 24.40458333333333]], [[89.62930555555556, 24.388194444444444], [89.63152777777778, 24.399583333333332], [89.62152777777779, 24.389305555555556], [89.62930555555556, 24.388194444444444]], [[89.62625, 24.200138888888887], [89.62875, 24.19458333333333], [89.63097222222223, 24.200416666666666], [89.62625, 24.200138888888887]], [[89.62986111111111, 24.296805555555554], [89.62652777777778, 24.29986111111111], [89.63069444444444, 24.28763888888889], [89.62986111111111, 24.296805555555554]], [[89.62652777777778, 24.347916666666666], [89.63069444444444, 24.361527777777777], [89.62458333333333, 24.36486111111111], [89.62069444444445, 24.345972222222223], [89.62652777777778, 24.347916666666666]], [[89.62736111111111, 24.471527777777776], [89.6251388888889, 24.48097222222222], [89.63041666666668, 24.483472222222222], [89.61736111111111, 24.482916666666664], [89.62736111111111, 24.471527777777776]], [[89.62680555555556, 24.164027777777775], [89.62958333333333, 24.167916666666667], [89.62402777777778, 24.16708333333333], [89.62680555555556, 24.164027777777775]], [[89.62097222222222, 24.334027777777777], [89.6276388888889, 24.335694444444442], [89.61402777777778, 24.332916666666666], [89.62097222222222, 24.334027777777777]], [[89.62402777777778, 24.252916666666664], [89.62208333333334, 24.247083333333332], [89.62708333333333, 24.25819444444444], [89.62402777777778, 24.252916666666664]], [[89.6126388888889, 24.166527777777777], [89.62652777777778, 24.16347222222222], [89.60930555555557, 24.17236111111111], [89.60541666666667, 24.166527777777777], [89.6126388888889, 24.166527777777777]], [[89.61680555555556, 24.414305555555554], [89.62319444444445, 24.413194444444443], [89.61986111111112, 24.41847222222222], [89.61680555555556, 24.414305555555554]], [[89.62152777777779, 24.506805555555555], [89.61569444444444, 24.500138888888888], [89.62236111111112, 24.498749999999998], [89.62152777777779, 24.506805555555555]], [[89.61430555555556, 24.293194444444442], [89.62125, 24.29097222222222], [89.61819444444444, 24.299305555555556], [89.61430555555556, 24.293194444444442]], [[89.62069444444445, 24.32375], [89.62041666666667, 24.32986111111111], [89.61486111111111, 24.327638888888888], [89.62069444444445, 24.32375]], [[89.61208333333333, 24.337638888888886], [89.61569444444444, 24.34208333333333], [89.60513888888889, 24.341527777777777], [89.61208333333333, 24.337638888888886]], [[89.59708333333333, 24.492916666666666], [89.60513888888889, 24.50375], [89.60958333333333, 24.49986111111111], [89.60708333333334, 24.48736111111111], [89.60069444444444, 24.490972222222222], [89.58875, 24.47847222222222], [89.58541666666667, 24.47236111111111], [89.59319444444445, 24.47625], [89.59208333333333, 24.468194444444443], [89.60347222222222, 24.47625], [89.59375, 24.477083333333333], [89.60125000000001, 24.48736111111111], [89.60929828973843, 24.48560054773083], [89.60819444444445, 24.486527777777777], [89.61097222222223, 24.50736111111111], [89.60847222222222, 24.50263888888889], [89.60152777777778, 24.50597222222222], [89.59708333333333, 24.492916666666666]], [[89.61003099173554, 24.484985078053256], [89.60847222222222, 24.478749999999998], [89.6151388888889, 24.480694444444442], [89.61003099173554, 24.484985078053256]], [[89.60152777777778, 24.408472222222223], [89.60902777777778, 24.407916666666665], [89.61402777777778, 24.415138888888887], [89.60152777777778, 24.408472222222223]], [[89.60122645951037, 24.430072975517902], [89.59263888888889, 24.422916666666666], [89.60319444444444, 24.42013888888889], [89.59847222222223, 24.42236111111111], [89.60122645951037, 24.430072975517902]], [[89.6013105060506, 24.43014301430143], [89.61347222222223, 24.43097222222222], [89.61319444444445, 24.437083333333334], [89.60763888888889, 24.435416666666665], [89.6013105060506, 24.43014301430143]], [[89.60930555555557, 24.451527777777777], [89.6126388888889, 24.44847222222222], [89.61347222222223, 24.45958333333333], [89.60930555555557, 24.451527777777777]], [[89.59986111111111, 24.34819444444444], [89.60402777777779, 24.34263888888889], [89.61236111111111, 24.34986111111111], [89.59986111111111, 24.34819444444444]], [[89.61069444444445, 24.47486111111111], [89.60930555555557, 24.470416666666665], [89.61236111111111, 24.478749999999998], [89.61069444444445, 24.47486111111111]], [[89.60041666666667, 24.29513888888889], [89.6021578099839, 24.30384460547504], [89.60875, 24.300416666666667], [89.60847222222222, 24.305694444444445], [89.6022149122807, 24.304130116959062], [89.60263888888889, 24.30625], [89.59486111111111, 24.29986111111111], [89.59430555555556, 24.288194444444443], [89.60132841907152, 24.289440436358564], [89.60041666666667, 24.29513888888889]], [[89.60686696576302, 24.243574360442917], [89.60708333333334, 24.23708333333333], [89.61125, 24.244027777777777], [89.60686696576302, 24.243574360442917]], [[89.60513888888889, 24.326527777777777], [89.60097222222223, 24.325138888888887], [89.60819444444445, 24.321805555555553], [89.60539418334784, 24.326759863649553], [89.60513888888889, 24.326527777777777]], [[89.60541666666667, 24.25708333333333], [89.6101388888889, 24.254027777777775], [89.60875, 24.26125], [89.60069444444444, 24.259305555555553], [89.60541666666667, 24.25708333333333]], [[89.60652777777779, 24.400416666666665], [89.60458333333334, 24.395416666666666], [89.60875, 24.399027777777775], [89.60125000000001, 24.407916666666665], [89.60652777777779, 24.400416666666665]], [[89.60875, 24.475416666666664], [89.60513888888889, 24.483194444444443], [89.60097222222223, 24.480138888888888], [89.60875, 24.475416666666664]], [[89.60791666666667, 24.148194444444442], [89.60180555555556, 24.149305555555554], [89.60652777777779, 24.141527777777778], [89.60791666666667, 24.148194444444442]], [[89.60291666666667, 24.15597222222222], [89.60763888888889, 24.157083333333333], [89.60458333333334, 24.164583333333333], [89.60291666666667, 24.15597222222222]], [[89.60652777777779, 24.36347222222222], [89.60736111111112, 24.370694444444442], [89.59986111111111, 24.366527777777776], [89.60652777777779, 24.36347222222222]], [[89.60208333333334, 24.44597222222222], [89.59930555555556, 24.441527777777775], [89.60708333333334, 24.44597222222222], [89.60208333333334, 24.44597222222222]], [[89.60152777777778, 24.34236111111111], [89.59902777777778, 24.337916666666665], [89.60708333333334, 24.335416666666664], [89.60152777777778, 24.34236111111111]], [[89.58708333333334, 24.171249999999997], [89.59597222222223, 24.168194444444442], [89.59819444444445, 24.172916666666666], [89.60013888888889, 24.166805555555555], [89.60513888888889, 24.171527777777776], [89.60180555555556, 24.184583333333332], [89.59708333333333, 24.18097222222222], [89.60208333333334, 24.18875], [89.59819444444445, 24.191805555555554], [89.58708333333334, 24.171249999999997]], [[89.59680555555556, 24.22236111111111], [89.59430555555556, 24.21625], [89.60208333333334, 24.20347222222222], [89.59680555555556, 24.22236111111111]], [[89.60152777777778, 24.462638888888886], [89.59847222222223, 24.46847222222222], [89.59458333333333, 24.458194444444445], [89.59986111111111, 24.45958333333333], [89.59736111111111, 24.465138888888887], [89.60152777777778, 24.462638888888886]], [[89.60097222222223, 24.386527777777776], [89.5951388888889, 24.387638888888887], [89.59847222222223, 24.382638888888888], [89.60097222222223, 24.386527777777776]], [[89.59819444444445, 24.196527777777778], [89.59208333333333, 24.195416666666667], [89.59819444444445, 24.192083333333333], [89.59819444444445, 24.196527777777778]], [[89.59375, 24.27208333333333], [89.59208333333333, 24.280416666666664], [89.58291666666666, 24.28236111111111], [89.58736111111111, 24.271805555555556], [89.59375, 24.27208333333333]], [[89.58513888888889, 24.295694444444443], [89.59319444444445, 24.29347222222222], [89.59319444444445, 24.299027777777777], [89.58513888888889, 24.295694444444443]], [[89.59263888888889, 24.31736111111111], [89.59236111111112, 24.312638888888888], [89.59319444444445, 24.325694444444444], [89.59263888888889, 24.31736111111111]], [[89.58763888888889, 24.221249999999998], [89.59319444444445, 24.221249999999998], [89.58569444444444, 24.22458333333333], [89.58513888888889, 24.216805555555553], [89.58763888888889, 24.221249999999998]], [[89.5835141509434, 24.257628406708584], [89.57958333333333, 24.241249999999997], [89.58541666666667, 24.248749999999998], [89.5835141509434, 24.257628406708584]], [[89.58438953488373, 24.261275839793285], [89.59291666666667, 24.26625], [89.58625, 24.269027777777776], [89.58438953488373, 24.261275839793285]], [[89.59152777777778, 24.136805555555554], [89.58152777777778, 24.13486111111111], [89.58986111111112, 24.13208333333333], [89.59152777777778, 24.136805555555554]], [[89.58152777777778, 24.373194444444444], [89.58847222222222, 24.369027777777777], [89.59152777777778, 24.379583333333333], [89.57791666666667, 24.37708333333333], [89.58152777777778, 24.373194444444444]], [[89.5826388888889, 24.456805555555555], [89.58958333333334, 24.44458333333333], [89.59125, 24.456805555555555], [89.58569444444444, 24.454583333333332], [89.58402777777778, 24.463749999999997], [89.5826388888889, 24.456805555555555]], [[89.58569444444444, 24.49736111111111], [89.58736111111111, 24.491527777777776], [89.59069444444445, 24.50375], [89.58569444444444, 24.49736111111111]], [[89.56875000000001, 24.54347222222222], [89.58208333333333, 24.54097222222222], [89.59013888888889, 24.529305555555553], [89.58152777777778, 24.54958333333333], [89.57986111111111, 24.54375], [89.56875000000001, 24.54347222222222]], [[89.58513888888889, 24.126805555555553], [89.58958333333334, 24.118194444444445], [89.58763888888889, 24.127916666666664], [89.57930555555556, 24.129583333333333], [89.58513888888889, 24.126805555555553]], [[89.58236111111111, 24.43208333333333], [89.57875, 24.427638888888886], [89.58763888888889, 24.43375], [89.58236111111111, 24.43208333333333]], [[89.57680555555555, 24.393194444444443], [89.57680555555555, 24.386527777777776], [89.58541666666667, 24.386805555555554], [89.58625, 24.39236111111111], [89.57680555555555, 24.393194444444443]], [[89.55708333333334, 24.31986111111111], [89.55069444444445, 24.318194444444444], [89.55847222222222, 24.317638888888887], [89.55736111111112, 24.310694444444444], [89.56486111111111, 24.32097222222222], [89.56847222222223, 24.31597222222222], [89.56458333333333, 24.309305555555554], [89.55625, 24.310416666666665], [89.55875, 24.305694444444445], [89.55717592592593, 24.305891203703702], [89.55291666666668, 24.297638888888887], [89.56180555555555, 24.29847222222222], [89.56680555555556, 24.289305555555554], [89.56847222222223, 24.29736111111111], [89.57059486373166, 24.294766771488465], [89.57097222222222, 24.29986111111111], [89.56458333333333, 24.295972222222222], [89.55986111111112, 24.30097222222222], [89.57041666666667, 24.307916666666664], [89.5808170082379, 24.304111663652797], [89.57180555555556, 24.312083333333334], [89.57847222222223, 24.32347222222222], [89.56430555555556, 24.324027777777776], [89.57013888888889, 24.325694444444444], [89.56847222222223, 24.334027777777777], [89.56041666666667, 24.327916666666667], [89.56347222222223, 24.32097222222222], [89.55708333333334, 24.31986111111111]], [[89.57290204678362, 24.29194688109162], [89.57347222222222, 24.291249999999998], [89.56430555555556, 24.287916666666664], [89.55791666666667, 24.296527777777776], [89.55347222222223, 24.291527777777777], [89.56986111111111, 24.285138888888888], [89.57708333333333, 24.291249999999998], [89.57290204678362, 24.29194688109162]], [[89.58169740569075, 24.303332850521436], [89.57986111111111, 24.296249999999997], [89.58312185642433, 24.30207275948788], [89.58169740569075, 24.303332850521436]], [[89.58125, 24.210694444444442], [89.58069444444445, 24.203194444444442], [89.58541666666667, 24.207916666666666], [89.58125, 24.210694444444442]], [[89.56875000000001, 24.275416666666665], [89.56013888888889, 24.277638888888887], [89.56708333333333, 24.271527777777777], [89.56125, 24.267638888888886], [89.57097222222222, 24.263194444444444], [89.57347222222222, 24.276249999999997], [89.5826388888889, 24.279027777777777], [89.57847222222223, 24.28625], [89.58458333333334, 24.28736111111111], [89.58319444444444, 24.29236111111111], [89.57986111111111, 24.28763888888889], [89.57763888888888, 24.291805555555555], [89.57819444444445, 24.27958333333333], [89.57569444444445, 24.289027777777775], [89.56875000000001, 24.275416666666665]], [[89.57458333333334, 24.427083333333332], [89.56375, 24.42625], [89.57069444444444, 24.417916666666667], [89.58402777777778, 24.42458333333333], [89.57458333333334, 24.427083333333332]], [[89.57430555555555, 24.31319444444444], [89.58069444444445, 24.306805555555552], [89.57819444444445, 24.31625], [89.57430555555555, 24.31319444444444]], [[89.57097222222222, 24.351527777777775], [89.57541666666667, 24.341805555555553], [89.58069444444445, 24.35597222222222], [89.57291666666667, 24.355138888888888], [89.57597222222222, 24.34736111111111], [89.57097222222222, 24.351527777777775]], [[89.57569444444445, 24.399305555555554], [89.57069444444444, 24.395138888888887], [89.57930555555556, 24.39875], [89.57291666666667, 24.40597222222222], [89.57569444444445, 24.399305555555554]], [[89.56208333333333, 24.260694444444443], [89.56986111111111, 24.26125], [89.5676388888889, 24.254305555555554], [89.57109234234235, 24.256189257439257], [89.56819444444444, 24.24486111111111], [89.56847222222223, 24.23986111111111], [89.57513888888889, 24.24347222222222], [89.57708333333333, 24.254027777777775], [89.57409354688951, 24.25545148560817], [89.57875, 24.257916666666667], [89.57847222222223, 24.262083333333333], [89.57406124497993, 24.255466867469877], [89.57176906779661, 24.25655838041431], [89.57375, 24.257638888888888], [89.56847222222223, 24.26347222222222], [89.55791666666667, 24.261527777777776], [89.56208333333333, 24.260694444444443]], [[89.56845638690947, 24.21837589073634], [89.56597222222223, 24.220694444444444], [89.56125, 24.215694444444445], [89.56845638690947, 24.21837589073634]], [[89.56991640492083, 24.21891915325219], [89.57319444444445, 24.220138888888886], [89.57847222222223, 24.211805555555554], [89.57319444444445, 24.23986111111111], [89.57375, 24.230694444444442], [89.56402777777778, 24.226527777777775], [89.56958333333334, 24.22208333333333], [89.56991640492083, 24.21891915325219]], [[89.57430555555555, 24.385416666666664], [89.57125, 24.380416666666665], [89.57791666666667, 24.38236111111111], [89.57430555555555, 24.385416666666664]], [[89.57041666666667, 24.36125], [89.56652777777778, 24.359027777777776], [89.57708333333333, 24.359583333333333], [89.57041666666667, 24.36125]], [[89.57180555555556, 24.184583333333332], [89.57486111111112, 24.19708333333333], [89.56597222222223, 24.182916666666664], [89.57180555555556, 24.184583333333332]], [[89.57430555555555, 24.416805555555555], [89.56902777777778, 24.415416666666665], [89.57486111111112, 24.41125], [89.57430555555555, 24.416805555555555]], [[89.57041666666667, 24.403194444444445], [89.56819444444444, 24.398194444444442], [89.57347222222222, 24.399583333333332], [89.57041666666667, 24.403194444444445]], [[89.56875000000001, 24.541805555555555], [89.56541666666666, 24.535416666666666], [89.57347222222222, 24.53875], [89.56875000000001, 24.541805555555555]], [[89.55819444444445, 24.39125], [89.56041666666667, 24.38347222222222], [89.56597222222223, 24.38458333333333], [89.55819444444445, 24.39125]], [[89.55097222222223, 24.404305555555553], [89.56319444444445, 24.415416666666665], [89.55402777777778, 24.41597222222222], [89.55354070483226, 24.419503501077255], [89.54152777777779, 24.416249999999998], [89.55236111111111, 24.41736111111111], [89.54569444444445, 24.411527777777778], [89.55125, 24.408472222222223], [89.54625, 24.403194444444445], [89.55097222222223, 24.404305555555553]], [[89.55847222222222, 24.50708333333333], [89.55763888888889, 24.49986111111111], [89.56291666666667, 24.505694444444444], [89.55847222222222, 24.50708333333333]], [[89.56208333333333, 24.27125], [89.55319444444444, 24.271527777777777], [89.55819444444445, 24.263749999999998], [89.56208333333333, 24.27125]], [[89.55763888888889, 24.42736111111111], [89.55041666666666, 24.429305555555555], [89.55708333333334, 24.425416666666667], [89.56069444444445, 24.430138888888887], [89.55763888888889, 24.42736111111111]], [[89.55708333333334, 24.35347222222222], [89.56041666666667, 24.361805555555556], [89.55291666666668, 24.356527777777778], [89.55708333333334, 24.35347222222222]], [[89.5501388888889, 24.370694444444442], [89.55458333333334, 24.369027777777777], [89.55736111111112, 24.376805555555553], [89.5501388888889, 24.370694444444442]], [[89.54652777777778, 24.461527777777775], [89.54347222222222, 24.46597222222222], [89.54069444444444, 24.452638888888888], [89.54708333333333, 24.440416666666664], [89.55431126331811, 24.440167427701674], [89.55569444444444, 24.44708333333333], [89.54819444444445, 24.444027777777777], [89.54652777777778, 24.461527777777775]], [[89.55097222222223, 24.458194444444445], [89.54791666666667, 24.455416666666665], [89.55486111111111, 24.453194444444442], [89.54680555555557, 24.46597222222222], [89.55097222222223, 24.458194444444445]], [[89.54430555555555, 24.392083333333332], [89.55430555555556, 24.395694444444445], [89.54319444444445, 24.396805555555556], [89.54430555555555, 24.392083333333332]], [[89.55125, 24.513194444444444], [89.55375000000001, 24.519027777777776], [89.54791666666667, 24.523194444444442], [89.55125, 24.513194444444444]], [[89.54013888888889, 24.42347222222222], [89.54680555555557, 24.428194444444443], [89.55236111111111, 24.42347222222222], [89.54902777777778, 24.43263888888889], [89.54458333333334, 24.427916666666665], [89.54569444444445, 24.434305555555554], [89.53791666666667, 24.431527777777777], [89.54236111111112, 24.426805555555553], [89.53180555555556, 24.421805555555554], [89.54347222222222, 24.420694444444443], [89.54013888888889, 24.42347222222222]], [[89.55097222222223, 24.36736111111111], [89.54513888888889, 24.373749999999998], [89.54291666666667, 24.36347222222222], [89.55097222222223, 24.36736111111111]], [[89.55097222222223, 24.204027777777778], [89.54236111111112, 24.201805555555556], [89.54847222222223, 24.19847222222222], [89.55097222222223, 24.204027777777778]], [[89.53986111111111, 24.300694444444442], [89.5501388888889, 24.307916666666664], [89.53152777777778, 24.30236111111111], [89.53986111111111, 24.300694444444442]], [[89.54319444444445, 24.38625], [89.54819444444445, 24.387361111111108], [89.53986111111111, 24.38986111111111], [89.54319444444445, 24.38625]], [[89.52930555555555, 24.51486111111111], [89.53040982605296, 24.522314936968627], [89.52375, 24.517638888888886], [89.52930555555555, 24.51486111111111]], [[89.53047103435674, 24.522357913011696], [89.54458333333334, 24.521527777777777], [89.53930555555556, 24.52847222222222], [89.5476388888889, 24.525138888888886], [89.54736111111112, 24.53763888888889], [89.54402777777779, 24.52986111111111], [89.53402777777778, 24.536805555555553], [89.53680555555556, 24.526805555555555], [89.53047103435674, 24.522357913011696]], [[89.54291666666667, 24.318194444444444], [89.54236111111112, 24.312083333333334], [89.54708333333333, 24.32125], [89.54291666666667, 24.318194444444444]], [[89.52680555555555, 24.411527777777778], [89.52486111111111, 24.40597222222222], [89.5351388888889, 24.414305555555554], [89.54513888888889, 24.41069444444444], [89.54069444444444, 24.416249999999998], [89.52680555555555, 24.411527777777778]], [[89.52236111111111, 24.46708333333333], [89.52643838304553, 24.470441086691086], [89.52069444444444, 24.471527777777776], [89.52236111111111, 24.46708333333333]], [[89.52784951563189, 24.470174115661237], [89.53360285795132, 24.464181050745143], [89.53736111111111, 24.46736111111111], [89.54152777777779, 24.461527777777775], [89.53902777777778, 24.474305555555553], [89.53236111111111, 24.477083333333333], [89.53097222222223, 24.469583333333333], [89.52784951563189, 24.470174115661237]], [[89.54069444444444, 24.478194444444444], [89.5326388888889, 24.480416666666667], [89.54152777777779, 24.474027777777778], [89.54069444444444, 24.478194444444444]], [[89.54152777777779, 24.33458333333333], [89.53625000000001, 24.335416666666664], [89.53819444444444, 24.329583333333332], [89.54152777777779, 24.33458333333333]], [[89.53819444444444, 24.48847222222222], [89.53319444444445, 24.492638888888887], [89.52819444444445, 24.479305555555555], [89.53819444444444, 24.48847222222222]], [[89.52930555555555, 24.338472222222222], [89.52625, 24.331805555555555], [89.53625000000001, 24.34097222222222], [89.52984808429119, 24.341591762452104], [89.52930555555555, 24.338472222222222]], [[89.51807255337138, 24.49860450574226], [89.51486111111112, 24.49375], [89.52208333333334, 24.49486111111111], [89.51807255337138, 24.49860450574226]], [[89.52031848659006, 24.50199952107281], [89.52263888888889, 24.505138888888887], [89.53208333333333, 24.50708333333333], [89.52680555555555, 24.511805555555554], [89.52031848659006, 24.50199952107281]], [[89.53069444444445, 24.29097222222222], [89.53097222222223, 24.30236111111111], [89.52652777777779, 24.29513888888889], [89.53069444444445, 24.29097222222222]], [[89.52513888888889, 24.48847222222222], [89.52958333333333, 24.48986111111111], [89.52347222222222, 24.492638888888887], [89.52513888888889, 24.48847222222222]], [[89.52263888888889, 24.478194444444444], [89.52125000000001, 24.474027777777778], [89.52875, 24.47625], [89.52263888888889, 24.478194444444444]], [[89.51902777777778, 24.43486111111111], [89.52541666666667, 24.432916666666664], [89.52847222222222, 24.440694444444443], [89.51486111111112, 24.43736111111111], [89.51902777777778, 24.43486111111111]], [[89.52449398249453, 24.35578075613907], [89.52263888888889, 24.351805555555554], [89.52708333333334, 24.355694444444442], [89.52449398249453, 24.35578075613907]], [[89.52173357858818, 24.420632064406057], [89.5176388888889, 24.421527777777776], [89.5176388888889, 24.41708333333333], [89.52173357858818, 24.420632064406057]], [[89.52069444444444, 24.44597222222222], [89.52597222222222, 24.445138888888888], [89.52513888888889, 24.450416666666666], [89.51819444444445, 24.449861111111108], [89.52069444444444, 24.44597222222222]], [[89.51875, 24.452638888888888], [89.52541666666667, 24.452916666666667], [89.52430555555556, 24.46097222222222], [89.51875, 24.452638888888888]], [[89.52097222222223, 24.465694444444445], [89.50930555555556, 24.46125], [89.51180555555555, 24.456249999999997], [89.52097222222223, 24.465694444444445]], [[89.51152777777779, 24.510694444444443], [89.5201388888889, 24.50986111111111], [89.51152777777779, 24.515138888888888], [89.51152777777779, 24.510694444444443]], [[89.50958333333334, 24.49486111111111], [89.50236111111111, 24.49375], [89.50930555555556, 24.490972222222222], [89.50375, 24.487916666666667], [89.5051388888889, 24.480416666666667], [89.51319444444445, 24.48486111111111], [89.51736111111111, 24.480694444444442], [89.51263888888889, 24.478194444444444], [89.51902777777778, 24.477638888888887], [89.51208333333334, 24.493194444444445], [89.51430555555555, 24.50375], [89.50958333333334, 24.49486111111111]], [[89.50902777777777, 24.35597222222222], [89.51875, 24.360138888888887], [89.50180555555556, 24.361805555555556], [89.50902777777777, 24.35597222222222]], [[89.51263888888889, 24.521805555555556], [89.51708333333333, 24.52125], [89.51125, 24.526527777777776], [89.51263888888889, 24.521805555555556]], [[89.51291666666667, 24.384027777777778], [89.51625, 24.380694444444444], [89.51597222222223, 24.38513888888889], [89.50541666666668, 24.38458333333333], [89.51291666666667, 24.384027777777778]], [[89.50819444444444, 24.40513888888889], [89.50625000000001, 24.400972222222222], [89.51347222222222, 24.404305555555553], [89.51171296296296, 24.41749999999999], [89.51291666666667, 24.419305555555553], [89.51513888888888, 24.425694444444442], [89.51164068100358, 24.418042114695325], [89.51013888888889, 24.429305555555555], [89.5026388888889, 24.414305555555554], [89.50819444444444, 24.40513888888889]], [[89.50736111111111, 24.392916666666665], [89.51402777777778, 24.387361111111108], [89.50875, 24.39847222222222], [89.50736111111111, 24.392916666666665]], [[89.51180555555555, 24.449305555555554], [89.50652777777778, 24.45486111111111], [89.5098611111111, 24.445416666666667], [89.51180555555555, 24.449305555555554]], [[89.5051388888889, 24.454583333333332], [89.50347222222223, 24.444027777777777], [89.50902777777777, 24.442083333333333], [89.5051388888889, 24.459305555555556], [89.5051388888889, 24.454583333333332]], [[89.4934120701396, 24.54123297582567], [89.4901388888889, 24.536527777777778], [89.49386804794938, 24.54113438602896], [89.4934120701396, 24.54123297582567]], [[89.49525240482596, 24.540835065623213], [89.49763888888889, 24.531527777777775], [89.50875, 24.537916666666664], [89.50303273681185, 24.53915283168032], [89.49819444444445, 24.53458333333333], [89.49708333333334, 24.539583333333333], [89.502095323741, 24.53935551558753], [89.49525240482596, 24.540835065623213]], [[89.49930555555555, 24.524305555555554], [89.50402777777778, 24.52208333333333], [89.50208333333333, 24.52847222222222], [89.49402777777777, 24.520694444444445], [89.49930555555555, 24.524305555555554]], [[89.48097222222222, 24.39763888888889], [89.48875, 24.394027777777776], [89.48236111111112, 24.38847222222222], [89.49319444444444, 24.387638888888887], [89.49276649804028, 24.38271750524109], [89.48986111111111, 24.384027777777778], [89.48402777777778, 24.380694444444444], [89.4901388888889, 24.373194444444444], [89.49458333333334, 24.380416666666665], [89.50097222222223, 24.37847222222222], [89.49486111111112, 24.365416666666665], [89.50402777777778, 24.37763888888889], [89.493306509299, 24.382473970751867], [89.49597222222222, 24.387361111111108], [89.48875, 24.389305555555556], [89.48930555555556, 24.402916666666666], [89.48097222222222, 24.39763888888889]], [[89.49791666666667, 24.392083333333332], [89.50375, 24.390138888888888], [89.50180555555556, 24.395138888888887], [89.49791666666667, 24.392083333333332]], [[89.50347222222223, 24.497083333333332], [89.49430555555556, 24.500138888888888], [89.49680555555555, 24.491805555555555], [89.50347222222223, 24.497083333333332]], [[89.49680555555555, 24.262361111111108], [89.50236111111111, 24.260416666666664], [89.49736111111112, 24.268749999999997], [89.49680555555555, 24.262361111111108]], [[89.48847222222223, 24.30986111111111], [89.49736111111112, 24.312638888888888], [89.48569444444445, 24.315694444444443], [89.48847222222223, 24.30986111111111]], [[89.49236111111111, 24.518749999999997], [89.48791666666666, 24.521527777777777], [89.49486111111112, 24.515138888888888], [89.49236111111111, 24.518749999999997]], [[89.49236111111111, 24.526249999999997], [89.49375, 24.531805555555554], [89.48819444444445, 24.52847222222222], [89.49236111111111, 24.526249999999997]], [[89.48875, 24.446527777777778], [89.49319444444444, 24.454027777777778], [89.48930555555556, 24.456805555555555], [89.48875, 24.446527777777778]], [[89.48625, 24.445138888888888], [89.48902777777778, 24.43125], [89.49236111111111, 24.439305555555553], [89.48625, 24.445138888888888]], [[89.48847222222223, 24.470138888888886], [89.49125000000001, 24.474027777777778], [89.48263888888889, 24.47236111111111], [89.48847222222223, 24.470138888888886]], [[89.48236111111112, 24.461527777777775], [89.48402777777778, 24.46763888888889], [89.47597222222223, 24.46597222222222], [89.48236111111112, 24.461527777777775]], [[89.47791666666667, 24.34097222222222], [89.47319444444445, 24.339583333333334], [89.48319444444445, 24.33458333333333], [89.47791666666667, 24.34097222222222]], [[89.48125, 24.401527777777776], [89.48125, 24.405694444444443], [89.47680555555556, 24.400416666666665], [89.48125, 24.401527777777776]], [[89.48069444444445, 24.452638888888888], [89.47347222222223, 24.462638888888886], [89.47125, 24.451805555555556], [89.47652777777778, 24.45375], [89.48013888888889, 24.44597222222222], [89.48069444444445, 24.452638888888888]], [[89.47625000000001, 24.42736111111111], [89.48013888888889, 24.445416666666667], [89.46930555555556, 24.435972222222222], [89.47625000000001, 24.42736111111111]], [[89.45430555555556, 24.364305555555553], [89.45847222222223, 24.358472222222222], [89.47041666666667, 24.36375], [89.45902777777778, 24.362916666666667], [89.45597222222223, 24.370694444444442], [89.45430555555556, 24.364305555555553]], [[89.46347222222222, 24.472638888888888], [89.46180555555556, 24.46736111111111], [89.46791666666667, 24.464583333333334], [89.46402777777779, 24.47236111111111], [89.46958333333333, 24.47486111111111], [89.46152777777777, 24.47625], [89.46347222222222, 24.472638888888888]], [[89.46041666666667, 24.40236111111111], [89.46625, 24.400416666666665], [89.46902777777778, 24.40958333333333], [89.46041666666667, 24.40236111111111]], [[89.46458333333334, 24.285138888888888], [89.46875, 24.28597222222222], [89.46458333333334, 24.29097222222222], [89.46458333333334, 24.285138888888888]], [[89.46291666666667, 24.484305555555554], [89.46375, 24.480138888888888], [89.46708333333333, 24.484305555555554], [89.46291666666667, 24.484305555555554]], [[89.45652777777778, 24.385416666666664], [89.46125, 24.38513888888889], [89.45652777777778, 24.38986111111111], [89.46597222222222, 24.387361111111108], [89.46486111111112, 24.392916666666665], [89.45097222222222, 24.387916666666666], [89.45652777777778, 24.385416666666664]], [[89.45402777777778, 24.41847222222222], [89.46291666666667, 24.419027777777778], [89.45902777777778, 24.422916666666666], [89.45402777777778, 24.41847222222222]], [[89.45819444444444, 24.44708333333333], [89.45486111111111, 24.43847222222222], [89.46097222222222, 24.440416666666664], [89.45819444444444, 24.44708333333333]], [[89.45597222222223, 24.424027777777777], [89.46013888888889, 24.429027777777776], [89.45263888888888, 24.429027777777776], [89.45597222222223, 24.424027777777777]], [[89.45486111111111, 24.395138888888887], [89.45263888888888, 24.39125], [89.45958333333334, 24.395416666666666], [89.45486111111111, 24.395138888888887]], [[89.45077219748964, 24.477756832374943], [89.44875, 24.47958333333333], [89.45347222222223, 24.490416666666665], [89.44986111111112, 24.498472222222222], [89.4473611111111, 24.485416666666666], [89.44180555555556, 24.492083333333333], [89.44875, 24.492916666666666], [89.4473611111111, 24.50097222222222], [89.44708333333334, 24.49458333333333], [89.43458333333334, 24.490138888888886], [89.43402777777779, 24.484305555555554], [89.43902777777778, 24.48847222222222], [89.43736111111112, 24.482916666666664], [89.44513888888889, 24.480416666666667], [89.43652777777778, 24.482083333333332], [89.43708333333333, 24.47486111111111], [89.45077219748964, 24.477756832374943]], [[89.45148073073074, 24.47711686686686], [89.45097222222222, 24.46847222222222], [89.45736111111111, 24.471805555555555], [89.45148073073074, 24.47711686686686]], [[89.45263888888888, 24.39625], [89.44986111111112, 24.40347222222222], [89.44652777777777, 24.399583333333332], [89.45263888888888, 24.39625]], [[89.44791666666667, 24.465416666666666], [89.44847222222222, 24.46125], [89.44708333333334, 24.47486111111111], [89.44791666666667, 24.465416666666666]], [[89.44597222222222, 24.516527777777778], [89.44236111111111, 24.520694444444445], [89.44791666666667, 24.511805555555554], [89.44597222222222, 24.516527777777778]], [[89.43986111111111, 24.46986111111111], [89.43847222222223, 24.46236111111111], [89.44375000000001, 24.474027777777778], [89.43375, 24.47347222222222], [89.43986111111111, 24.46986111111111]], [[89.43347222222222, 24.434305555555554], [89.42791666666668, 24.428749999999997], [89.43041666666667, 24.421805555555554], [89.44319444444444, 24.421527777777776], [89.43958333333333, 24.42597222222222], [89.43180555555556, 24.422638888888887], [89.43347222222222, 24.434305555555554]], [[89.43652777777778, 24.41208333333333], [89.43347222222222, 24.40736111111111], [89.44041666666666, 24.41097222222222], [89.43652777777778, 24.41208333333333]], [[89.43263888888889, 24.452916666666667], [89.43402777777779, 24.44569444444444], [89.43625, 24.457638888888887], [89.43263888888889, 24.452916666666667]], [[89.43319444444445, 24.384305555555553], [89.43041666666667, 24.387638888888887], [89.42902777777778, 24.381805555555555], [89.43430555555555, 24.37875], [89.43319444444445, 24.384305555555553]], [[89.42708333333334, 24.37486111111111], [89.43291666666667, 24.369305555555552], [89.42430555555556, 24.378194444444443], [89.42708333333334, 24.37486111111111]], [[89.42930555555556, 24.359305555555554], [89.43097222222222, 24.36347222222222], [89.42541666666666, 24.36236111111111], [89.42930555555556, 24.359305555555554]], [[89.42708333333334, 24.339305555555555], [89.43013888888889, 24.34236111111111], [89.41958333333334, 24.336527777777775], [89.42708333333334, 24.339305555555555]], [[89.42930555555556, 24.349305555555553], [89.42013888888889, 24.351527777777775], [89.41930555555555, 24.36208333333333], [89.41875, 24.35125], [89.42930555555556, 24.349305555555553]], [[89.41597222222222, 24.374583333333334], [89.42819444444444, 24.381249999999998], [89.41798966628745, 24.380203356086458], [89.41597222222222, 24.374583333333334]], [[89.4251388888889, 24.439027777777778], [89.42708333333334, 24.43486111111111], [89.42597222222223, 24.44597222222222], [89.42041666666667, 24.44013888888889], [89.4251388888889, 24.439027777777778]], [[89.42597222222223, 24.48986111111111], [89.42569444444445, 24.49458333333333], [89.41958333333334, 24.492638888888887], [89.42597222222223, 24.48986111111111]], [[89.4101388888889, 24.420694444444443], [89.42125, 24.419027777777778], [89.41625, 24.420416666666664], [89.41708333333334, 24.428749999999997], [89.41458333333334, 24.422916666666666], [89.4101388888889, 24.428749999999997], [89.40625, 24.42458333333333], [89.4101388888889, 24.420694444444443]], [[89.39986111111111, 24.491527777777776], [89.40347222222222, 24.48708333333333], [89.41319444444444, 24.490416666666665], [89.39875, 24.495694444444442], [89.39986111111111, 24.491527777777776]], [[89.40541666666667, 24.39597222222222], [89.40291666666667, 24.38958333333333], [89.41069444444445, 24.400694444444444], [89.40541666666667, 24.39597222222222]], [[89.40597222222223, 24.34263888888889], [89.40347222222222, 24.339027777777776], [89.40930555555556, 24.345694444444444], [89.40597222222223, 24.34263888888889]], [[89.40208333333334, 24.495694444444442], [89.40152777777779, 24.50375], [89.39763888888889, 24.499583333333334], [89.40208333333334, 24.495694444444442]], [[89.38930555555555, 24.526249999999997], [89.38875, 24.520416666666666], [89.3912141833811, 24.519843600764087], [89.39097222222223, 24.51597222222222], [89.39347222222223, 24.51013888888889], [89.39958333333334, 24.516805555555553], [89.39414575289577, 24.519161840411837], [89.40069444444444, 24.517638888888886], [89.39847222222222, 24.525694444444444], [89.3848611111111, 24.52847222222222], [89.38930555555555, 24.526249999999997]], [[89.39125, 24.47208333333333], [89.39736111111111, 24.478194444444444], [89.39069444444445, 24.480416666666667], [89.39125, 24.47208333333333]], [[89.38986111111112, 24.416527777777777], [89.39541666666666, 24.414861111111108], [89.39152777777778, 24.42458333333333], [89.38986111111112, 24.416527777777777]], [[89.39180555555556, 24.342916666666664], [89.38236111111111, 24.350694444444443], [89.37930555555556, 24.345138888888886], [89.39180555555556, 24.342916666666664]], [[89.37625, 24.54513888888889], [89.37291666666667, 24.53847222222222], [89.39069444444445, 24.55125], [89.37625, 24.54513888888889]], [[89.38482777777777, 24.39767222222222], [89.38763888888889, 24.401249999999997], [89.38180555555556, 24.400694444444444], [89.38482777777777, 24.39767222222222]], [[89.37875, 24.440694444444443], [89.38375, 24.434583333333332], [89.38513888888889, 24.440694444444443], [89.37736111111111, 24.445416666666667], [89.37875, 24.440694444444443]], [[89.36708333333334, 24.42625], [89.37263888888889, 24.424305555555556], [89.3801388888889, 24.43208333333333], [89.36930555555556, 24.431805555555552], [89.36708333333334, 24.42625]], [[89.37097222222222, 24.493194444444445], [89.37902777777778, 24.49486111111111], [89.37569444444445, 24.498472222222222], [89.37097222222222, 24.493194444444445]], [[89.37736111111111, 24.50875], [89.37375, 24.511805555555554], [89.37013888888889, 24.506249999999998], [89.37736111111111, 24.50875]], [[89.34180555555555, 24.50986111111111], [89.35291666666667, 24.506249999999998], [89.34375, 24.514305555555556], [89.34180555555555, 24.50986111111111]], [[89.34736111111111, 24.457083333333333], [89.3476388888889, 24.452916666666667], [89.35208333333334, 24.45875], [89.3451388888889, 24.463749999999997], [89.34736111111111, 24.457083333333333]], [[89.34652777777778, 24.539027777777775], [89.34930555555556, 24.544305555555553], [89.34263888888889, 24.540694444444444], [89.34652777777778, 24.539027777777775]], [[89.34013888888889, 24.481805555555553], [89.34597222222223, 24.481805555555553], [89.34375, 24.489305555555553], [89.34013888888889, 24.481805555555553]], [[89.34069444444445, 24.489027777777775], [89.33597222222222, 24.484583333333333], [89.34347222222223, 24.489583333333332], [89.33819444444444, 24.495694444444442], [89.34069444444445, 24.489027777777775]], [[89.32736111111112, 24.512916666666666], [89.32486111111112, 24.516805555555553], [89.32152777777777, 24.510416666666664], [89.32736111111112, 24.512916666666666]], [[89.30208333333334, 24.390416666666667], [89.30097222222223, 24.382638888888888], [89.30875, 24.382916666666667], [89.30208333333334, 24.390416666666667]]], [[[89.65563611111112, 24.561824999999995], [89.65291666666667, 24.57097222222222], [89.64440691736304, 24.57144498607242], [89.65375, 24.576249999999998], [89.65736111111111, 24.561249999999998], [89.65563611111112, 24.561824999999995]]], [[[89.65002247826605, 24.58010375729427], [89.65097222222222, 24.581249999999997], [89.64847222222222, 24.590694444444445], [89.65652777777778, 24.579583333333332], [89.65002247826605, 24.58010375729427]]], [[[89.65825345602212, 24.69341416105063], [89.65375, 24.695138888888888], [89.65347222222222, 24.71236111111111], [89.63736111111112, 24.716805555555553], [89.64791666666667, 24.719027777777775], [89.65513888888889, 24.71236111111111], [89.65825345602212, 24.69341416105063]]], [[[89.77959027777779, 24.69225992063491], [89.76986111111111, 24.704305555555553], [89.78902777777778, 24.69763888888889], [89.77708333333334, 24.700138888888887], [89.77959027777779, 24.69225992063491]]], [[[89.77375, 24.597638888888888], [89.77958333333333, 24.58486111111111], [89.78069444444445, 24.59125], [89.78319444444445, 24.573194444444443], [89.78736111111111, 24.576805555555556], [89.78319444444445, 24.570138888888888], [89.78875000000001, 24.574027777777776], [89.78180555555556, 24.568749999999998], [89.77125000000001, 24.60097222222222], [89.77375, 24.597638888888888]]], [[[89.76367398942462, 24.562069940165593], [89.76125, 24.564027777777778], [89.77152777777778, 24.57236111111111], [89.76367398942462, 24.562069940165593]]], [[[89.75041666666667, 24.62625], [89.76430555555555, 24.63486111111111], [89.75430555555556, 24.626527777777778], [89.76430555555555, 24.629305555555554], [89.76227556708959, 24.617886870434447], [89.75791666666667, 24.62486111111111], [89.74180555555556, 24.616249999999997], [89.7401388888889, 24.62486111111111], [89.74847222222222, 24.63458333333333], [89.74652777777779, 24.622083333333332], [89.75041666666667, 24.62625]]], [[[89.75652777777778, 24.71763888888889], [89.75597222222223, 24.73263888888889], [89.76208333333334, 24.71597222222222], [89.75652777777778, 24.71763888888889]]], [[[89.74291666666667, 24.521805555555556], [89.73819444444445, 24.522916666666664], [89.74375, 24.534305555555555], [89.74375, 24.525972222222222], [89.74819444444445, 24.530694444444443], [89.74291666666667, 24.521805555555556]]], [[[89.73858301627563, 24.628980571408402], [89.73791666666666, 24.646527777777777], [89.74319444444444, 24.650138888888886], [89.73858301627563, 24.628980571408402]]], [[[89.70986111111111, 24.42486111111111], [89.71402777777779, 24.41597222222222], [89.70958333333334, 24.407638888888886], [89.70569444444445, 24.413194444444443], [89.69652777777777, 24.41069444444444], [89.70986111111111, 24.42486111111111]]], [[[89.70270604395604, 24.47335927960928], [89.70597222222223, 24.47597222222222], [89.70930555555556, 24.470416666666665], [89.70208333333333, 24.470972222222223], [89.70270604395604, 24.47335927960928]]], [[[89.69958333333334, 24.41875], [89.69541666666667, 24.424027777777777], [89.70069444444445, 24.434583333333332], [89.70430555555556, 24.42736111111111], [89.69958333333334, 24.41875]]], [[[89.69986111111112, 24.25125], [89.69652777777777, 24.24736111111111], [89.69430555555556, 24.25486111111111], [89.69902777777779, 24.26013888888889], [89.69986111111112, 24.25125]]], [[[89.68847222222223, 24.299305555555556], [89.68513888888889, 24.289305555555554], [89.68875, 24.29486111111111], [89.69597222222222, 24.292916666666667], [89.68236111111112, 24.285416666666666], [89.68847222222223, 24.299305555555556]]], [[[89.68319444444445, 24.513749999999998], [89.67902777777778, 24.51625], [89.68319444444445, 24.52347222222222], [89.68319444444445, 24.513749999999998]]], [[[89.56069444444445, 24.637916666666666], [89.56097222222222, 24.62986111111111], [89.56208333333333, 24.63486111111111], [89.57152777777777, 24.62486111111111], [89.58236111111111, 24.62736111111111], [89.59097222222222, 24.615138888888886], [89.59208333333333, 24.625138888888888], [89.58902777777779, 24.622083333333332], [89.58541666666667, 24.630138888888887], [89.59819444444445, 24.62486111111111], [89.60736111111112, 24.630416666666665], [89.60625, 24.640138888888888], [89.59736111111111, 24.629027777777775], [89.58458333333334, 24.63958333333333], [89.58791666666667, 24.643749999999997], [89.59152777777778, 24.637361111111108], [89.60208333333334, 24.64875], [89.60597222222222, 24.645138888888887], [89.61486111111111, 24.651527777777776], [89.60680555555555, 24.66236111111111], [89.59402777777778, 24.66347222222222], [89.60513888888889, 24.666249999999998], [89.59875000000001, 24.67597222222222], [89.58902777777779, 24.66986111111111], [89.58458333333334, 24.68847222222222], [89.59013888888889, 24.693194444444444], [89.58875, 24.681527777777777], [89.59569444444445, 24.67986111111111], [89.59152777777778, 24.682916666666664], [89.59986111111111, 24.69625], [89.60458333333334, 24.682916666666664], [89.59652777777778, 24.68819444444444], [89.59541666666667, 24.681805555555552], [89.60458333333334, 24.68236111111111], [89.60597222222222, 24.66986111111111], [89.6126388888889, 24.669583333333332], [89.6101388888889, 24.65958333333333], [89.61625000000001, 24.660138888888888], [89.62375, 24.64625], [89.63263888888889, 24.65236111111111], [89.62375, 24.64125], [89.63513888888889, 24.642916666666665], [89.64430555555556, 24.621805555555554], [89.64458333333333, 24.63986111111111], [89.6576388888889, 24.638749999999998], [89.65847222222223, 24.632916666666667], [89.65041666666667, 24.629027777777775], [89.65263888888889, 24.62236111111111], [89.64708333333334, 24.624027777777776], [89.64875, 24.610138888888887], [89.64180555555556, 24.610138888888887], [89.64041666666667, 24.600416666666664], [89.63097222222223, 24.604027777777777], [89.63930555555555, 24.61125], [89.63513888888889, 24.624583333333334], [89.62847222222223, 24.605694444444442], [89.62986111111111, 24.617083333333333], [89.62125, 24.613194444444442], [89.61375, 24.621805555555554], [89.61708333333334, 24.626527777777778], [89.60625, 24.623194444444444], [89.60958333333333, 24.61958333333333], [89.59402777777778, 24.622638888888886], [89.59319444444445, 24.612916666666667], [89.60597222222222, 24.609305555555554], [89.58902777777779, 24.610694444444444], [89.58319444444444, 24.620694444444442], [89.55930555555555, 24.62625], [89.55486111111111, 24.639305555555556], [89.55986111111112, 24.642916666666665], [89.56069444444445, 24.637916666666666]], [[89.6151388888889, 24.641805555555553], [89.6126388888889, 24.63847222222222], [89.62097222222222, 24.638749999999998], [89.62208333333334, 24.645416666666666], [89.6151388888889, 24.641805555555553]], [[89.6151388888889, 24.631527777777777], [89.61125, 24.637361111111108], [89.60902777777778, 24.63097222222222], [89.6151388888889, 24.631527777777777]]], [[[89.64597222222223, 24.646805555555556], [89.64430555555556, 24.651249999999997], [89.65236111111112, 24.646527777777777], [89.64430555555556, 24.642916666666665], [89.64597222222223, 24.646805555555556]]], [[[89.63458333333334, 24.658472222222223], [89.63902777777778, 24.64847222222222], [89.63069444444444, 24.666249999999998], [89.63458333333334, 24.67236111111111], [89.63458333333334, 24.658472222222223]]], [[[89.62152777777779, 24.60597222222222], [89.61458333333334, 24.61125], [89.62208333333334, 24.611527777777777], [89.62152777777779, 24.60597222222222]]], [[[89.60597222222222, 24.684583333333332], [89.61402777777778, 24.687638888888888], [89.61486111111111, 24.680416666666666], [89.60597222222222, 24.684583333333332]]], [[[89.6101388888889, 24.539305555555554], [89.60652777777779, 24.52958333333333], [89.60513888888889, 24.54513888888889], [89.6101388888889, 24.539305555555554]]], [[[89.60680555555555, 24.595694444444444], [89.60097222222223, 24.595972222222223], [89.60319444444444, 24.604305555555555], [89.60680555555555, 24.595694444444444]]], [[[89.57458333333334, 24.640416666666667], [89.58319444444444, 24.627916666666664], [89.57069444444444, 24.63319444444444], [89.57069444444444, 24.643749999999997], [89.57458333333334, 24.640416666666667]]], [[[89.56319444444445, 24.690694444444443], [89.57652777777778, 24.687916666666666], [89.5744401985985, 24.684727309587192], [89.56319444444445, 24.690694444444443]]], [[[89.57400825315979, 24.684067392944726], [89.56652777777778, 24.672638888888887], [89.55430555555556, 24.67986111111111], [89.56680555555556, 24.67513888888889], [89.56348689358373, 24.682698063380275], [89.56375, 24.686249999999998], [89.57400825315979, 24.684067392944726]]], [[[89.55818285606374, 24.66775056654306], [89.55736111111112, 24.65597222222222], [89.5676388888889, 24.66375], [89.56347222222223, 24.64625], [89.55680555555556, 24.644027777777776], [89.56458333333333, 24.656805555555554], [89.55652777777777, 24.65375], [89.54902777777778, 24.663194444444443], [89.55513888888889, 24.660138888888888], [89.5501388888889, 24.665138888888887], [89.55818285606374, 24.66775056654306]]], [[[89.5176388888889, 24.541805555555555], [89.51347222222222, 24.53236111111111], [89.50736111111111, 24.549027777777777], [89.51958333333333, 24.54958333333333], [89.5176388888889, 24.541805555555555]]], [[[89.30541666666667, 24.37013888888889], [89.29402777777779, 24.373472222222222], [89.30680555555556, 24.374305555555555], [89.30541666666667, 24.37013888888889]]]]}}