{"type": "Feature", "properties": {}, "geometry": {"type": "MultiPolygon", "coordinates": [[[[89.28819444444444, 24.484583333333333], [89.29026398086829, 24.474235651214123], [89.29486111111112, 24.492083333333333], [89.31097222222222, 24.50736111111111], [89.31625, 24.50736111111111], [89.31430555555556, 24.49736111111111], [89.33513888888889, 24.476805555555554], [89.34430555555556, 24.477083333333333], [89.35402777777779, 24.486805555555556], [89.34875000000001, 24.471249999999998], [89.35486111111112, 24.47236111111111], [89.35625, 24.465694444444445], [89.35770424836602, 24.466977604767397], [89.36652777777778, 24.461527777777775], [89.36763888888889, 24.469305555555554], [89.37402777777778, 24.464305555555555], [89.37847222222223, 24.46875], [89.38597222222222, 24.463194444444444], [89.38097222222223, 24.454583333333332], [89.40236111111112, 24.461527777777775], [89.40375, 24.45097222222222], [89.39291666666666, 24.442916666666665], [89.40958333333333, 24.454305555555553], [89.42402777777778, 24.450138888888887], [89.40958333333333, 24.44625], [89.41986111111112, 24.44569444444444], [89.42013888888889, 24.440416666666664], [89.40541666666667, 24.425694444444442], [89.40819444444445, 24.415416666666665], [89.40013888888889, 24.415416666666665], [89.40486111111112, 24.411805555555553], [89.39152777777778, 24.401805555555555], [89.38069444444444, 24.401527777777776], [89.3848611111111, 24.396805555555556], [89.37625, 24.387916666666666], [89.38263888888889, 24.393749999999997], [89.38513888888889, 24.389027777777777], [89.37875, 24.379027777777775], [89.38208333333334, 24.373749999999998], [89.37486111111112, 24.37013888888889], [89.38902777777778, 24.37486111111111], [89.38263888888889, 24.380694444444444], [89.39791666666667, 24.406527777777775], [89.40569444444445, 24.39763888888889], [89.40291666666667, 24.389305555555556], [89.41180555555556, 24.39097222222222], [89.40513888888889, 24.380416666666665], [89.41625, 24.381249999999998], [89.39069444444445, 24.375416666666666], [89.41236111111111, 24.379305555555554], [89.41652777777779, 24.37236111111111], [89.41041666666666, 24.374305555555555], [89.41541666666667, 24.36986111111111], [89.40680555555556, 24.365694444444443], [89.4139564336373, 24.364594309354946], [89.41680555555556, 24.372638888888886], [89.42180555555557, 24.371527777777775], [89.41736111111112, 24.379305555555554], [89.43125, 24.381805555555555], [89.42776447046764, 24.377515673054177], [89.42680555555556, 24.379583333333333], [89.42069444444445, 24.374305555555555], [89.4276388888889, 24.371805555555554], [89.41708333333334, 24.364583333333332], [89.42541666666666, 24.36875], [89.4244375, 24.364071759259254], [89.41847222222222, 24.36208333333333], [89.41930555555555, 24.353749999999998], [89.41803849902534, 24.350962475633526], [89.40930555555556, 24.350416666666664], [89.39708333333334, 24.355416666666667], [89.40041666666667, 24.34875], [89.39236111111111, 24.34208333333333], [89.38708333333334, 24.364027777777775], [89.38680555555555, 24.352083333333333], [89.37875, 24.346527777777776], [89.39486111111111, 24.338749999999997], [89.40180555555555, 24.34875], [89.41803297755884, 24.350950328407222], [89.41513888888889, 24.344583333333333], [89.42152777777778, 24.34236111111111], [89.41152777777778, 24.339305555555555], [89.41430555555556, 24.332638888888887], [89.43041666666667, 24.34097222222222], [89.42097222222222, 24.344583333333333], [89.42930555555556, 24.346249999999998], [89.42041666666667, 24.356805555555553], [89.42416154371584, 24.362753301457175], [89.42291666666667, 24.356805555555553], [89.43097222222222, 24.365694444444443], [89.43569444444445, 24.360416666666666], [89.42780875082897, 24.377420193525047], [89.43402777777779, 24.379583333333333], [89.43819444444445, 24.374027777777776], [89.43541666666667, 24.38208333333333], [89.44069444444445, 24.38458333333333], [89.43513888888889, 24.382638888888888], [89.43402777777779, 24.389305555555556], [89.42930555555556, 24.386527777777776], [89.42486111111111, 24.39236111111111], [89.44291666666668, 24.40513888888889], [89.4426388888889, 24.39486111111111], [89.44958333333334, 24.39236111111111], [89.44541666666667, 24.38847222222222], [89.45208333333333, 24.394583333333333], [89.45375, 24.389305555555556], [89.44097222222223, 24.38458333333333], [89.45569444444445, 24.38486111111111], [89.45319444444445, 24.35736111111111], [89.46402777777779, 24.359583333333333], [89.45236111111112, 24.353749999999998], [89.46541666666667, 24.351805555555554], [89.47125, 24.36375], [89.46152777777777, 24.368194444444445], [89.47069444444445, 24.38486111111111], [89.46486111111112, 24.391527777777778], [89.47430555555556, 24.38347222222222], [89.46930555555556, 24.393472222222222], [89.48458333333333, 24.39708333333333], [89.4876388888889, 24.392638888888886], [89.48208333333334, 24.38847222222222], [89.49208333333334, 24.386805555555554], [89.47902777777779, 24.384305555555553], [89.47930555555556, 24.37763888888889], [89.48930555555556, 24.37875], [89.48930555555556, 24.372083333333332], [89.49236111111111, 24.37875], [89.49708333333334, 24.376805555555553], [89.49486111111112, 24.365416666666665], [89.50652777777778, 24.374583333333334], [89.49291666666667, 24.381249999999998], [89.49708333333334, 24.390416666666667], [89.4901388888889, 24.390138888888888], [89.49125000000001, 24.400694444444444], [89.50152777777778, 24.404305555555553], [89.49708333333334, 24.39125], [89.50319444444445, 24.38958333333333], [89.50291666666666, 24.402916666666666], [89.5098611111111, 24.403194444444445], [89.50625000000001, 24.39125], [89.51347222222222, 24.385416666666664], [89.5026388888889, 24.38458333333333], [89.51458333333333, 24.37763888888889], [89.5201388888889, 24.38513888888889], [89.51291666666667, 24.39763888888889], [89.5326388888889, 24.384305555555553], [89.52263888888889, 24.400416666666665], [89.54430555555555, 24.41069444444444], [89.54486111111112, 24.40347222222222], [89.53541666666666, 24.400138888888886], [89.54319444444445, 24.392638888888886], [89.53930555555556, 24.389027777777777], [89.54402777777779, 24.379583333333333], [89.53208333333333, 24.372916666666665], [89.54513888888889, 24.374583333333334], [89.54180555555556, 24.366527777777776], [89.55152777777778, 24.36375], [89.55708333333334, 24.35097222222222], [89.5501388888889, 24.349305555555553], [89.55625, 24.345972222222223], [89.5501388888889, 24.341527777777777], [89.55498119844736, 24.339711911693353], [89.55236111111111, 24.335694444444442], [89.55958333333334, 24.338749999999997], [89.56208333333333, 24.33347222222222], [89.56069444444445, 24.34847222222222], [89.55756083562902, 24.343667355371895], [89.56069444444445, 24.362916666666667], [89.56633583690986, 24.365954339532653], [89.56125, 24.361527777777777], [89.57736111111112, 24.37125], [89.58041666666666, 24.365416666666665], [89.56680555555556, 24.362916666666667], [89.55930555555555, 24.353749999999998], [89.57402777777779, 24.359027777777776], [89.57097222222222, 24.352638888888887], [89.57597222222222, 24.35013888888889], [89.5676388888889, 24.34875], [89.57458333333334, 24.331527777777776], [89.5676388888889, 24.32736111111111], [89.5663779650437, 24.33303526841448], [89.55736111111112, 24.329027777777778], [89.56152777777778, 24.32236111111111], [89.55069444444445, 24.319305555555555], [89.55791666666667, 24.31319444444444], [89.54708333333333, 24.315416666666664], [89.55236111111111, 24.310416666666665], [89.54569444444445, 24.305138888888887], [89.52847222222222, 24.309027777777775], [89.53291666666667, 24.30736111111111], [89.52902777777778, 24.303472222222222], [89.53541666666666, 24.305416666666666], [89.53116666666666, 24.300749999999994], [89.54069444444444, 24.303472222222222], [89.54097222222222, 24.299305555555556], [89.55097222222223, 24.30625], [89.53763888888889, 24.27958333333333], [89.54736111111112, 24.277638888888887], [89.54819444444445, 24.294027777777778], [89.56125, 24.29847222222222], [89.54986111111111, 24.28847222222222], [89.56013888888889, 24.29097222222222], [89.55819444444445, 24.278194444444445], [89.56458333333333, 24.27347222222222], [89.55236111111111, 24.271805555555556], [89.54930555555556, 24.265138888888888], [89.56736111111111, 24.267638888888886], [89.56819444444444, 24.262638888888887], [89.5626388888889, 24.26625], [89.55708333333334, 24.26125], [89.56736111111111, 24.260416666666664], [89.56569444444445, 24.252916666666664], [89.57208333333334, 24.250138888888888], [89.5651388888889, 24.244027777777777], [89.56121864948496, 24.2461745755466], [89.55319444444444, 24.233749999999997], [89.55986111111112, 24.240694444444443], [89.55319444444444, 24.233194444444443], [89.54875, 24.236527777777777], [89.54458333333334, 24.225416666666664], [89.56069444444445, 24.234027777777776], [89.56180555555555, 24.24347222222222], [89.57125, 24.240694444444443], [89.57347222222222, 24.23097222222222], [89.56319444444445, 24.227083333333333], [89.56986111111111, 24.219583333333333], [89.56013888888889, 24.214583333333334], [89.56736111111111, 24.211805555555554], [89.57541666666667, 24.21763888888889], [89.5826388888889, 24.20875], [89.57847222222223, 24.200138888888887], [89.58486111111111, 24.20736111111111], [89.58930555555555, 24.199027777777776], [89.5826388888889, 24.195138888888888], [89.59180555555555, 24.196805555555553], [89.59569444444445, 24.18986111111111], [89.59125, 24.178472222222222], [89.57319444444445, 24.16847222222222], [89.58319444444444, 24.169583333333332], [89.58319444444444, 24.15958333333333], [89.59263888888889, 24.163194444444443], [89.58486111111111, 24.165694444444444], [89.58847222222222, 24.170972222222222], [89.59486111111111, 24.169583333333332], [89.58736111111111, 24.167638888888888], [89.59291666666667, 24.16375], [89.59736111111111, 24.172638888888887], [89.60152777777778, 24.166805555555555], [89.60625, 24.178194444444443], [89.5976388888889, 24.19458333333333], [89.59930555555556, 24.20347222222222], [89.60569444444445, 24.203194444444442], [89.60013888888889, 24.20736111111111], [89.60152777777778, 24.220694444444444], [89.59571766169155, 24.221405887230514], [89.59902777777778, 24.204027777777778], [89.59263888888889, 24.196527777777778], [89.57708333333333, 24.22236111111111], [89.58430555555556, 24.225694444444443], [89.58486111111111, 24.21597222222222], [89.59550704740985, 24.221431676734394], [89.58791666666667, 24.22236111111111], [89.57402777777779, 24.239305555555553], [89.57347222222222, 24.25486111111111], [89.57973387861546, 24.264976094515564], [89.57759848484848, 24.267941919191916], [89.58180555555556, 24.270416666666666], [89.58110395189004, 24.267189289805266], [89.58430555555556, 24.27236111111111], [89.58327664399093, 24.275447845804987], [89.57746771498024, 24.268123544008912], [89.57541666666667, 24.27097222222222], [89.58323985042736, 24.275558226495725], [89.5801388888889, 24.28486111111111], [89.59069444444445, 24.29097222222222], [89.57930555555556, 24.291805555555555], [89.58958333333334, 24.297083333333333], [89.59319444444445, 24.293194444444442], [89.59347222222223, 24.29847222222222], [89.58680555555556, 24.296805555555554], [89.59069444444445, 24.300694444444442], [89.57486111111112, 24.309027777777775], [89.58347222222223, 24.30625], [89.57652777777778, 24.31319444444444], [89.58236111111111, 24.312916666666666], [89.57263888888889, 24.31625], [89.57430555555555, 24.309305555555554], [89.57208333333334, 24.316805555555554], [89.57875, 24.32347222222222], [89.57930555555556, 24.315416666666664], [89.58375000000001, 24.31736111111111], [89.57805132708822, 24.334267174082736], [89.58152777777778, 24.330138888888886], [89.58736111111111, 24.324583333333333], [89.58375000000001, 24.33458333333333], [89.5776893939394, 24.335340909090906], [89.57541666666667, 24.34208333333333], [89.58291666666666, 24.35125], [89.5801388888889, 24.360138888888887], [89.59152777777778, 24.372638888888886], [89.59152777777778, 24.385694444444443], [89.59875000000001, 24.381249999999998], [89.59291666666667, 24.36875], [89.60236111111111, 24.382638888888888], [89.59958333333334, 24.36958333333333], [89.60652777777779, 24.374027777777776], [89.60708333333334, 24.385694444444443], [89.57847222222223, 24.395138888888887], [89.58930555555555, 24.43263888888889], [89.57263888888889, 24.435972222222222], [89.56708333333333, 24.447916666666664], [89.56152777777778, 24.43986111111111], [89.56041666666667, 24.454305555555553], [89.55138440860215, 24.450165770609313], [89.56041666666667, 24.455972222222222], [89.56236111111112, 24.441805555555554], [89.5676388888889, 24.44875], [89.57458333333334, 24.436249999999998], [89.58486111111111, 24.437916666666666], [89.57513888888889, 24.443749999999998], [89.57347222222222, 24.43986111111111], [89.57125, 24.449583333333333], [89.56375, 24.45097222222222], [89.57402777777779, 24.453194444444442], [89.56708333333333, 24.46763888888889], [89.56069444444445, 24.45847222222222], [89.55958333333334, 24.470416666666665], [89.54680555555557, 24.47847222222222], [89.55736111111112, 24.492638888888887], [89.55847222222222, 24.479027777777777], [89.56708333333333, 24.476527777777775], [89.56652777777778, 24.471527777777776], [89.57125, 24.474027777777778], [89.57208333333334, 24.46763888888889], [89.57597222222222, 24.477083333333333], [89.58430555555556, 24.47958333333333], [89.57569444444445, 24.461805555555554], [89.59125, 24.43263888888889], [89.59180555555555, 24.451249999999998], [89.59208333333333, 24.441527777777775], [89.60236111111111, 24.450138888888887], [89.59208333333333, 24.44125], [89.59402777777778, 24.434583333333332], [89.60114387227759, 24.440729051310445], [89.60424271893078, 24.436339018551767], [89.59625, 24.435694444444444], [89.58180555555556, 24.39875], [89.5900513136289, 24.395164887794195], [89.59458333333333, 24.395416666666666], [89.58875, 24.401805555555555], [89.59569444444445, 24.39736111111111], [89.59208333333333, 24.40986111111111], [89.61125, 24.37986111111111], [89.60680555555555, 24.37013888888889], [89.58707021936098, 24.35905162136385], [89.59625, 24.361805555555556], [89.59819444444445, 24.356805555555553], [89.60736111111112, 24.367083333333333], [89.61791666666667, 24.360416666666666], [89.61569444444444, 24.35486111111111], [89.62041666666667, 24.358194444444443], [89.60736111111112, 24.343194444444443], [89.62180555555555, 24.353194444444444], [89.62236111111112, 24.364583333333332], [89.61707574474094, 24.376416243117298], [89.62291666666667, 24.369305555555552], [89.62208333333334, 24.38347222222222], [89.62263888888889, 24.37847222222222], [89.6251388888889, 24.38347222222222], [89.63180555555556, 24.38097222222222], [89.62875, 24.367083333333333], [89.63402777777777, 24.369027777777777], [89.63847222222222, 24.360138888888887], [89.62597222222223, 24.362916666666667], [89.62402777777778, 24.369027777777777], [89.62375, 24.35013888888889], [89.61097222222223, 24.340416666666666], [89.60402777777779, 24.34486111111111], [89.61208333333333, 24.352361111111108], [89.59819444444445, 24.355416666666667], [89.60791666666667, 24.35125], [89.59625, 24.349305555555553], [89.60342748019616, 24.33468476256339], [89.62097222222222, 24.336805555555554], [89.62152777777779, 24.344583333333333], [89.63319444444444, 24.340416666666666], [89.62486111111112, 24.34375], [89.63041666666668, 24.358194444444443], [89.6348611111111, 24.359583333333333], [89.64041666666667, 24.349027777777778], [89.63708333333334, 24.335416666666664], [89.62541666666667, 24.338194444444444], [89.59902777777778, 24.324583333333333], [89.59875000000001, 24.310972222222222], [89.60513888888889, 24.30875], [89.59819444444445, 24.310416666666665], [89.59541666666667, 24.290138888888887], [89.5826388888889, 24.28236111111111], [89.58791666666667, 24.274305555555554], [89.58369003572341, 24.256758633154718], [89.59375, 24.267083333333332], [89.58791666666667, 24.27125], [89.59708333333333, 24.27263888888889], [89.59291666666667, 24.285138888888888], [89.59875000000001, 24.286527777777778], [89.60144760422563, 24.276473071118666], [89.60347222222222, 24.28097222222222], [89.60902777777778, 24.279305555555553], [89.61236111111111, 24.28569444444444], [89.61069444444445, 24.276527777777776], [89.61763888888889, 24.27208333333333], [89.61375, 24.289027777777775], [89.60375, 24.28708333333333], [89.61156105677806, 24.290862876935613], [89.60069444444444, 24.28847222222222], [89.59819444444445, 24.292916666666667], [89.60319444444444, 24.291249999999998], [89.60152777777778, 24.302916666666665], [89.60541666666667, 24.296527777777776], [89.60958333333333, 24.299027777777777], [89.60736111111112, 24.310694444444444], [89.61541666666668, 24.30097222222222], [89.61069444444445, 24.311805555555555], [89.62027861614129, 24.307279696698714], [89.62013888888889, 24.305416666666666], [89.62486111111112, 24.30625], [89.63041666666668, 24.28625], [89.62486111111112, 24.30875], [89.63263888888889, 24.30597222222222], [89.62736111111111, 24.31236111111111], [89.63319444444444, 24.324861111111108], [89.62625, 24.330972222222222], [89.6348611111111, 24.33458333333333], [89.63902777777778, 24.325416666666666], [89.64486111111111, 24.330694444444443], [89.63902777777778, 24.337638888888886], [89.65041666666667, 24.33347222222222], [89.63930555555555, 24.34208333333333], [89.65236111111112, 24.340416666666666], [89.65263888888889, 24.347916666666666], [89.65375, 24.33986111111111], [89.66208333333334, 24.33986111111111], [89.66458333333334, 24.35347222222222], [89.66902777777779, 24.346527777777776], [89.66513888888889, 24.34263888888889], [89.67347222222223, 24.345972222222223], [89.66402777777778, 24.33375], [89.65541666666667, 24.338194444444444], [89.64569444444444, 24.319305555555555], [89.63680555555555, 24.324583333333333], [89.63680555555555, 24.318194444444444], [89.64541666666666, 24.318194444444444], [89.64430555555556, 24.311249999999998], [89.63180555555556, 24.31625], [89.63430555555556, 24.306527777777777], [89.64430555555556, 24.305694444444445], [89.63180555555556, 24.29486111111111], [89.63375, 24.290138888888887], [89.63569444444445, 24.295416666666664], [89.64013888888888, 24.294027777777778], [89.63597222222222, 24.28875], [89.64125, 24.290138888888887], [89.64430555555556, 24.302083333333332], [89.64513395792243, 24.293467948717947], [89.63263888888889, 24.282638888888886], [89.63080720572059, 24.270732948294835], [89.63652777777779, 24.28569444444444], [89.64291666666666, 24.28763888888889], [89.63375, 24.270138888888887], [89.64069444444445, 24.277916666666666], [89.64513489208633, 24.29345823341326], [89.64569444444444, 24.28763888888889], [89.65208333333334, 24.296805555555554], [89.65845096493743, 24.29331362854686], [89.64152777777778, 24.27236111111111], [89.65680555555556, 24.287916666666664], [89.65871536267319, 24.29316863624015], [89.66069444444445, 24.29208333333333], [89.66597222222222, 24.29736111111111], [89.65069444444444, 24.301527777777775], [89.64486111111111, 24.30986111111111], [89.64736111111111, 24.31597222222222], [89.64887858347386, 24.313627037661604], [89.64625000000001, 24.307916666666664], [89.65680555555556, 24.30125], [89.65402777777778, 24.31847222222222], [89.66847222222222, 24.31236111111111], [89.67902777777778, 24.327916666666667], [89.68263888888889, 24.31375], [89.68402777777779, 24.32347222222222], [89.6926388888889, 24.31986111111111], [89.68402777777779, 24.310972222222222], [89.67708333333334, 24.31513888888889], [89.67902777777778, 24.320416666666667], [89.67375, 24.317638888888887], [89.67652777777778, 24.30597222222222], [89.68625, 24.30736111111111], [89.6726388888889, 24.29986111111111], [89.67847222222223, 24.29875], [89.67236111111112, 24.297083333333333], [89.67930555555556, 24.290138888888887], [89.66902777777779, 24.293194444444442], [89.68069444444444, 24.283749999999998], [89.67069444444445, 24.283472222222223], [89.66680555555556, 24.29486111111111], [89.65736111111111, 24.283749999999998], [89.66652777777779, 24.291249999999998], [89.66375000000001, 24.283749999999998], [89.67291666666667, 24.28097222222222], [89.66402777777778, 24.279305555555553], [89.67208333333333, 24.272916666666664], [89.68069444444444, 24.279305555555553], [89.67347222222223, 24.270416666666666], [89.68291666666667, 24.277083333333334], [89.68597222222222, 24.27236111111111], [89.67402777777778, 24.267916666666665], [89.66048643816501, 24.279816631780925], [89.66180555555556, 24.268472222222222], [89.67125, 24.269027777777776], [89.66069444444445, 24.25875], [89.66375000000001, 24.24597222222222], [89.65875, 24.25486111111111], [89.65180555555555, 24.241805555555555], [89.63986111111112, 24.245416666666664], [89.63458333333334, 24.233472222222222], [89.64208333333333, 24.241805555555555], [89.64763888888889, 24.234583333333333], [89.64958333333334, 24.240694444444443], [89.65125, 24.221805555555555], [89.63541666666667, 24.21736111111111], [89.62986111111111, 24.222638888888888], [89.63708333333334, 24.226805555555554], [89.6301388888889, 24.235138888888887], [89.62986111111111, 24.226805555555554], [89.62458333333333, 24.230416666666667], [89.60597222222222, 24.216527777777777], [89.61347222222223, 24.21736111111111], [89.61467767295598, 24.212539308176098], [89.60958333333333, 24.210416666666664], [89.61680555555556, 24.206249999999997], [89.61958333333334, 24.214583333333334], [89.61476851851852, 24.212577160493826], [89.61402777777778, 24.21875], [89.62097222222222, 24.221527777777776], [89.63597222222222, 24.207083333333333], [89.63708333333334, 24.213749999999997], [89.64486111111111, 24.214027777777776], [89.64319444444445, 24.205416666666665], [89.65208333333334, 24.209305555555556], [89.64958333333334, 24.200694444444444], [89.65791666666667, 24.189027777777778], [89.66819444444445, 24.186805555555555], [89.66319444444444, 24.192638888888887], [89.66875, 24.193749999999998], [89.65930555555556, 24.192916666666665], [89.65236111111112, 24.210694444444442], [89.65354468599034, 24.211656099033814], [89.64708333333334, 24.215694444444445], [89.65568885236922, 24.218302177485622], [89.65152777777779, 24.233194444444443], [89.66041666666666, 24.239583333333332], [89.66458333333334, 24.23708333333333], [89.65875, 24.234305555555554], [89.66708333333334, 24.22847222222222], [89.65930555555556, 24.226527777777775], [89.66597222222222, 24.222638888888888], [89.66097222222223, 24.220138888888886], [89.66708333333334, 24.214027777777776], [89.66557170542636, 24.206934754521964], [89.66708333333334, 24.209027777777777], [89.67347222222223, 24.205416666666665], [89.67125, 24.21097222222222], [89.68114130434785, 24.216044685990347], [89.66930555555555, 24.21097222222222], [89.67152777777778, 24.22236111111111], [89.67652777777778, 24.221527777777776], [89.68013888888889, 24.230416666666667], [89.68569444444445, 24.221527777777776], [89.68486111111112, 24.227638888888887], [89.68358278395824, 24.229518781760753], [89.68736111111112, 24.236805555555556], [89.69458333333334, 24.234583333333333], [89.68875, 24.219305555555554], [89.68213888888889, 24.216472222222222], [89.68680555555555, 24.211805555555554], [89.67625, 24.20986111111111], [89.68069444444444, 24.20875], [89.67791666666668, 24.203194444444442], [89.68541666666667, 24.20736111111111], [89.68208333333334, 24.200138888888887], [89.69458333333334, 24.21486111111111], [89.70402777777778, 24.214305555555555], [89.70335666666668, 24.210614444444474], [89.70902777777778, 24.22958333333333], [89.70069444444445, 24.244305555555552], [89.70375, 24.276249999999997], [89.69652777777777, 24.269027777777776], [89.69680555555556, 24.27986111111111], [89.70597222222223, 24.28097222222222], [89.71541666666667, 24.31486111111111], [89.71847222222223, 24.303194444444443], [89.71736111111112, 24.318749999999998], [89.70958333333334, 24.30875], [89.71930555555556, 24.352638888888887], [89.71902777777778, 24.346249999999998], [89.72347222222223, 24.34708333333333], [89.71652777777778, 24.335416666666664], [89.72090231961462, 24.338521180228295], [89.71652777777778, 24.33236111111111], [89.71763888888889, 24.328194444444442], [89.72069444444445, 24.332638888888887], [89.72069444444445, 24.302083333333332], [89.71013888888889, 24.275972222222222], [89.72069444444445, 24.296527777777776], [89.71763888888889, 24.28597222222222], [89.72208333333333, 24.28486111111111], [89.73347222222222, 24.310138888888886], [89.73263888888889, 24.324861111111108], [89.73430555555557, 24.310694444444444], [89.7401388888889, 24.31375], [89.73625, 24.33486111111111], [89.74041666666668, 24.34375], [89.73013888888889, 24.34847222222222], [89.73236111111112, 24.35597222222222], [89.73875, 24.350694444444443], [89.73819444444445, 24.356805555555553], [89.73930555555556, 24.35013888888889], [89.74208333333334, 24.35597222222222], [89.73319444444445, 24.36347222222222], [89.73569444444445, 24.36736111111111], [89.74541666666667, 24.357083333333332], [89.74069444444444, 24.349305555555553], [89.74375, 24.31597222222222], [89.74625, 24.32708333333333], [89.74513888888889, 24.31458333333333], [89.75109707386105, 24.318020747740345], [89.75069444444445, 24.315694444444443], [89.75597222222223, 24.316805555555554], [89.7551388888889, 24.34708333333333], [89.77125000000001, 24.330972222222222], [89.77402777777777, 24.301805555555553], [89.78736111111111, 24.28763888888889], [89.77958333333333, 24.279027777777777], [89.78458333333333, 24.28236111111111], [89.77958333333333, 24.268194444444443], [89.78847222222223, 24.282083333333333], [89.79041666666667, 24.26597222222222], [89.78597222222223, 24.265416666666667], [89.79041666666667, 24.262916666666666], [89.78402777777778, 24.24347222222222], [89.77597222222222, 24.242916666666666], [89.77597222222222, 24.231805555555553], [89.78486111111111, 24.22597222222222], [89.77819444444445, 24.219027777777775], [89.78486111111111, 24.21986111111111], [89.78041666666667, 24.21236111111111], [89.78597222222223, 24.218194444444443], [89.78902777777778, 24.203194444444442], [89.78430555555556, 24.20347222222222], [89.78763888888889, 24.196527777777778], [89.79097222222222, 24.199305555555554], [89.78958333333334, 24.18847222222222], [89.79847222222223, 24.174305555555556], [89.78013888888889, 24.166249999999998], [89.78763888888889, 24.157916666666665], [89.7976388888889, 24.159305555555555], [89.79847222222223, 24.152638888888887], [89.80180555555556, 24.15986111111111], [89.80652777777777, 24.14986111111111], [89.79819444444445, 24.152083333333334], [89.78847222222223, 24.136805555555554], [89.78791666666667, 24.123749999999998], [89.79180555555556, 24.12875], [89.79567592592592, 24.123453703703717], [89.79152777777779, 24.13097222222222], [89.79986111111111, 24.136527777777776], [89.79599924924925, 24.12301126126126], [89.79708333333333, 24.121527777777775], [89.78736111111111, 24.116805555555555], [89.78708333333334, 24.109027777777776], [89.79291666666667, 24.11097222222222], [89.79236111111112, 24.10458333333333], [89.79597222222222, 24.108472222222222], [89.80446248568157, 24.102229381443298], [89.80208333333334, 24.100694444444443], [89.80486111111111, 24.096527777777776], [89.81069444444445, 24.10625], [89.8047935542839, 24.102442974089968], [89.79652777777778, 24.114583333333332], [89.80402777777778, 24.109583333333333], [89.8026388888889, 24.118194444444445], [89.81069444444445, 24.107083333333332], [89.80551484674329, 24.121882183908046], [89.81569444444445, 24.11875], [89.81819444444444, 24.10486111111111], [89.80791666666667, 24.101527777777775], [89.80958333333334, 24.087916666666665], [89.8151388888889, 24.092916666666664], [89.82486111111112, 24.088749999999997], [89.81708333333333, 24.06347222222222], [89.80625, 24.062916666666666], [89.81486111111111, 24.062083333333334], [89.79541666666667, 24.04375], [89.78430555555556, 24.04097222222222], [89.77708333333334, 24.029027777777777], [89.72180555555556, 24.01347222222222], [89.70291666666667, 24.02375], [89.69875, 24.03847222222222], [89.68291666666667, 24.034305555555555], [89.68458333333334, 24.05847222222222], [89.66236111111111, 24.072916666666664], [89.6726388888889, 24.084027777777777], [89.6726388888889, 24.100694444444443], [89.66597222222222, 24.080694444444443], [89.66291666666667, 24.089305555555555], [89.66180555555556, 24.07347222222222], [89.63736111111112, 24.086805555555554], [89.62930555555556, 24.08375], [89.61652777777778, 24.096805555555555], [89.60458333333334, 24.096527777777776], [89.5826388888889, 24.130416666666665], [89.55847222222222, 24.135694444444443], [89.5326388888889, 24.13097222222222], [89.52180555555556, 24.154305555555553], [89.52930555555555, 24.158749999999998], [89.52319444444444, 24.16847222222222], [89.53347222222223, 24.166527777777777], [89.5351388888889, 24.172916666666666], [89.5176388888889, 24.179027777777776], [89.51708333333333, 24.18875], [89.52513888888889, 24.19125], [89.52236111111111, 24.19736111111111], [89.51041666666667, 24.199583333333333], [89.50208333333333, 24.21708333333333], [89.48930555555556, 24.21708333333333], [89.48597222222223, 24.20375], [89.46930555555556, 24.20097222222222], [89.47208333333333, 24.210416666666664], [89.46152777777777, 24.22458333333333], [89.47375000000001, 24.219305555555554], [89.47819444444444, 24.22958333333333], [89.47152777777778, 24.234583333333333], [89.45430555555556, 24.227638888888887], [89.44652777777777, 24.23125], [89.45652777777778, 24.233749999999997], [89.46319444444444, 24.250138888888888], [89.46263888888889, 24.26097222222222], [89.45236111111112, 24.266805555555553], [89.4401388888889, 24.260694444444443], [89.43930555555556, 24.25236111111111], [89.42458333333333, 24.250416666666666], [89.42930555555556, 24.26736111111111], [89.41763888888889, 24.293194444444442], [89.42319444444445, 24.29986111111111], [89.41902777777779, 24.304583333333333], [89.42541666666666, 24.306805555555552], [89.42097222222222, 24.32069444444444], [89.41736111111112, 24.31736111111111], [89.41819444444445, 24.327916666666667], [89.40430555555555, 24.31986111111111], [89.39847222222222, 24.32347222222222], [89.40097222222222, 24.33597222222222], [89.38263888888889, 24.343194444444443], [89.3751388888889, 24.338194444444444], [89.37819444444445, 24.34819444444444], [89.35902777777778, 24.352361111111108], [89.36208333333333, 24.366527777777776], [89.37041666666667, 24.369027777777777], [89.36291666666666, 24.369305555555552], [89.35347222222222, 24.34819444444444], [89.32152777777777, 24.350694444444443], [89.32902777777778, 24.357916666666664], [89.32041666666667, 24.351527777777775], [89.32232364341087, 24.357645994832055], [89.31958333333334, 24.352361111111108], [89.31430555555556, 24.355694444444442], [89.3176388888889, 24.372916666666665], [89.32320233758348, 24.360465138635895], [89.32708333333333, 24.372916666666665], [89.32468738282715, 24.376466222972123], [89.32375, 24.37013888888889], [89.30597222222222, 24.38458333333333], [89.31569444444445, 24.380694444444444], [89.31986111111111, 24.374305555555555], [89.32419540229886, 24.377195083014048], [89.31958333333334, 24.384027777777778], [89.29819444444445, 24.38986111111111], [89.29736111111112, 24.395138888888887], [89.29319444444445, 24.391805555555553], [89.30152777777778, 24.387638888888887], [89.2851388888889, 24.37763888888889], [89.2851388888889, 24.420416666666664], [89.27180555555556, 24.42736111111111], [89.2598611111111, 24.423194444444444], [89.24708333333334, 24.42736111111111], [89.25125, 24.436249999999998], [89.27541666666667, 24.44847222222222], [89.28375, 24.462083333333332], [89.28069444444445, 24.469583333333333], [89.28736111111111, 24.470694444444444], [89.28819444444444, 24.464583333333334], [89.30208333333334, 24.477083333333333], [89.29375, 24.479305555555555], [89.29030882352941, 24.474011437908494], [89.29097222222222, 24.470694444444444], [89.28069444444445, 24.477083333333333], [89.28819444444444, 24.484583333333333]], [[89.70259874759152, 24.20807933581379], [89.68680555555555, 24.20236111111111], [89.68791666666667, 24.195138888888888], [89.70013888888889, 24.207083333333333], [89.70097222222222, 24.202638888888888], [89.70259874759152, 24.20807933581379]], [[89.66453640034928, 24.202076784544857], [89.66347222222223, 24.19708333333333], [89.66847222222222, 24.19486111111111], [89.66453640034928, 24.202076784544857]], [[89.65590731370746, 24.217520315854046], [89.65390017667845, 24.211944935217893], [89.65680555555556, 24.214305555555555], [89.65590731370746, 24.217520315854046]], [[89.6294496705942, 24.26718247181046], [89.61847222222222, 24.255694444444444], [89.62569444444445, 24.255416666666665], [89.62180555555555, 24.247083333333332], [89.63097222222223, 24.25263888888889], [89.6303736211999, 24.25772699757869], [89.63652777777779, 24.256249999999998], [89.63819444444445, 24.264027777777777], [89.63029212881884, 24.258419682817674], [89.62930555555556, 24.266805555555553], [89.6294496705942, 24.26718247181046]], [[89.60186707680836, 24.274909582401186], [89.60486111111112, 24.263749999999998], [89.60930555555557, 24.270694444444445], [89.60186707680836, 24.274909582401186]], [[89.58347760849492, 24.255876738297093], [89.5814497277324, 24.247457960586026], [89.58930555555555, 24.248194444444444], [89.58347760849492, 24.255876738297093]], [[89.58100799269748, 24.245624090895593], [89.57875, 24.23625], [89.58486111111111, 24.234305555555554], [89.58100799269748, 24.245624090895593]], [[89.59799242424243, 24.334027777777777], [89.58986111111112, 24.334027777777777], [89.58875, 24.324861111111108], [89.59569444444445, 24.33375], [89.59799242424243, 24.334027777777777]], [[89.58540934658653, 24.35811854677146], [89.58208333333333, 24.35625], [89.59236111111112, 24.349027777777778], [89.58540934658653, 24.35811854677146]], [[89.53101150287573, 24.30057962407269], [89.52125000000001, 24.289861111111108], [89.5026388888889, 24.289305555555554], [89.51402777777778, 24.287916666666664], [89.50958333333334, 24.284027777777776], [89.5201388888889, 24.28708333333333], [89.52152777777778, 24.275972222222222], [89.52319444444444, 24.28625], [89.53458333333333, 24.290138888888887], [89.53101150287573, 24.30057962407269]], [[89.61265432098766, 24.291103395061725], [89.62125, 24.286805555555553], [89.62069444444445, 24.304027777777776], [89.61458333333334, 24.291527777777777], [89.61265432098766, 24.291103395061725]], [[89.66008912626857, 24.280165784659612], [89.65569444444445, 24.284027777777776], [89.63958333333333, 24.268472222222222], [89.64347222222223, 24.26097222222222], [89.65013888888889, 24.262083333333333], [89.64736111111111, 24.270416666666666], [89.66008912626857, 24.280165784659612]], [[89.79152777777779, 24.067638888888887], [89.79708333333333, 24.066527777777775], [89.78569444444445, 24.056805555555552], [89.78486111111111, 24.047638888888887], [89.79097222222222, 24.054583333333333], [89.79902777777778, 24.050694444444442], [89.79736111111112, 24.05875], [89.79291666666667, 24.056805555555552], [89.80347222222223, 24.06847222222222], [89.79458333333334, 24.074027777777776], [89.80319444444444, 24.082083333333333], [89.80875, 24.07986111111111], [89.80652777777777, 24.08736111111111], [89.79097222222222, 24.084305555555556], [89.78986111111111, 24.096527777777776], [89.79625, 24.094027777777775], [89.78708333333334, 24.105416666666667], [89.79069444444444, 24.082638888888887], [89.79513888888889, 24.082083333333333], [89.78930555555556, 24.061527777777776], [89.79152777777779, 24.067638888888887]], [[89.76208333333334, 24.177916666666665], [89.76569444444445, 24.174305555555556], [89.76486111111112, 24.18263888888889], [89.76208333333334, 24.177916666666665]], [[89.76458333333333, 24.154305555555553], [89.76513888888888, 24.164027777777775], [89.76208333333334, 24.145694444444445], [89.76458333333333, 24.154305555555553]], [[89.74847222222222, 24.172638888888887], [89.75375, 24.179305555555555], [89.7551388888889, 24.169027777777778], [89.76375, 24.16597222222222], [89.7551388888889, 24.181805555555552], [89.74791666666667, 24.180694444444445], [89.74847222222222, 24.172638888888887]], [[89.76347222222222, 24.20486111111111], [89.76041666666667, 24.20875], [89.75597222222223, 24.201249999999998], [89.76347222222222, 24.20486111111111]], [[89.72999043367348, 24.290155895691605], [89.72902777777779, 24.285416666666666], [89.73375, 24.283472222222223], [89.72999043367348, 24.290155895691605]], [[89.73134037290716, 24.296801750380514], [89.73458333333333, 24.30236111111111], [89.73625, 24.296805555555554], [89.74930555555555, 24.297916666666666], [89.74097222222223, 24.294583333333332], [89.74208333333334, 24.289027777777775], [89.75319444444445, 24.297916666666666], [89.74569444444445, 24.28097222222222], [89.75347222222223, 24.295416666666664], [89.76013888888889, 24.28875], [89.75763888888889, 24.312638888888888], [89.74483652900689, 24.307838003933135], [89.74902777777778, 24.304027777777776], [89.75236111111111, 24.309305555555554], [89.75763888888889, 24.30013888888889], [89.73263888888889, 24.303194444444443], [89.73134037290716, 24.296801750380514]], [[89.75930555555556, 24.214027777777776], [89.75541666666668, 24.210694444444442], [89.76013888888889, 24.209305555555556], [89.75930555555556, 24.214027777777776]], [[89.74541666666667, 24.166805555555555], [89.75625000000001, 24.149583333333332], [89.75208333333333, 24.165416666666665], [89.74680555555555, 24.171249999999997], [89.74541666666667, 24.166805555555555]], [[89.75402777777778, 24.041249999999998], [89.75208333333333, 24.048194444444444], [89.75097222222223, 24.038194444444443], [89.75402777777778, 24.041249999999998]], [[89.7376388888889, 24.19597222222222], [89.74763888888889, 24.199583333333333], [89.74236111111111, 24.194305555555555], [89.74708333333334, 24.186249999999998], [89.75375, 24.197916666666664], [89.74458333333334, 24.202916666666667], [89.7376388888889, 24.19597222222222]], [[89.75125, 24.137916666666666], [89.74236111111111, 24.149305555555554], [89.74319444444444, 24.140138888888888], [89.75125, 24.137916666666666]], [[89.74652777777779, 24.150138888888886], [89.75069444444445, 24.156527777777775], [89.74569444444445, 24.161527777777778], [89.74652777777779, 24.150138888888886]], [[89.74375, 24.186249999999998], [89.74208333333334, 24.190416666666664], [89.74763888888889, 24.171249999999997], [89.74375, 24.186249999999998]], [[89.73625, 24.184305555555554], [89.73847222222223, 24.17486111111111], [89.74152777777778, 24.18486111111111], [89.73652777777778, 24.18958333333333], [89.74291666666667, 24.192083333333333], [89.73458333333333, 24.191805555555554], [89.73625, 24.184305555555554]], [[89.73930555555556, 24.162916666666664], [89.74180555555556, 24.157916666666665], [89.73652777777778, 24.17513888888889], [89.73930555555556, 24.162916666666664]], [[89.73569444444445, 24.13375], [89.73291666666667, 24.126805555555553], [89.73819444444445, 24.139305555555556], [89.73569444444445, 24.13375]], [[89.70986111111111, 24.259027777777778], [89.7201388888889, 24.24458333333333], [89.71458333333334, 24.267083333333332], [89.72319444444445, 24.265138888888888], [89.72847222222222, 24.24736111111111], [89.73485522598871, 24.272893126177017], [89.72569444444444, 24.286527777777778], [89.70986111111111, 24.259027777777778]], [[89.72996983066689, 24.14293164824894], [89.72625000000001, 24.13319444444444], [89.7351388888889, 24.140138888888888], [89.73569444444445, 24.144305555555555], [89.72996983066689, 24.14293164824894]], [[89.73030293088364, 24.143803587051618], [89.73652777777778, 24.14847222222222], [89.73569444444445, 24.157916666666665], [89.73030293088364, 24.143803587051618]], [[89.72541666666667, 24.16375], [89.72097222222223, 24.172083333333333], [89.72569444444444, 24.15736111111111], [89.72541666666667, 24.16375]], [[89.71597222222222, 24.29986111111111], [89.71180555555556, 24.30125], [89.71097222222222, 24.291249999999998], [89.71597222222222, 24.29986111111111]], [[89.70902777777778, 24.049027777777777], [89.70847222222223, 24.044027777777778], [89.71069444444444, 24.055416666666666], [89.70458333333333, 24.04347222222222], [89.70902777777778, 24.049027777777777]], [[89.70597222222223, 24.039027777777775], [89.70847222222223, 24.033194444444444], [89.70986111111111, 24.040416666666665], [89.70597222222223, 24.039027777777775]], [[89.67291666666667, 24.19125], [89.67069444444445, 24.186249999999998], [89.6781239205527, 24.190092832469773], [89.67291666666667, 24.19125]], [[89.67914721141375, 24.189865434500646], [89.69236111111111, 24.171527777777776], [89.68569444444445, 24.184583333333332], [89.69291666666668, 24.186805555555555], [89.67914721141375, 24.189865434500646]], [[89.68180555555556, 24.166249999999998], [89.68541666666667, 24.163194444444443], [89.68625, 24.170694444444443], [89.68180555555556, 24.166249999999998]], [[89.68152777777777, 24.178472222222222], [89.67625, 24.178749999999997], [89.67875000000001, 24.172638888888887], [89.68152777777777, 24.178472222222222]], [[89.67458333333333, 24.157083333333333], [89.66569444444444, 24.154027777777777], [89.68125, 24.158194444444444], [89.67458333333333, 24.157083333333333]], [[89.61708333333334, 24.16069444444444], [89.61736111111111, 24.164861111111108], [89.62375, 24.15958333333333], [89.63541666666667, 24.164305555555554], [89.63236111111111, 24.157916666666665], [89.6451388888889, 24.150416666666665], [89.65291666666667, 24.158194444444444], [89.64180555555556, 24.15486111111111], [89.63708333333334, 24.164027777777775], [89.64736111111111, 24.166249999999998], [89.64458333333333, 24.16236111111111], [89.65125, 24.15986111111111], [89.65736111111111, 24.16847222222222], [89.66069444444445, 24.160416666666666], [89.66144513314968, 24.16917470156106], [89.63125000000001, 24.164861111111108], [89.63125000000001, 24.169305555555553], [89.61958333333334, 24.166527777777777], [89.60847222222222, 24.17236111111111], [89.60513888888889, 24.164305555555554], [89.60958333333333, 24.16736111111111], [89.6126388888889, 24.158472222222223], [89.61125, 24.164583333333333], [89.61652777777778, 24.165694444444444], [89.61708333333334, 24.16069444444444]], [[89.66395202020203, 24.169532828282826], [89.67486111111111, 24.166805555555555], [89.67791666666668, 24.171527777777776], [89.66395202020203, 24.169532828282826]], [[89.66625, 24.113194444444442], [89.67541666666666, 24.152638888888887], [89.64791666666667, 24.12875], [89.66375000000001, 24.140694444444442], [89.66569444444444, 24.126805555555553], [89.6601388888889, 24.11875], [89.66625, 24.113194444444442]], [[89.66597222222222, 24.096805555555555], [89.67208333333333, 24.102361111111108], [89.66347222222223, 24.104305555555555], [89.66069444444445, 24.09819444444444], [89.66597222222222, 24.096805555555555]], [[89.66680555555556, 24.307916666666664], [89.66875, 24.303472222222222], [89.66291666666667, 24.301805555555553], [89.66958333333334, 24.298194444444444], [89.67097222222222, 24.312638888888888], [89.66680555555556, 24.307916666666664]], [[89.65263888888889, 24.185972222222222], [89.66513888888889, 24.185416666666665], [89.64680555555556, 24.187083333333334], [89.65263888888889, 24.185972222222222]], [[89.65652777777778, 24.143472222222222], [89.66125000000001, 24.151805555555555], [89.65263888888889, 24.138194444444444], [89.65652777777778, 24.143472222222222]], [[89.64763888888889, 24.14486111111111], [89.65236111111112, 24.15236111111111], [89.6601388888889, 24.151805555555555], [89.64958333333334, 24.154305555555553], [89.64763888888889, 24.14486111111111]], [[89.64541666666666, 24.19847222222222], [89.6426388888889, 24.19458333333333], [89.65180555555555, 24.194027777777777], [89.64541666666666, 24.19847222222222]], [[89.64402777777778, 24.179027777777776], [89.63625, 24.185972222222222], [89.64208333333333, 24.19486111111111], [89.63263888888889, 24.185138888888886], [89.64041666666667, 24.177083333333332], [89.65013888888889, 24.17736111111111], [89.64402777777778, 24.179027777777776]], [[89.64533469945356, 24.256515938069214], [89.6426388888889, 24.260694444444443], [89.64041666666667, 24.255138888888887], [89.64533469945356, 24.256515938069214]], [[89.64763888888889, 24.234027777777776], [89.64097222222223, 24.227916666666665], [89.64347222222223, 24.22208333333333], [89.64763888888889, 24.234027777777776]], [[89.63236111111111, 24.14597222222222], [89.64458333333333, 24.137361111111108], [89.64569444444444, 24.150138888888886], [89.64180555555556, 24.144305555555555], [89.63236111111111, 24.14597222222222]], [[89.64402777777778, 24.122638888888886], [89.64041666666667, 24.12569444444444], [89.63819444444445, 24.116805555555555], [89.64402777777778, 24.122638888888886]], [[89.63763888888889, 24.255694444444444], [89.63208333333334, 24.239027777777775], [89.63958333333333, 24.24597222222222], [89.63763888888889, 24.255694444444444]], [[89.62819444444445, 24.200416666666666], [89.62902777777778, 24.194305555555555], [89.63125000000001, 24.200416666666666], [89.63208333333334, 24.19569444444444], [89.63819444444445, 24.19847222222222], [89.63791666666667, 24.203194444444442], [89.62819444444445, 24.200416666666666]], [[89.63597222222222, 24.108749999999997], [89.63041666666668, 24.110138888888887], [89.63152777777778, 24.105416666666667], [89.63597222222222, 24.108749999999997]], [[89.63125000000001, 24.275138888888886], [89.63208333333334, 24.282638888888886], [89.62902777777778, 24.271527777777777], [89.63125000000001, 24.275138888888886]], [[89.62041666666667, 24.18236111111111], [89.61402777777778, 24.181805555555552], [89.62097222222222, 24.178749999999997], [89.62736111111111, 24.185416666666665], [89.62041666666667, 24.18236111111111]], [[89.6126388888889, 24.157083333333333], [89.61236111111111, 24.14875], [89.61819444444444, 24.150138888888886], [89.6126388888889, 24.157083333333333]], [[89.60430555555556, 24.242638888888887], [89.60930555555557, 24.244027777777777], [89.60652777777779, 24.236527777777777], [89.61597222222223, 24.247083333333332], [89.60430555555556, 24.242638888888887]], [[89.61180555555556, 24.19597222222222], [89.61402777777778, 24.20097222222222], [89.60736111111112, 24.202638888888888], [89.61180555555556, 24.19597222222222]], [[89.60875, 24.359027777777776], [89.60375, 24.358472222222222], [89.61097222222223, 24.355416666666667], [89.60875, 24.359027777777776]], [[89.60291666666667, 24.25486111111111], [89.6101388888889, 24.254027777777775], [89.60930555555557, 24.260694444444443], [89.60069444444444, 24.259305555555553], [89.60291666666667, 24.25486111111111]], [[89.60319444444444, 24.14125], [89.60986111111112, 24.144027777777776], [89.60736111111112, 24.154027777777777], [89.60319444444444, 24.14125]], [[89.60486111111112, 24.23097222222222], [89.60347222222222, 24.225416666666664], [89.60902777777778, 24.231805555555553], [89.60486111111112, 24.23097222222222]], [[89.60319444444444, 24.155694444444443], [89.60763888888889, 24.156805555555554], [89.60402777777779, 24.164583333333333], [89.60319444444444, 24.155694444444443]], [[89.59986111111111, 24.22847222222222], [89.59347222222223, 24.231527777777778], [89.59680555555556, 24.238194444444442], [89.60319444444444, 24.236527777777777], [89.59819444444445, 24.242638888888887], [89.59097222222222, 24.23097222222222], [89.59986111111111, 24.22847222222222]], [[89.59375, 24.31458333333333], [89.59402777777778, 24.324583333333333], [89.59930555555556, 24.32597222222222], [89.59208333333333, 24.326527777777777], [89.59291666666667, 24.308194444444442], [89.59375, 24.31458333333333]], [[89.5801388888889, 24.347638888888888], [89.58791666666667, 24.34347222222222], [89.58430555555556, 24.34097222222222], [89.5976388888889, 24.341527777777777], [89.58347222222223, 24.35097222222222], [89.5801388888889, 24.347638888888888]], [[89.59263888888889, 24.241249999999997], [89.5951388888889, 24.248194444444444], [89.58652777777777, 24.24458333333333], [89.59263888888889, 24.241249999999997]], [[89.58736111111111, 24.13958333333333], [89.59125, 24.137638888888887], [89.58569444444444, 24.159305555555555], [89.57930555555556, 24.14625], [89.58986111111112, 24.141527777777778], [89.58125, 24.13513888888889], [89.59097222222222, 24.131527777777777], [89.58736111111111, 24.13958333333333]], [[89.58930555555555, 24.33375], [89.58430555555556, 24.334305555555556], [89.58819444444444, 24.329583333333332], [89.58930555555555, 24.33375]], [[89.56736111111111, 24.18375], [89.55763888888889, 24.18347222222222], [89.57986111111111, 24.18125], [89.57958333333333, 24.186249999999998], [89.58208333333333, 24.177083333333332], [89.58097222222223, 24.191527777777775], [89.57319444444445, 24.185416666666665], [89.57486111111112, 24.196805555555553], [89.58208333333333, 24.199583333333333], [89.56986111111111, 24.195416666666667], [89.5723611111111, 24.18736111111111], [89.56736111111111, 24.18375]], [[89.56569444444445, 24.15347222222222], [89.57263888888889, 24.158749999999998], [89.56291666666667, 24.15986111111111], [89.56569444444445, 24.15347222222222]], [[89.55569444444444, 24.32597222222222], [89.55680555555556, 24.330972222222222], [89.54847222222223, 24.329305555555553], [89.55569444444444, 24.32597222222222]], [[89.54097222222222, 24.201805555555556], [89.54146825396826, 24.202202380952382], [89.54736111111112, 24.197916666666664], [89.55291666666668, 24.20347222222222], [89.54875, 24.20375], [89.55069444444445, 24.213472222222222], [89.54736111111112, 24.201805555555556], [89.54162414965987, 24.202327097505666], [89.54791666666667, 24.20736111111111], [89.53180555555556, 24.197916666666664], [89.54097222222222, 24.201805555555556]], [[89.54791666666667, 24.336805555555554], [89.55236111111111, 24.336527777777775], [89.54375, 24.34263888888889], [89.54791666666667, 24.336805555555554]], [[89.54680555555557, 24.262916666666666], [89.54347222222222, 24.25819444444444], [89.55208333333334, 24.265416666666667], [89.54680555555557, 24.262916666666666]], [[89.54180555555556, 24.312083333333334], [89.54875, 24.32208333333333], [89.53763888888889, 24.317638888888887], [89.54180555555556, 24.312083333333334]], [[89.53152777777778, 24.330972222222222], [89.53763888888889, 24.334305555555556], [89.53402777777778, 24.324861111111108], [89.54013888888889, 24.32236111111111], [89.53958333333334, 24.33347222222222], [89.54208333333334, 24.32708333333333], [89.54847222222223, 24.329583333333332], [89.54263888888889, 24.337083333333332], [89.52236111111111, 24.330972222222222], [89.53152777777778, 24.330972222222222]], [[89.54347222222222, 24.343194444444443], [89.53819444444444, 24.35013888888889], [89.53736111111111, 24.343194444444443], [89.54347222222222, 24.343194444444443]], [[89.54263888888889, 24.255416666666665], [89.52652777777779, 24.257638888888888], [89.54069444444444, 24.255416666666665], [89.51319444444445, 24.235138888888887], [89.53486111111111, 24.247916666666665], [89.53541666666666, 24.240694444444443], [89.54263888888889, 24.255416666666665]], [[89.53625000000001, 24.213194444444444], [89.54152777777779, 24.21125], [89.54069444444444, 24.222638888888888], [89.53625000000001, 24.213194444444444]], [[89.52736111111112, 24.340138888888887], [89.53208333333333, 24.33625], [89.52347222222222, 24.331527777777776], [89.53736111111111, 24.33625], [89.53708333333334, 24.34208333333333], [89.52875, 24.341805555555553], [89.53125, 24.353194444444444], [89.52736111111112, 24.340138888888887]], [[89.53041666666667, 24.373749999999998], [89.52513888888889, 24.374027777777776], [89.52291666666667, 24.362916666666667], [89.52902777777778, 24.36375], [89.53291666666667, 24.37847222222222], [89.53041666666667, 24.373749999999998]], [[89.52319444444444, 24.352638888888887], [89.53097222222223, 24.355694444444442], [89.51902777777778, 24.358472222222222], [89.52319444444444, 24.352638888888887]], [[89.52486111111111, 24.316527777777775], [89.51486111111112, 24.30847222222222], [89.52708333333334, 24.309027777777775], [89.52486111111111, 24.316527777777775]], [[89.51708333333333, 24.326527777777777], [89.51847222222223, 24.320138888888888], [89.5201388888889, 24.32986111111111], [89.51708333333333, 24.326527777777777]], [[89.51375, 24.22513888888889], [89.51847222222223, 24.220972222222223], [89.51263888888889, 24.229305555555555], [89.51375, 24.22513888888889]], [[89.50152777777778, 24.360694444444444], [89.50208333333333, 24.352083333333333], [89.50402777777778, 24.359305555555554], [89.51736111111111, 24.354305555555555], [89.51708333333333, 24.371805555555554], [89.51513888888888, 24.358749999999997], [89.48708333333333, 24.365972222222222], [89.50152777777778, 24.360694444444444]], [[89.51652777777778, 24.346249999999998], [89.51652777777778, 24.351527777777775], [89.50930555555556, 24.35125], [89.5098611111111, 24.345138888888886], [89.51652777777778, 24.346249999999998]], [[89.50763888888889, 24.366805555555555], [89.51597222222223, 24.371805555555554], [89.5051388888889, 24.372916666666665], [89.50458333333333, 24.36347222222222], [89.50763888888889, 24.366805555555555]], [[89.50736111111111, 24.326249999999998], [89.51402777777778, 24.328194444444442], [89.51569444444445, 24.339305555555555], [89.50736111111111, 24.326249999999998]], [[89.51180555555555, 24.29875], [89.50875, 24.294027777777778], [89.51347222222222, 24.291249999999998], [89.51458333333333, 24.30597222222222], [89.51180555555555, 24.29875]], [[89.49819444444445, 24.25986111111111], [89.50402777777778, 24.260416666666664], [89.49996541501977, 24.26805390865173], [89.51041666666667, 24.281805555555554], [89.50430555555556, 24.280694444444443], [89.4999312127585, 24.268118208902905], [89.49708333333334, 24.27347222222222], [89.50486111111111, 24.284305555555555], [89.49763888888889, 24.281805555555554], [89.49375, 24.26347222222222], [89.49819444444445, 24.25986111111111]], [[89.49430555555556, 24.32125], [89.48736111111111, 24.31986111111111], [89.48819444444445, 24.30986111111111], [89.49736111111112, 24.31236111111111], [89.48847222222223, 24.31458333333333], [89.49458333333334, 24.32069444444444], [89.49930555555555, 24.31458333333333], [89.50791666666667, 24.31597222222222], [89.49875, 24.32375], [89.50652777777778, 24.32986111111111], [89.49625, 24.339027777777776], [89.49791666666667, 24.333194444444445], [89.49041666666668, 24.32875], [89.49430555555556, 24.32125]], [[89.49263888888889, 24.344583333333333], [89.50069444444445, 24.338749999999997], [89.50291666666666, 24.351527777777775], [89.49263888888889, 24.344583333333333]], [[89.47763888888889, 24.29986111111111], [89.47347222222223, 24.296249999999997], [89.47930555555556, 24.30013888888889], [89.47819444444444, 24.294305555555553], [89.48430555555557, 24.29513888888889], [89.49197586971017, 24.304401155037848], [89.47763888888889, 24.29986111111111]], [[89.47347222222223, 24.351527777777775], [89.46569444444445, 24.352361111111108], [89.46986111111111, 24.34375], [89.46152777777777, 24.33513888888889], [89.48180555555555, 24.335416666666664], [89.48041666666667, 24.32708333333333], [89.48347222222222, 24.33625], [89.48048888888889, 24.340227777777777], [89.49180555555556, 24.352083333333333], [89.49875, 24.34958333333333], [89.49847222222222, 24.35625], [89.48875, 24.35597222222222], [89.48569444444445, 24.347916666666666], [89.4804382900865, 24.340295242847635], [89.47847222222222, 24.342916666666664], [89.46875, 24.338749999999997], [89.47347222222223, 24.351527777777775]], [[89.49152777777778, 24.247916666666665], [89.49041666666668, 24.257916666666667], [89.48875, 24.244027777777777], [89.49152777777778, 24.247916666666665]], [[89.48041666666667, 24.272916666666664], [89.47569444444444, 24.271527777777777], [89.48263888888889, 24.27263888888889], [89.4851388888889, 24.282638888888886], [89.48041666666667, 24.272916666666664]], [[89.46180555555556, 24.289027777777775], [89.46708333333333, 24.284305555555555], [89.46875, 24.294583333333332], [89.46180555555556, 24.289027777777775]], [[89.46125, 24.267638888888886], [89.45652777777778, 24.267638888888886], [89.46125, 24.26347222222222], [89.46125, 24.267638888888886]], [[89.44513888888889, 24.280416666666664], [89.44902777777779, 24.283194444444444], [89.44402777777778, 24.285416666666666], [89.44513888888889, 24.280416666666664]], [[89.44180555555556, 24.366527777777776], [89.43958333333333, 24.37013888888889], [89.43847222222223, 24.36347222222222], [89.44180555555556, 24.366527777777776]], [[89.42180555555557, 24.323194444444443], [89.42736111111111, 24.325694444444444], [89.42125, 24.327638888888888], [89.42180555555557, 24.323194444444443]], [[89.40680555555556, 24.34097222222222], [89.41069444444445, 24.345416666666665], [89.40013888888889, 24.33736111111111], [89.40680555555556, 24.34097222222222]], [[89.40291666666667, 24.331527777777776], [89.40041666666667, 24.327916666666667], [89.40791666666667, 24.327916666666667], [89.40291666666667, 24.331527777777776]], [[89.39708333333334, 24.360138888888887], [89.39986111111111, 24.35625], [89.40097222222222, 24.36347222222222], [89.39708333333334, 24.360138888888887]], [[89.39791666666667, 24.414027777777775], [89.39291666666666, 24.42513888888889], [89.38736111111112, 24.412916666666664], [89.37791666666666, 24.411805555555553], [89.39458333333333, 24.408749999999998], [89.39791666666667, 24.414027777777775]], [[89.3926388888889, 24.45097222222222], [89.38902777777778, 24.456249999999997], [89.39236111111111, 24.44097222222222], [89.3926388888889, 24.45097222222222]], [[89.38541666666667, 24.439027777777778], [89.38402777777777, 24.44458333333333], [89.37208333333334, 24.44486111111111], [89.38236111111111, 24.435694444444444], [89.36402777777778, 24.434305555555554], [89.3651388888889, 24.420416666666664], [89.37736111111111, 24.42597222222222], [89.38541666666667, 24.439027777777778]], [[89.36319444444445, 24.37597222222222], [89.36291666666666, 24.36958333333333], [89.36430555555556, 24.37569444444444], [89.37180555555555, 24.373194444444444], [89.37847222222223, 24.379305555555554], [89.36652777777778, 24.37763888888889], [89.36347222222223, 24.382638888888888], [89.36319444444445, 24.37597222222222]], [[89.37625, 24.35625], [89.37180555555555, 24.353194444444444], [89.37736111111111, 24.349027777777778], [89.37625, 24.35625]], [[89.37375, 24.45958333333333], [89.36986111111112, 24.457638888888887], [89.3751388888889, 24.454305555555553], [89.37375, 24.45958333333333]], [[89.37347222222222, 24.388749999999998], [89.36680555555556, 24.394027777777776], [89.37125, 24.399583333333332], [89.36458333333334, 24.397916666666664], [89.36291666666666, 24.38486111111111], [89.37347222222222, 24.388749999999998]], [[89.3651388888889, 24.363194444444442], [89.36319444444445, 24.359305555555554], [89.36791666666667, 24.366527777777776], [89.3651388888889, 24.363194444444442]], [[89.34291666666667, 24.459027777777777], [89.34652777777778, 24.450694444444444], [89.35486111111112, 24.457083333333333], [89.36597222222223, 24.455138888888886], [89.34680555555556, 24.465138888888887], [89.34291666666667, 24.459027777777777]], [[89.34708333333333, 24.437916666666666], [89.35347222222222, 24.437083333333334], [89.34069444444445, 24.443194444444444], [89.34708333333333, 24.437916666666666]], [[89.34875000000001, 24.357083333333332], [89.34236111111112, 24.362916666666667], [89.34236111111112, 24.357083333333332], [89.35208333333334, 24.35458333333333], [89.34875000000001, 24.357083333333332]], [[89.34402777777778, 24.40958333333333], [89.35013888888889, 24.408194444444444], [89.34791666666666, 24.414583333333333], [89.34152777777778, 24.412916666666664], [89.34402777777778, 24.40958333333333]], [[89.33319444444444, 24.417638888888888], [89.33930555555555, 24.420694444444443], [89.33402777777778, 24.422916666666666], [89.33319444444444, 24.417638888888888]], [[89.32958333333333, 24.44569444444444], [89.33569444444444, 24.44597222222222], [89.32902777777778, 24.450416666666666], [89.32958333333333, 24.44569444444444]], [[89.32069444444444, 24.428194444444443], [89.3301388888889, 24.431805555555552], [89.32125, 24.432916666666664], [89.32069444444444, 24.428194444444443]], [[89.32458333333334, 24.461527777777775], [89.32875, 24.464583333333334], [89.31736111111111, 24.460694444444442], [89.32013888888889, 24.456527777777776], [89.32458333333334, 24.461527777777775]], [[89.3151388888889, 24.47375], [89.31680555555556, 24.47958333333333], [89.31041666666667, 24.478749999999998], [89.3151388888889, 24.47375]]], [[[89.6509985380117, 24.318232456140358], [89.65208333333334, 24.331249999999997], [89.66875, 24.334027777777777], [89.67958333333334, 24.347916666666666], [89.68180555555556, 24.34347222222222], [89.67605856445142, 24.33639259549974], [89.68051107790116, 24.338589168801605], [89.67473018400565, 24.334756184805677], [89.66866031630956, 24.327278811556848], [89.66625, 24.318749999999998], [89.66314412958431, 24.320483509069224], [89.66263888888889, 24.31986111111111], [89.65819444444445, 24.323194444444443], [89.65908333333331, 24.322750000000013], [89.65430555555555, 24.325416666666666], [89.6509985380117, 24.318232456140358]], [[89.66328045095305, 24.320651441190144], [89.66541666666667, 24.31958333333333], [89.66758111665281, 24.325949362704346], [89.66328045095305, 24.320651441190144]]], [[[89.69001928562169, 24.34489352392065], [89.6857890070922, 24.349969858156026], [89.69541666666667, 24.34847222222222], [89.69001928562169, 24.34489352392065]]], [[[89.68098118279569, 24.355739247311828], [89.67986111111111, 24.357083333333332], [89.6926388888889, 24.357916666666664], [89.71236111111111, 24.37736111111111], [89.69347222222223, 24.357083333333332], [89.68069444444444, 24.356527777777778], [89.68098118279569, 24.355739247311828]]], [[[89.62040054986727, 24.308905479711825], [89.61930555555556, 24.315694444444443], [89.61319444444445, 24.316805555555554], [89.62458333333333, 24.32597222222222], [89.62791666666666, 24.315416666666664], [89.62097222222222, 24.316527777777775], [89.62040054986727, 24.308905479711825]]], [[[89.60455545355637, 24.43636423908609], [89.61402777777778, 24.440694444444443], [89.6126388888889, 24.47458333333333], [89.61708333333334, 24.478194444444444], [89.61180555555556, 24.485694444444444], [89.62031063462143, 24.489602183474705], [89.61569444444444, 24.482916666666664], [89.62125, 24.472916666666666], [89.61375, 24.47458333333333], [89.6151388888889, 24.45208333333333], [89.63902777777778, 24.460416666666664], [89.62791666666666, 24.452916666666667], [89.63196705426357, 24.45206395348837], [89.62097222222222, 24.45236111111111], [89.61902777777777, 24.446527777777778], [89.62791666666666, 24.44875], [89.61347222222223, 24.437083333333334], [89.60455545355637, 24.43636423908609]]], [[[89.63994905956112, 24.451848223615464], [89.64470708267508, 24.455565429173248], [89.65236111111112, 24.452638888888888], [89.65736111111111, 24.460694444444442], [89.67271464646464, 24.460214646464646], [89.66847222222222, 24.45208333333333], [89.66125000000001, 24.45986111111111], [89.65180555555555, 24.451527777777777], [89.63994905956112, 24.451848223615464]]], [[[89.62117193336321, 24.490849581652473], [89.61097222222223, 24.495694444444442], [89.61597222222223, 24.514027777777777], [89.60236111111111, 24.518472222222222], [89.59986111111111, 24.54375], [89.59069444444445, 24.552638888888886], [89.59541666666667, 24.559027777777775], [89.59236111111112, 24.553472222222222], [89.60125000000001, 24.544305555555553], [89.60347222222222, 24.519305555555555], [89.61708333333334, 24.515694444444442], [89.61208333333333, 24.495416666666664], [89.62180555555555, 24.49347222222222], [89.62180555555555, 24.499027777777776], [89.62375, 24.49458333333333], [89.62117193336321, 24.490849581652473]]], [[[89.54864675516224, 24.44891101278269], [89.54708333333333, 24.448194444444443], [89.54236111111112, 24.471249999999998], [89.52569444444444, 24.47847222222222], [89.53319444444445, 24.485416666666666], [89.53125, 24.494027777777777], [89.51901972624806, 24.489490740740766], [89.53208333333333, 24.49458333333333], [89.53430555555556, 24.485416666666666], [89.52680555555555, 24.479027777777777], [89.54319444444445, 24.47208333333333], [89.54864675516224, 24.44891101278269]]], [[[89.51569053339294, 24.48825571758483], [89.51402777777778, 24.48763888888889], [89.51375, 24.50236111111111], [89.52513888888889, 24.51125], [89.51597222222223, 24.520138888888887], [89.53209381551362, 24.52618448637316], [89.52069444444444, 24.519305555555555], [89.52708333333334, 24.510694444444443], [89.51486111111112, 24.50125], [89.51569053339294, 24.48825571758483]]], [[[89.53025692225772, 24.544181309904154], [89.51791666666666, 24.53458333333333], [89.52125000000001, 24.55125], [89.50430555555556, 24.556527777777777], [89.52152777777778, 24.55236111111111], [89.51847222222223, 24.535416666666666], [89.53069444444445, 24.545416666666664], [89.53025692225772, 24.544181309904154]]], [[[89.56769787644788, 24.367139818389823], [89.55791666666667, 24.38208333333333], [89.56069444444445, 24.377916666666664], [89.56930555555556, 24.38625], [89.56375, 24.373749999999998], [89.5723611111111, 24.37875], [89.57625, 24.374583333333334], [89.56769787644788, 24.367139818389823]]], [[[89.61662682998411, 24.377421276154973], [89.60881378030848, 24.39491317841387], [89.61336497468692, 24.394319544364507], [89.61319444444445, 24.39125], [89.62125, 24.393194444444443], [89.61662682998411, 24.377421276154973]]], [[[89.61363446411013, 24.399170353982296], [89.6083616027532, 24.39592551622419], [89.60375, 24.40625], [89.61236111111111, 24.40236111111111], [89.61399844151082, 24.405721947194714], [89.61363446411013, 24.399170353982296]]], [[[89.7252461374096, 24.34463798487837], [89.72533054496682, 24.347085804037835], [89.71986111111111, 24.354027777777777], [89.72180555555556, 24.361805555555556], [89.72513888888889, 24.35486111111111], [89.71541666666667, 24.39125], [89.72541666666667, 24.39236111111111], [89.72291666666666, 24.382916666666667], [89.73625, 24.38319444444444], [89.72999265278663, 24.38039860845549], [89.72958333333334, 24.380416666666665], [89.72912435098651, 24.380010643821393], [89.72319444444445, 24.37736111111111], [89.72650326797385, 24.37769199346405], [89.72236111111111, 24.374027777777776], [89.73013888888889, 24.351527777777775], [89.72652599572308, 24.346440234340196], [89.72708333333334, 24.34486111111111], [89.72620040555067, 24.345981750219877], [89.7252461374096, 24.34463798487837]]], [[[89.74299115306013, 24.37982514520813], [89.75375, 24.395694444444445], [89.74652777777779, 24.41236111111111], [89.74347222222222, 24.400138888888886], [89.73708333333333, 24.40736111111111], [89.73736111111111, 24.399027777777775], [89.73013888888889, 24.39625], [89.72875, 24.41347222222222], [89.71930555555556, 24.394305555555555], [89.71263888888889, 24.39486111111111], [89.71319444444444, 24.406805555555554], [89.71736111111112, 24.398194444444442], [89.72763888888889, 24.414305555555554], [89.71569444444445, 24.43958333333333], [89.72097222222223, 24.463749999999997], [89.71347222222222, 24.47958333333333], [89.6901388888889, 24.483749999999997], [89.68486111111112, 24.50125], [89.69541666666667, 24.484583333333333], [89.70291666666667, 24.48263888888889], [89.70069444444445, 24.49986111111111], [89.69125, 24.515416666666667], [89.6901388888889, 24.509027777777778], [89.68263888888889, 24.54208333333333], [89.66680555555556, 24.560138888888886], [89.66319444444444, 24.58486111111111], [89.64875, 24.603194444444444], [89.65875, 24.61847222222222], [89.65291666666667, 24.608194444444443], [89.66180555555556, 24.609305555555554], [89.66291666666667, 24.650972222222222], [89.65069444444444, 24.669583333333332], [89.63763888888889, 24.675416666666667], [89.63208333333334, 24.691527777777775], [89.63736111111112, 24.69597222222222], [89.65986111111111, 24.678194444444443], [89.66513888888889, 24.686527777777776], [89.66180555555556, 24.67736111111111], [89.66847222222222, 24.67236111111111], [89.66708333333334, 24.68986111111111], [89.65458333333333, 24.69347222222222], [89.65402777777778, 24.712083333333332], [89.64708333333334, 24.71763888888889], [89.65513888888889, 24.712083333333332], [89.65652777777778, 24.693194444444444], [89.66652777777779, 24.692083333333333], [89.65597222222223, 24.747916666666665], [89.66652777777779, 24.74736111111111], [89.66597222222222, 24.75597222222222], [89.72319444444445, 24.734305555555554], [89.72375000000001, 24.761805555555554], [89.70652777777778, 24.77208333333333], [89.72041666666667, 24.767638888888886], [89.69541666666667, 24.77986111111111], [89.71986111111111, 24.775972222222222], [89.73013888888889, 24.76625], [89.73875, 24.742638888888887], [89.73152777777779, 24.720694444444444], [89.74347222222222, 24.69736111111111], [89.79430555555555, 24.675416666666667], [89.78736111111111, 24.677638888888886], [89.79152777777779, 24.672638888888887], [89.78236111111111, 24.671527777777776], [89.78458333333333, 24.626527777777778], [89.76375, 24.645138888888887], [89.74375, 24.68097222222222], [89.71708333333333, 24.709027777777777], [89.69819444444445, 24.68263888888889], [89.70180555555555, 24.674027777777777], [89.70736111111111, 24.69347222222222], [89.70430555555556, 24.67458333333333], [89.71486111111112, 24.62486111111111], [89.75097222222223, 24.599027777777778], [89.7526388888889, 24.593194444444443], [89.73847222222223, 24.579583333333332], [89.75736111111111, 24.56236111111111], [89.75875, 24.569305555555555], [89.76597222222223, 24.540138888888887], [89.76013888888889, 24.549027777777777], [89.75958333333334, 24.53763888888889], [89.75180555555556, 24.53736111111111], [89.75763888888889, 24.54847222222222], [89.75402777777778, 24.55875], [89.74458333333334, 24.568194444444444], [89.73569444444445, 24.56625], [89.74680555555555, 24.543194444444442], [89.71930555555556, 24.49513888888889], [89.72763888888889, 24.477916666666665], [89.74291666666667, 24.46763888888889], [89.74236111111111, 24.455694444444443], [89.7551388888889, 24.455416666666665], [89.74541666666667, 24.428472222222222], [89.76597222222223, 24.37569444444444], [89.75708333333334, 24.365972222222222], [89.75569444444444, 24.393194444444443], [89.74847222222222, 24.379583333333333], [89.74299115306013, 24.37982514520813]], [[89.76625, 24.658749999999998], [89.7826388888889, 24.638749999999998], [89.77930555555555, 24.661805555555553], [89.76319444444445, 24.664583333333333], [89.76625, 24.658749999999998]], [[89.77236111111111, 24.678749999999997], [89.76319444444445, 24.680416666666666], [89.77875, 24.67458333333333], [89.77236111111111, 24.678749999999997]], [[89.77180555555556, 24.665416666666665], [89.77763888888889, 24.665138888888887], [89.77569444444444, 24.67347222222222], [89.75486111111111, 24.678472222222222], [89.77180555555556, 24.665416666666665]], [[89.74569444444445, 24.594583333333333], [89.74486111111112, 24.60125], [89.71041666666667, 24.62236111111111], [89.71013888888889, 24.60486111111111], [89.71791666666667, 24.595972222222223], [89.72930555555556, 24.594583333333333], [89.73597222222223, 24.58625], [89.74569444444445, 24.594583333333333]], [[89.73541666666667, 24.580972222222222], [89.73597222222223, 24.58597222222222], [89.72875, 24.57208333333333], [89.74180555555556, 24.567916666666665], [89.73541666666667, 24.580972222222222]], [[89.73930555555556, 24.419583333333332], [89.74152777777778, 24.434305555555554], [89.73652777777778, 24.44125], [89.73152777777779, 24.43263888888889], [89.73930555555556, 24.419583333333332]], [[89.73208333333334, 24.746527777777775], [89.73152777777779, 24.733194444444443], [89.73375, 24.75069444444444], [89.73208333333334, 24.746527777777775]], [[89.73013888888889, 24.59125], [89.71680555555555, 24.594305555555554], [89.72652777777778, 24.574583333333333], [89.73013888888889, 24.59125]], [[89.72291666666666, 24.51986111111111], [89.72791666666667, 24.525972222222222], [89.72041666666667, 24.524583333333332], [89.72291666666666, 24.51986111111111]], [[89.72125, 24.52958333333333], [89.71986111111111, 24.525694444444444], [89.72736111111111, 24.53013888888889], [89.72125, 24.52958333333333]], [[89.72208333333333, 24.72458333333333], [89.7201388888889, 24.71236111111111], [89.72680555555556, 24.70847222222222], [89.72208333333333, 24.72458333333333]], [[89.72125, 24.513194444444444], [89.72486111111111, 24.519027777777776], [89.71986111111111, 24.517638888888886], [89.72069444444445, 24.50847222222222], [89.72125, 24.513194444444444]], [[89.71069444444444, 24.545694444444443], [89.71847222222223, 24.544027777777778], [89.72152777777778, 24.55847222222222], [89.71069444444444, 24.545694444444443]], [[89.69097222222223, 24.610416666666666], [89.71736111111112, 24.57986111111111], [89.71847222222223, 24.587916666666665], [89.70973056349963, 24.594021952123715], [89.71486111111112, 24.593194444444443], [89.70597222222223, 24.60597222222222], [89.70620361253337, 24.596485219465233], [89.70097222222222, 24.60013888888889], [89.69930555555555, 24.635694444444443], [89.69402777777778, 24.637638888888887], [89.69097222222223, 24.610416666666666]], [[89.71402777777779, 24.555416666666666], [89.71597222222222, 24.56236111111111], [89.7076388888889, 24.56847222222222], [89.70875000000001, 24.54513888888889], [89.71402777777779, 24.555416666666666]], [[89.69152777777778, 24.696527777777778], [89.69430555555556, 24.685972222222222], [89.69930555555555, 24.70375], [89.69625, 24.727638888888887], [89.70097222222222, 24.703194444444442], [89.70902777777778, 24.714583333333334], [89.70652777777778, 24.72958333333333], [89.71375, 24.72347222222222], [89.70375, 24.73486111111111], [89.67819444444444, 24.73625], [89.69152777777778, 24.696527777777778]], [[89.70041666666667, 24.623194444444444], [89.70902777777778, 24.606805555555553], [89.71013888888889, 24.625138888888888], [89.70041666666667, 24.623194444444444]], [[89.70625, 24.62736111111111], [89.70680555555556, 24.637361111111108], [89.70208333333333, 24.62986111111111], [89.70625, 24.62736111111111]], [[89.70458333333333, 24.56847222222222], [89.70180555555555, 24.573194444444443], [89.70013888888889, 24.552083333333332], [89.70458333333333, 24.56847222222222]], [[89.70236111111112, 24.652638888888887], [89.69763888888889, 24.664583333333333], [89.6901388888889, 24.64486111111111], [89.69402777777778, 24.639305555555556], [89.70069444444445, 24.639027777777777], [89.70236111111112, 24.652638888888887]], [[89.69902777777779, 24.536805555555553], [89.69680555555556, 24.542916666666667], [89.68986111111111, 24.541249999999998], [89.70041666666667, 24.52263888888889], [89.69902777777779, 24.536805555555553]], [[89.68958333333333, 24.588194444444444], [89.6776388888889, 24.596527777777776], [89.68180555555556, 24.582083333333333], [89.69125, 24.58375], [89.68958333333333, 24.588194444444444]], [[89.6901388888889, 24.69625], [89.68513888888889, 24.70486111111111], [89.68291666666667, 24.700138888888887], [89.6901388888889, 24.69625]], [[89.68458333333334, 24.54875], [89.68958333333333, 24.55486111111111], [89.68236111111112, 24.561249999999998], [89.68458333333334, 24.54875]], [[89.67847222222223, 24.66125], [89.68708333333333, 24.66347222222222], [89.68486111111112, 24.671527777777776], [89.67847222222223, 24.66125]], [[89.68652777777778, 24.621805555555554], [89.68236111111112, 24.646805555555556], [89.67652777777778, 24.62597222222222], [89.68486111111112, 24.61347222222222], [89.68652777777778, 24.621805555555554]], [[89.67986111111111, 24.707916666666666], [89.68430555555555, 24.711527777777775], [89.67958333333334, 24.715694444444445], [89.67986111111111, 24.707916666666666]], [[89.67430555555556, 24.644305555555555], [89.67347222222223, 24.629583333333333], [89.67819444444444, 24.64597222222222], [89.67430555555556, 24.644305555555555]], [[89.66597222222222, 24.59958333333333], [89.66236111111111, 24.607916666666664], [89.65041666666667, 24.605694444444442], [89.66402777777778, 24.58625], [89.66597222222222, 24.59958333333333]]], [[[89.80529320987654, 24.122515432098766], [89.80486111111111, 24.123749999999998], [89.80125, 24.121527777777775], [89.80569444444444, 24.134027777777778], [89.81180555555555, 24.129027777777775], [89.80529320987654, 24.122515432098766]]], [[[89.81625, 24.11958333333333], [89.80986111111112, 24.122083333333332], [89.8151388888889, 24.129305555555554], [89.80763888888889, 24.140694444444442], [89.81208333333333, 24.136527777777776], [89.82013888888889, 24.140694444444442], [89.81625, 24.11958333333333]]], [[[89.74069444444444, 24.505416666666665], [89.74152777777778, 24.513194444444444], [89.74597222222222, 24.511527777777776], [89.74513888888889, 24.50208333333333], [89.75625000000001, 24.496805555555554], [89.74569444444445, 24.497916666666665], [89.75152777777778, 24.489027777777775], [89.74069444444444, 24.505416666666665]]], [[[89.71180555555556, 24.34847222222222], [89.71458333333334, 24.34486111111111], [89.70402777777778, 24.34708333333333], [89.71319444444444, 24.35597222222222], [89.71180555555556, 24.34847222222222]]], [[[89.70875000000001, 24.36208333333333], [89.70097222222222, 24.34236111111111], [89.71125, 24.332916666666666], [89.71013888888889, 24.326249999999998], [89.69791666666667, 24.31597222222222], [89.70069444444445, 24.345694444444444], [89.71097222222222, 24.372083333333332], [89.70875000000001, 24.36208333333333]]], [[[89.67986111111111, 24.374027777777776], [89.68486111111112, 24.37986111111111], [89.68537647074483, 24.373419115689718], [89.69763888888889, 24.374305555555555], [89.70041666666667, 24.36958333333333], [89.68958333333333, 24.36236111111111], [89.68069444444444, 24.369305555555552], [89.68486111111112, 24.36097222222222], [89.67458333333333, 24.372638888888886], [89.68356071779745, 24.37328785644051], [89.67986111111111, 24.374027777777776]]], [[[89.69708333333334, 24.31236111111111], [89.69347222222223, 24.305416666666666], [89.68736111111112, 24.311249999999998], [89.69708333333334, 24.31236111111111]]], [[[89.68208333333334, 24.26597222222222], [89.69569444444444, 24.274305555555554], [89.6876388888889, 24.25263888888889], [89.67986111111111, 24.254583333333333], [89.68847222222223, 24.259027777777778], [89.68208333333334, 24.26597222222222]]], [[[89.68041666666667, 24.248472222222222], [89.68708333333333, 24.24986111111111], [89.68375, 24.244027777777777], [89.68847222222223, 24.240138888888886], [89.67930555555556, 24.235138888888887], [89.67569444444445, 24.24458333333333], [89.68152777777777, 24.240138888888886], [89.68041666666667, 24.248472222222222]]], [[[89.67791666666668, 24.255138888888887], [89.68097222222222, 24.249583333333334], [89.66930555555555, 24.25236111111111], [89.66652777777779, 24.25958333333333], [89.67791666666668, 24.255138888888887]]], [[[89.67152777777778, 24.261805555555554], [89.67736111111111, 24.264305555555556], [89.67958333333334, 24.25819444444444], [89.67152777777778, 24.261805555555554]]], [[[89.66736111111112, 24.359027777777776], [89.66069444444445, 24.36125], [89.66819444444445, 24.365694444444443], [89.66319444444444, 24.365694444444443], [89.66652777777779, 24.37097222222222], [89.67819444444444, 24.36375], [89.66736111111112, 24.359027777777776]]], [[[89.67208333333333, 24.414583333333333], [89.67347222222223, 24.420416666666664], [89.67152777777778, 24.39625], [89.66236111111111, 24.414583333333333], [89.67013888888889, 24.406527777777775], [89.67208333333333, 24.414583333333333]]], [[[89.66291666666667, 24.23875], [89.65847222222223, 24.245416666666664], [89.67013888888889, 24.24513888888889], [89.67347222222223, 24.228194444444444], [89.66875, 24.227916666666665], [89.66375000000001, 24.242916666666666], [89.66291666666667, 24.23875]]], [[[89.66263888888889, 24.396527777777777], [89.66763888888889, 24.396527777777777], [89.66208333333334, 24.389305555555556], [89.67097222222222, 24.395138888888887], [89.66652777777779, 24.389027777777777], [89.64652777777778, 24.386527777777776], [89.6451388888889, 24.39097222222222], [89.66263888888889, 24.396527777777777]]], [[[89.66041666666666, 24.366805555555555], [89.65041666666667, 24.365416666666665], [89.65541666666667, 24.369305555555552], [89.65125, 24.37097222222222], [89.64180555555556, 24.363194444444442], [89.63652777777779, 24.37097222222222], [89.6426388888889, 24.364305555555553], [89.64013888888888, 24.373194444444444], [89.64986111111111, 24.37013888888889], [89.64319444444445, 24.372916666666665], [89.64875, 24.382638888888888], [89.65375, 24.37486111111111], [89.65486111111112, 24.384027777777778], [89.66430555555556, 24.372083333333332], [89.66041666666666, 24.366805555555555]]], [[[89.65013888888889, 24.353194444444444], [89.65375, 24.357916666666664], [89.65541666666667, 24.350416666666664], [89.64569444444444, 24.34819444444444], [89.64375, 24.35763888888889], [89.65013888888889, 24.353194444444444]]], [[[89.63625, 24.37486111111111], [89.63763888888889, 24.38347222222222], [89.64458333333333, 24.385416666666664], [89.63625, 24.37486111111111]]], [[[89.60597222222222, 24.309583333333332], [89.59986111111111, 24.312916666666666], [89.60180555555556, 24.319305555555555], [89.60597222222222, 24.309583333333332]]], [[[89.56069444444445, 24.134027777777778], [89.57625, 24.122638888888886], [89.57513888888889, 24.12736111111111], [89.58486111111111, 24.126805555555553], [89.60291666666667, 24.099027777777778], [89.57875, 24.11263888888889], [89.55930555555555, 24.11125], [89.55541666666667, 24.119027777777777], [89.5676388888889, 24.11486111111111], [89.56847222222223, 24.11958333333333], [89.56152777777778, 24.117638888888887], [89.56430555555556, 24.12236111111111], [89.55763888888889, 24.12736111111111], [89.54569444444445, 24.128194444444443], [89.56069444444445, 24.134027777777778]]], [[[89.57152777777777, 24.30708333333333], [89.57847222222223, 24.30486111111111], [89.57763888888888, 24.292638888888888], [89.57013888888889, 24.296805555555554], [89.57402777777779, 24.301527777777775], [89.56597222222223, 24.303472222222222], [89.57152777777777, 24.30708333333333]]], [[[89.57541666666667, 24.512638888888887], [89.57291666666667, 24.478749999999998], [89.56930555555556, 24.495416666666664], [89.57541666666667, 24.519583333333333], [89.57541666666667, 24.512638888888887]]], [[[89.55625, 24.396527777777777], [89.55652777777777, 24.408472222222223], [89.56430555555556, 24.415138888888887], [89.55791666666667, 24.419583333333332], [89.57097222222222, 24.421805555555554], [89.56319444444445, 24.409027777777776], [89.57125, 24.40597222222222], [89.56791666666668, 24.392638888888886], [89.57513888888889, 24.391527777777778], [89.56319444444445, 24.386805555555554], [89.55847222222222, 24.395694444444445], [89.56319444444445, 24.39708333333333], [89.55625, 24.396527777777777]]], [[[89.57347222222222, 24.284305555555555], [89.56680555555556, 24.276527777777776], [89.56069444444445, 24.28125], [89.5723611111111, 24.288194444444443], [89.57347222222222, 24.284305555555555]]], [[[89.56569444444445, 24.31597222222222], [89.56208333333333, 24.309027777777775], [89.55791666666667, 24.311805555555555], [89.5651388888889, 24.32069444444444], [89.56569444444445, 24.31597222222222]]], [[[89.55847222222222, 24.36125], [89.55458333333334, 24.357916666666664], [89.55152777777778, 24.36986111111111], [89.55847222222222, 24.36125]]], [[[89.54986111111111, 24.369027777777777], [89.54791666666667, 24.379583333333333], [89.55236111111111, 24.377916666666664], [89.54986111111111, 24.369027777777777]]], [[[89.53847222222223, 24.504305555555554], [89.54930555555556, 24.50958333333333], [89.55125, 24.497916666666665], [89.53847222222223, 24.504305555555554]]], [[[89.51847222222223, 24.434305555555554], [89.53125, 24.434027777777775], [89.53319444444445, 24.445416666666667], [89.54097222222222, 24.43375], [89.52708333333334, 24.420416666666664], [89.52125000000001, 24.425694444444442], [89.52458333333334, 24.429027777777776], [89.51180555555555, 24.428194444444443], [89.51847222222223, 24.434305555555554]]], [[[89.52541666666667, 24.40375], [89.52041666666666, 24.399027777777775], [89.51597222222223, 24.40986111111111], [89.52680555555555, 24.41069444444444], [89.52541666666667, 24.40375]]], [[[89.51958333333333, 24.417638888888888], [89.51847222222223, 24.413194444444443], [89.52680555555555, 24.41347222222222], [89.51486111111112, 24.410138888888888], [89.51319444444445, 24.420694444444443], [89.51958333333333, 24.417638888888888]]], [[[89.50180555555556, 24.439305555555553], [89.50902777777777, 24.430138888888887], [89.49930555555555, 24.43486111111111], [89.50180555555556, 24.439305555555553]]], [[[89.46597222222222, 24.441805555555554], [89.47736111111111, 24.442083333333333], [89.46763888888889, 24.436805555555555], [89.46996418007025, 24.43376479016454], [89.47347222222223, 24.434583333333332], [89.47541666666667, 24.42986111111111], [89.46902777777778, 24.42736111111111], [89.47708333333334, 24.423194444444444], [89.48402777777778, 24.42736111111111], [89.48291666666667, 24.418194444444442], [89.49505108556833, 24.411575670498085], [89.49680555555555, 24.414583333333333], [89.48375, 24.419305555555553], [89.49263888888889, 24.41847222222222], [89.48847222222223, 24.426527777777775], [89.50541666666668, 24.421527777777776], [89.50652777777778, 24.416249999999998], [89.49902777777778, 24.41347222222222], [89.50819444444444, 24.409027777777776], [89.49180555555556, 24.401249999999997], [89.48263888888889, 24.40375], [89.47180555555556, 24.42236111111111], [89.46375, 24.41875], [89.46402777777779, 24.427083333333332], [89.45652777777778, 24.429583333333333], [89.46347222222222, 24.434305555555554], [89.46180555555556, 24.44486111111111], [89.46597222222222, 24.441805555555554]]], [[[89.49402777777777, 24.446805555555553], [89.49652777777779, 24.455138888888886], [89.49930555555555, 24.446805555555553], [89.49402777777777, 24.446805555555553]]], [[[89.47875, 24.434305555555554], [89.48041666666667, 24.440416666666664], [89.48736111111111, 24.439027777777778], [89.48597222222223, 24.430138888888887], [89.47958333333334, 24.429027777777776], [89.48486111111112, 24.434027777777775], [89.47875, 24.434305555555554]]], [[[89.47375000000001, 24.40513888888889], [89.47736111111111, 24.407083333333333], [89.48013888888889, 24.39763888888889], [89.45847222222223, 24.39097222222222], [89.45652777777778, 24.39847222222222], [89.46375, 24.396805555555556], [89.47375000000001, 24.40513888888889]]], [[[89.45847222222223, 24.39986111111111], [89.45847222222223, 24.40986111111111], [89.46513888888889, 24.405694444444443], [89.45847222222223, 24.39986111111111]]], [[[89.42902777777778, 24.41875], [89.43958333333333, 24.419305555555553], [89.43208333333334, 24.411527777777778], [89.42458333333333, 24.417638888888888], [89.42791666666668, 24.42347222222222], [89.42902777777778, 24.41875]]], [[[89.42625, 24.40958333333333], [89.43125, 24.409305555555555], [89.41347222222223, 24.399305555555554], [89.40069444444444, 24.405694444444443], [89.41513888888889, 24.40625], [89.42152777777778, 24.415416666666665], [89.42625, 24.40958333333333]]], [[[89.42625, 24.42736111111111], [89.42041666666667, 24.428194444444443], [89.42458333333333, 24.435138888888886], [89.43069444444444, 24.43263888888889], [89.42625, 24.42736111111111]]], [[[89.42152777777778, 24.388749999999998], [89.42986111111111, 24.38319444444444], [89.41180555555556, 24.38958333333333], [89.42152777777778, 24.388749999999998]]], [[[89.41430555555556, 24.414583333333333], [89.41986111111112, 24.41347222222222], [89.40208333333334, 24.408472222222223], [89.41430555555556, 24.414583333333333]]], [[[89.30736111111112, 24.366249999999997], [89.31013888888889, 24.358472222222222], [89.29097222222222, 24.368194444444445], [89.30736111111112, 24.366249999999997]]]]}}