{"type": "Feature", "properties": {}, "geometry": {"type": "MultiPolygon", "coordinates": [[[[89.29227859071109, 24.378818102337565], [89.28347222222223, 24.379027777777775], [89.2851388888889, 24.420416666666664], [89.27180555555556, 24.42736111111111], [89.2526388888889, 24.42375], [89.24819444444445, 24.432916666666664], [89.28125, 24.456527777777776], [89.28347222222223, 24.484583333333333], [89.29319444444445, 24.480416666666667], [89.29097222222222, 24.48736111111111], [89.33763888888889, 24.544305555555553], [89.34152777777778, 24.56319444444444], [89.3451388888889, 24.556527777777777], [89.35819444444445, 24.555694444444445], [89.35263888888889, 24.555416666666666], [89.35819444444445, 24.554027777777776], [89.35819444444445, 24.54097222222222], [89.36041666666667, 24.559027777777775], [89.37958333333333, 24.553749999999997], [89.39208333333333, 24.55736111111111], [89.39736111111111, 24.550416666666667], [89.40875, 24.554027777777776], [89.40986111111111, 24.560972222222222], [89.42319444444445, 24.560972222222222], [89.43736111111112, 24.54486111111111], [89.43902777777778, 24.55013888888889], [89.45597222222223, 24.547083333333333], [89.45597222222223, 24.53736111111111], [89.45041666666667, 24.53486111111111], [89.45986111111111, 24.534305555555555], [89.46152777777777, 24.542916666666667], [89.46625, 24.525694444444444], [89.45875000000001, 24.52125], [89.46513888888889, 24.515416666666667], [89.46041666666667, 24.51013888888889], [89.45847222222223, 24.519305555555555], [89.45236111111112, 24.516527777777778], [89.45319444444445, 24.504027777777775], [89.45539979757085, 24.50474302744039], [89.45402777777778, 24.49513888888889], [89.46597222222222, 24.506249999999998], [89.46569444444445, 24.517916666666665], [89.47708333333334, 24.516805555555553], [89.47638483373885, 24.523965176399024], [89.48402777777778, 24.520416666666666], [89.48736111111111, 24.533194444444444], [89.47636913719589, 24.524126065964378], [89.47486111111111, 24.539583333333333], [89.47597222222223, 24.52875], [89.48097222222222, 24.54236111111111], [89.48708333333333, 24.539861111111108], [89.4851388888889, 24.545694444444443], [89.47541666666667, 24.54097222222222], [89.47319444444445, 24.550416666666667], [89.47930555555556, 24.554305555555555], [89.48708333333333, 24.545972222222222], [89.48013888888889, 24.554305555555555], [89.48375, 24.55625], [89.49902777777778, 24.552916666666665], [89.49347222222222, 24.549305555555556], [89.49930555555555, 24.544583333333332], [89.50708333333334, 24.545694444444443], [89.51347222222222, 24.527083333333334], [89.51541666666667, 24.533194444444444], [89.51736575456053, 24.53266044776119], [89.52125000000001, 24.550694444444442], [89.50402777777778, 24.556527777777777], [89.52236111111111, 24.551527777777775], [89.51958333333333, 24.535416666666666], [89.53208333333333, 24.546805555555554], [89.53069444444445, 24.56347222222222], [89.53375, 24.554305555555555], [89.53541666666666, 24.55875], [89.54791666666667, 24.547083333333333], [89.55513888888889, 24.555416666666666], [89.56375, 24.553472222222222], [89.5651388888889, 24.546805555555554], [89.58708333333334, 24.552916666666665], [89.59208333333333, 24.54847222222222], [89.58375000000001, 24.54486111111111], [89.59708333333333, 24.539583333333333], [89.59013888888889, 24.554583333333333], [89.60125000000001, 24.55763888888889], [89.59708333333333, 24.55986111111111], [89.60458333333334, 24.579027777777778], [89.59930555555556, 24.59486111111111], [89.60375, 24.605416666666667], [89.60486111111112, 24.59847222222222], [89.61069444444445, 24.601527777777775], [89.60013888888889, 24.610416666666666], [89.58902777777779, 24.610694444444444], [89.58069444444445, 24.621527777777775], [89.56097222222222, 24.623749999999998], [89.55430555555556, 24.64125], [89.56291666666667, 24.651805555555555], [89.55319444444444, 24.651527777777776], [89.54958333333333, 24.664305555555554], [89.57652777777778, 24.676527777777775], [89.57180555555556, 24.671805555555554], [89.57847222222223, 24.671805555555554], [89.56488849765259, 24.66756064162754], [89.55708333333334, 24.66347222222222], [89.56819444444444, 24.66208333333333], [89.55958333333334, 24.63958333333333], [89.56708333333333, 24.62763888888889], [89.58236111111111, 24.62736111111111], [89.59208333333333, 24.615138888888886], [89.59291666666667, 24.62236111111111], [89.58402777777778, 24.629305555555554], [89.59819444444445, 24.62486111111111], [89.60736111111112, 24.63097222222222], [89.60291666666667, 24.63513888888889], [89.59486111111111, 24.629305555555554], [89.58569444444444, 24.643472222222222], [89.59152777777778, 24.637361111111108], [89.60069444444444, 24.650416666666665], [89.6126388888889, 24.646805555555556], [89.61375, 24.652638888888887], [89.60847222222222, 24.65736111111111], [89.60097222222223, 24.65375], [89.60680555555555, 24.66236111111111], [89.5826388888889, 24.66347222222222], [89.60458333333334, 24.666527777777777], [89.59875000000001, 24.67597222222222], [89.58847222222222, 24.669027777777778], [89.58763888888889, 24.686527777777776], [89.58208333333333, 24.689027777777778], [89.59291666666667, 24.693749999999998], [89.59097222222222, 24.679583333333333], [89.59875000000001, 24.696527777777778], [89.60458333333334, 24.69486111111111], [89.60486111111112, 24.68263888888889], [89.61708333333334, 24.68847222222222], [89.61791666666667, 24.676805555555553], [89.61180555555556, 24.674305555555556], [89.60569444444445, 24.681805555555552], [89.60208333333334, 24.677638888888886], [89.60708333333334, 24.678472222222222], [89.60625, 24.670694444444443], [89.61347222222223, 24.672638888888887], [89.61458333333334, 24.655694444444443], [89.62458333333333, 24.650694444444444], [89.62486111111112, 24.659027777777776], [89.63458333333334, 24.650972222222222], [89.6301388888889, 24.64736111111111], [89.63458333333334, 24.643749999999997], [89.62291666666667, 24.642083333333332], [89.63875, 24.640694444444442], [89.63597222222222, 24.63486111111111], [89.64402777777778, 24.63208333333333], [89.6451388888889, 24.624305555555555], [89.64569444444444, 24.640694444444442], [89.6576388888889, 24.639027777777777], [89.65847222222223, 24.632916666666667], [89.64680555555556, 24.61958333333333], [89.65152777777779, 24.61486111111111], [89.64847222222222, 24.607916666666664], [89.64069444444445, 24.60736111111111], [89.64625000000001, 24.602916666666665], [89.63347222222222, 24.603194444444444], [89.64097222222223, 24.59958333333333], [89.63097222222223, 24.602916666666665], [89.63708333333334, 24.61236111111111], [89.63513888888889, 24.624583333333334], [89.62958333333333, 24.60097222222222], [89.62486111111112, 24.605694444444442], [89.62930555555556, 24.610138888888887], [89.61486111111111, 24.615694444444443], [89.61708333333334, 24.626527777777778], [89.60902777777778, 24.624305555555555], [89.61125, 24.616805555555555], [89.59375, 24.622083333333332], [89.59319444444445, 24.613194444444442], [89.61236111111111, 24.608194444444443], [89.6126388888889, 24.569305555555555], [89.61875, 24.572916666666664], [89.6126388888889, 24.58597222222222], [89.61986111111112, 24.600416666666664], [89.63763888888889, 24.584027777777777], [89.64291666666666, 24.58986111111111], [89.64236111111111, 24.58236111111111], [89.63625, 24.580972222222222], [89.6406555944056, 24.580809052059053], [89.63736111111112, 24.57875], [89.64847222222222, 24.578194444444442], [89.64847222222222, 24.585694444444442], [89.64393414481897, 24.58285814606741], [89.64486111111111, 24.59375], [89.63791666666667, 24.597638888888888], [89.64819444444444, 24.594027777777775], [89.64652777777778, 24.603194444444444], [89.65847222222223, 24.616249999999997], [89.66291666666667, 24.64875], [89.65819444444445, 24.661527777777778], [89.63541666666667, 24.678749999999997], [89.63180555555556, 24.691527777777775], [89.63958333333333, 24.699027777777776], [89.64319444444445, 24.692638888888887], [89.64403879099363, 24.694292400881057], [89.65402777777778, 24.68236111111111], [89.65208333333334, 24.692916666666665], [89.65986111111111, 24.678472222222222], [89.65597222222223, 24.686805555555555], [89.66736111111112, 24.68375], [89.65069444444444, 24.701249999999998], [89.64406565656566, 24.694345012626265], [89.64986111111111, 24.705694444444443], [89.65319444444445, 24.700138888888887], [89.65375, 24.70958333333333], [89.63736111111112, 24.716805555555553], [89.65319444444445, 24.715138888888887], [89.6601388888889, 24.692638888888887], [89.66402777777778, 24.69875], [89.65986111111111, 24.705138888888886], [89.66347222222223, 24.70097222222222], [89.66513888888889, 24.70847222222222], [89.65541666666667, 24.746805555555554], [89.66652777777779, 24.74736111111111], [89.66402777777778, 24.75486111111111], [89.67097222222222, 24.754583333333333], [89.67486111111111, 24.765138888888888], [89.6726388888889, 24.754305555555554], [89.68819444444445, 24.749583333333334], [89.68875, 24.75736111111111], [89.68847222222223, 24.749305555555555], [89.69958333333334, 24.745416666666664], [89.69513888888889, 24.775138888888886], [89.70125, 24.74486111111111], [89.70569444444445, 24.74347222222222], [89.70652777777778, 24.756805555555555], [89.70680555555556, 24.743194444444445], [89.71541666666667, 24.740416666666665], [89.71708333333333, 24.749583333333334], [89.72208333333333, 24.735416666666666], [89.72291666666666, 24.762916666666666], [89.71541666666667, 24.76458333333333], [89.72041666666667, 24.75958333333333], [89.69513888888889, 24.77986111111111], [89.72069444444445, 24.775694444444444], [89.73902777777778, 24.74236111111111], [89.73180555555555, 24.720416666666665], [89.74236111111111, 24.699583333333333], [89.76097222222222, 24.687083333333334], [89.74458333333334, 24.705416666666665], [89.76375, 24.685972222222222], [89.78763888888889, 24.68097222222222], [89.76125, 24.694305555555555], [89.77847222222222, 24.691805555555554], [89.76902777777778, 24.699861111111108], [89.77486111111111, 24.70208333333333], [89.75652777777778, 24.70375], [89.78430555555556, 24.702638888888888], [89.78930555555556, 24.69736111111111], [89.77958333333333, 24.701527777777777], [89.77958333333333, 24.69347222222222], [89.79208333333334, 24.680138888888887], [89.78930555555556, 24.693749999999998], [89.79736111111112, 24.678194444444443], [89.7826388888889, 24.671527777777776], [89.7851388888889, 24.62569444444444], [89.77402777777777, 24.624305555555555], [89.77569444444444, 24.634027777777778], [89.74291666666667, 24.681805555555552], [89.72930555555556, 24.69486111111111], [89.71958333333333, 24.69486111111111], [89.72763888888889, 24.696527777777778], [89.71875, 24.70486111111111], [89.71402777777779, 24.69569444444444], [89.71930555555556, 24.70208333333333], [89.72097222222223, 24.69763888888889], [89.71125, 24.69125], [89.70652777777778, 24.664861111111108], [89.71236111111111, 24.65986111111111], [89.7076388888889, 24.66097222222222], [89.71430555555555, 24.63347222222222], [89.71486111111112, 24.65375], [89.71736111111112, 24.644027777777776], [89.71708333333333, 24.656527777777775], [89.72041666666667, 24.648194444444442], [89.71958333333333, 24.658194444444444], [89.7248288311247, 24.654881498470946], [89.71541666666667, 24.636527777777776], [89.71625, 24.624305555555555], [89.73291666666667, 24.609583333333333], [89.71986111111111, 24.621527777777775], [89.72569444444444, 24.61875], [89.72125, 24.627916666666664], [89.72625000000001, 24.620416666666664], [89.7226388888889, 24.634027777777778], [89.74097222222223, 24.615138888888886], [89.73375, 24.628194444444443], [89.7376388888889, 24.646805555555556], [89.74486111111112, 24.64986111111111], [89.73875, 24.62847222222222], [89.74958333333333, 24.649305555555554], [89.7526388888889, 24.643749999999997], [89.74402777777777, 24.63597222222222], [89.74819444444445, 24.638194444444444], [89.74902777777778, 24.630416666666665], [89.75930555555556, 24.64986111111111], [89.75152777777778, 24.632638888888888], [89.76541666666667, 24.64125], [89.75541666666668, 24.632916666666667], [89.76625, 24.63958333333333], [89.76902777777778, 24.63347222222222], [89.76208333333334, 24.620694444444442], [89.77041666666666, 24.60458333333333], [89.75652777777778, 24.62486111111111], [89.74347222222222, 24.615972222222222], [89.74708333333334, 24.604305555555555], [89.75152777777778, 24.61875], [89.74930555555555, 24.606805555555553], [89.7526388888889, 24.601805555555554], [89.75486111111111, 24.61097222222222], [89.75930555555556, 24.586527777777775], [89.75680555555556, 24.60625], [89.76402777777778, 24.602638888888887], [89.76236111111112, 24.594305555555554], [89.76708333333333, 24.60125], [89.77097222222223, 24.596805555555555], [89.76069444444445, 24.57069444444444], [89.77319444444444, 24.58597222222222], [89.7701388888889, 24.576527777777777], [89.77430555555556, 24.579583333333332], [89.77680555555555, 24.57097222222222], [89.77125000000001, 24.601805555555554], [89.78930555555556, 24.575416666666666], [89.78041666666667, 24.568194444444444], [89.77847222222222, 24.576805555555556], [89.77819444444445, 24.567083333333333], [89.76847222222223, 24.558194444444442], [89.76069444444445, 24.56236111111111], [89.76263888888889, 24.553472222222222], [89.7676388888889, 24.55597222222222], [89.76375, 24.54736111111111], [89.76791666666666, 24.544305555555553], [89.76875, 24.54875], [89.76958333333333, 24.539861111111108], [89.75152777777778, 24.53736111111111], [89.75125, 24.54347222222222], [89.74458333333334, 24.532916666666665], [89.74375, 24.525972222222222], [89.7501388888889, 24.52958333333333], [89.74763888888889, 24.520416666666666], [89.73819444444445, 24.522916666666664], [89.73930555555556, 24.527916666666666], [89.73402777777778, 24.517916666666665], [89.7551388888889, 24.500416666666666], [89.75569444444444, 24.506249999999998], [89.75763888888889, 24.499027777777776], [89.74736111111112, 24.483194444444443], [89.75763888888889, 24.482916666666664], [89.74236111111111, 24.470694444444444], [89.74236111111111, 24.455694444444443], [89.7551388888889, 24.455416666666665], [89.74652777777779, 24.430416666666666], [89.76597222222223, 24.37708333333333], [89.7526388888889, 24.36097222222222], [89.75180555555556, 24.350416666666664], [89.77125000000001, 24.330972222222222], [89.77402777777777, 24.301805555555553], [89.79013888888889, 24.276527777777776], [89.78069444444445, 24.233472222222222], [89.79847222222223, 24.174305555555556], [89.78013888888889, 24.166249999999998], [89.78763888888889, 24.157916666666665], [89.8026388888889, 24.15958333333333], [89.80524037304453, 24.14676173285199], [89.81736111111111, 24.141527777777778], [89.81451690821257, 24.140579710144927], [89.82013888888889, 24.140694444444442], [89.81458333333333, 24.116249999999997], [89.82486111111112, 24.087083333333332], [89.82291666666667, 24.072916666666664], [89.76652777777778, 24.02375], [89.74097222222223, 24.02208333333333], [89.72152777777778, 24.01347222222222], [89.70291666666667, 24.02375], [89.69875, 24.03847222222222], [89.68291666666667, 24.034305555555555], [89.68125, 24.062083333333334], [89.63736111111112, 24.086805555555554], [89.62986111111111, 24.083194444444445], [89.61652777777778, 24.096805555555555], [89.60458333333334, 24.096527777777776], [89.59013888888889, 24.107916666666664], [89.55930555555555, 24.11125], [89.55541666666667, 24.119027777777777], [89.56430555555556, 24.12236111111111], [89.55069444444445, 24.129583333333333], [89.54680555555557, 24.124027777777776], [89.54708333333333, 24.13319444444444], [89.53291666666667, 24.130138888888887], [89.52180555555556, 24.154305555555553], [89.52930555555555, 24.158749999999998], [89.52319444444444, 24.16847222222222], [89.53347222222223, 24.166527777777777], [89.5351388888889, 24.172916666666666], [89.5176388888889, 24.179027777777776], [89.51708333333333, 24.18875], [89.52513888888889, 24.19125], [89.52236111111111, 24.19736111111111], [89.51041666666667, 24.199583333333333], [89.50097222222223, 24.21708333333333], [89.48930555555556, 24.21708333333333], [89.48597222222223, 24.20375], [89.46930555555556, 24.20097222222222], [89.46930555555556, 24.214305555555555], [89.46152777777777, 24.22458333333333], [89.47375000000001, 24.219305555555554], [89.47819444444444, 24.22958333333333], [89.47152777777778, 24.234583333333333], [89.45430555555556, 24.227638888888887], [89.44652777777777, 24.23125], [89.45652777777778, 24.233749999999997], [89.46319444444444, 24.250138888888888], [89.46097222222222, 24.261805555555554], [89.45236111111112, 24.266805555555553], [89.4401388888889, 24.260694444444443], [89.43930555555556, 24.25236111111111], [89.42458333333333, 24.250416666666666], [89.42930555555556, 24.26736111111111], [89.41763888888889, 24.292916666666667], [89.41902777777779, 24.304583333333333], [89.42541666666666, 24.306805555555552], [89.41763888888889, 24.32347222222222], [89.40013888888889, 24.321527777777778], [89.39930555555556, 24.33625], [89.38208333333334, 24.34208333333333], [89.3751388888889, 24.338194444444444], [89.37819444444445, 24.34819444444444], [89.36625000000001, 24.353749999999998], [89.35347222222222, 24.34819444444444], [89.32152777777777, 24.350694444444443], [89.32125, 24.355694444444442], [89.31486111111111, 24.351805555555554], [89.31736111111111, 24.370694444444442], [89.31347222222223, 24.367638888888887], [89.30875, 24.377916666666664], [89.31986111111111, 24.373749999999998], [89.30986111111112, 24.38208333333333], [89.30347222222223, 24.381805555555555], [89.30736111111112, 24.37597222222222], [89.29652777777778, 24.37986111111111], [89.30675469936914, 24.372069170851034], [89.28847222222223, 24.375416666666666], [89.29227859071109, 24.378818102337565]], [[89.81167410516032, 24.140521693756106], [89.80525392428439, 24.14669494459834], [89.80652777777777, 24.140416666666667], [89.81167410516032, 24.140521693756106]], [[89.517382996633, 24.532655723905723], [89.53569444444445, 24.527638888888887], [89.52458333333334, 24.531527777777775], [89.52819444444445, 24.54097222222222], [89.517382996633, 24.532655723905723]], [[89.80902777777779, 24.12125], [89.81041666666667, 24.11736111111111], [89.81486111111111, 24.129305555555554], [89.80902777777779, 24.12125]], [[89.80041666666666, 24.132638888888888], [89.8026388888889, 24.136805555555554], [89.81180555555555, 24.130138888888887], [89.80245695775648, 24.140503638622647], [89.79625, 24.137638888888887], [89.80041666666666, 24.132638888888888]], [[89.79448425336165, 24.112968228692743], [89.79291666666667, 24.10625], [89.79458333333334, 24.110138888888887], [89.80125, 24.104027777777777], [89.79448425336165, 24.112968228692743]], [[89.79492843403486, 24.114871860149353], [89.80347222222223, 24.118194444444445], [89.79847222222223, 24.12625], [89.80541666666667, 24.12736111111111], [89.79875, 24.131249999999998], [89.79492843403486, 24.114871860149353]], [[89.79180555555556, 24.07208333333333], [89.80208333333334, 24.07847222222222], [89.80236111111111, 24.08597222222222], [89.79180555555556, 24.07208333333333]], [[89.79902777777778, 24.141805555555553], [89.7976388888889, 24.150138888888886], [89.78930555555556, 24.135694444444443], [89.79902777777778, 24.141805555555553]], [[89.78986111111111, 24.068749999999998], [89.78875000000001, 24.064305555555553], [89.79875, 24.069027777777777], [89.78986111111111, 24.068749999999998]], [[89.76625, 24.659027777777776], [89.77625, 24.650416666666665], [89.76819444444445, 24.662916666666664], [89.77763888888889, 24.661805555555553], [89.76402777777778, 24.664583333333333], [89.76625, 24.659027777777776]], [[89.75819444444444, 24.586527777777775], [89.75402777777778, 24.596527777777776], [89.75430555555556, 24.58513888888889], [89.75819444444444, 24.586527777777775]], [[89.71208333333334, 24.374305555555555], [89.71013888888889, 24.367916666666666], [89.71986111111111, 24.36958333333333], [89.70125, 24.34236111111111], [89.71236111111111, 24.358194444444443], [89.71569444444445, 24.35125], [89.71652777777778, 24.360694444444444], [89.72152777777778, 24.36097222222222], [89.72180555555556, 24.38236111111111], [89.71541666666667, 24.39125], [89.74569444444445, 24.392916666666665], [89.75069444444445, 24.387916666666666], [89.75375, 24.396527777777777], [89.74708333333334, 24.41208333333333], [89.74486111111112, 24.400138888888886], [89.70263888888888, 24.394305555555555], [89.71152777777777, 24.380138888888887], [89.71263888888889, 24.38513888888889], [89.71208333333334, 24.374305555555555]], [[89.74458333333334, 24.389305555555556], [89.74236111111111, 24.384027777777778], [89.74763888888889, 24.384027777777778], [89.74458333333334, 24.389305555555556]], [[89.73569444444445, 24.614583333333332], [89.72736111111111, 24.622638888888886], [89.73652777777778, 24.610138888888887], [89.73569444444445, 24.614583333333332]], [[89.72819444444444, 24.274027777777775], [89.73097222222222, 24.270694444444445], [89.73291666666667, 24.279027777777777], [89.72819444444444, 24.274027777777775]], [[89.72847222222222, 24.36875], [89.73263888888889, 24.371805555555554], [89.72541666666667, 24.37236111111111], [89.72847222222222, 24.36875]], [[89.72875, 24.601805555555554], [89.7201388888889, 24.61097222222222], [89.73236111111112, 24.59708333333333], [89.72875, 24.601805555555554]], [[89.72930555555556, 24.250138888888888], [89.73041666666667, 24.25736111111111], [89.72513888888889, 24.25208333333333], [89.72930555555556, 24.250138888888888]], [[89.72125, 24.599027777777778], [89.72819444444444, 24.59486111111111], [89.72819444444444, 24.60013888888889], [89.72125, 24.599027777777778]], [[89.71513888888889, 24.61236111111111], [89.71958333333333, 24.607083333333332], [89.7201388888889, 24.612916666666667], [89.72513888888889, 24.610416666666666], [89.71263888888889, 24.617916666666666], [89.71513888888889, 24.61236111111111]], [[89.71375, 24.605416666666667], [89.71430555555555, 24.609583333333333], [89.7226388888889, 24.602361111111108], [89.71319444444444, 24.61263888888889], [89.71375, 24.605416666666667]], [[89.69097222222223, 24.428472222222222], [89.68736111111112, 24.434305555555554], [89.69369379276637, 24.43403022157054], [89.69569444444444, 24.426527777777775], [89.68875, 24.421805555555554], [89.69625, 24.416527777777777], [89.70263888888888, 24.43375], [89.69875, 24.418194444444442], [89.71152777777777, 24.426805555555553], [89.71263888888889, 24.41208333333333], [89.71291666666667, 24.44125], [89.72097222222223, 24.46125], [89.71347222222222, 24.47958333333333], [89.69236111111111, 24.485416666666666], [89.68791666666667, 24.478749999999998], [89.69291666666668, 24.481805555555553], [89.70097222222222, 24.470972222222223], [89.69569444444444, 24.47208333333333], [89.70875000000001, 24.46763888888889], [89.69513888888889, 24.469027777777775], [89.69597222222222, 24.463749999999997], [89.6776388888889, 24.470416666666665], [89.68791666666667, 24.462638888888886], [89.68125, 24.457638888888887], [89.68708333333333, 24.455416666666665], [89.67291666666667, 24.446805555555553], [89.66291666666667, 24.455694444444443], [89.66263888888889, 24.44847222222222], [89.65458333333333, 24.451805555555556], [89.64819444444444, 24.441805555555554], [89.6576388888889, 24.448194444444443], [89.67125, 24.44097222222222], [89.66986111111112, 24.436527777777776], [89.67708333333334, 24.444305555555555], [89.67069444444445, 24.441805555555554], [89.66680555555556, 24.44708333333333], [89.67291666666667, 24.444027777777777], [89.68680555555555, 24.45208333333333], [89.68347222222222, 24.44347222222222], [89.69291666666668, 24.442638888888887], [89.67902777777778, 24.439305555555553], [89.68513888888889, 24.436527777777776], [89.67791666666668, 24.42736111111111], [89.68402777777779, 24.42986111111111], [89.68652777777778, 24.42347222222222], [89.69097222222223, 24.428472222222222]], [[89.71263888888889, 24.34208333333333], [89.71597222222222, 24.339027777777776], [89.71875, 24.350694444444443], [89.71263888888889, 24.34208333333333]], [[89.68233010029032, 24.27796219319082], [89.68680555555555, 24.27375], [89.68652777777778, 24.280694444444443], [89.69032505388988, 24.27640187144817], [89.69152777777778, 24.28097222222222], [89.70208333333333, 24.28708333333333], [89.70069444444445, 24.29347222222222], [89.70708333333333, 24.288194444444443], [89.70819444444444, 24.300416666666667], [89.70208333333333, 24.30486111111111], [89.70902777777778, 24.305416666666666], [89.71597222222222, 24.32847222222222], [89.69763888888889, 24.315694444444443], [89.69097222222223, 24.337638888888886], [89.69097222222223, 24.331527777777776], [89.68319444444445, 24.32986111111111], [89.68208333333334, 24.335694444444442], [89.67819444444444, 24.331249999999997], [89.68291666666667, 24.325694444444444], [89.68430555555555, 24.329583333333332], [89.68125, 24.318749999999998], [89.68375, 24.32375], [89.69458333333334, 24.316805555555554], [89.68430555555555, 24.311805555555555], [89.68875, 24.302638888888886], [89.6776388888889, 24.30097222222222], [89.67958333333334, 24.290138888888887], [89.67347222222223, 24.28875], [89.68236111111112, 24.283749999999998], [89.6726388888889, 24.282916666666665], [89.68263888888889, 24.27958333333333], [89.68233010029032, 24.27796219319082]], [[89.69054585006694, 24.276152275769746], [89.69291666666668, 24.27347222222222], [89.69680555555556, 24.283194444444444], [89.69054585006694, 24.276152275769746]], [[89.71319444444444, 24.695416666666667], [89.71486111111112, 24.70736111111111], [89.70875000000001, 24.69236111111111], [89.71319444444444, 24.695416666666667]], [[89.69355519790177, 24.40714818788747], [89.68680555555555, 24.395416666666666], [89.69430555555556, 24.387638888888887], [89.69355519790177, 24.40714818788747]], [[89.69472658248453, 24.40918416585275], [89.70208333333333, 24.408472222222223], [89.70569444444445, 24.400138888888886], [89.71013888888889, 24.403194444444445], [89.70625, 24.412916666666664], [89.69652777777777, 24.41069444444444], [89.69847222222222, 24.415694444444444], [89.69472658248453, 24.40918416585275]], [[89.70700728280485, 24.617622131992782], [89.70486111111111, 24.618194444444445], [89.70736111111111, 24.60736111111111], [89.70700728280485, 24.617622131992782]], [[89.70187314138956, 24.385161192214113], [89.69763888888889, 24.38625], [89.70263888888888, 24.37597222222222], [89.70187314138956, 24.385161192214113]], [[89.70236111111112, 24.36208333333333], [89.69430555555556, 24.354305555555555], [89.70625, 24.360138888888887], [89.70597222222223, 24.365416666666665], [89.70236111111112, 24.36208333333333]], [[89.68964109751954, 24.2186956337071], [89.69430555555556, 24.214305555555555], [89.69791666666667, 24.22236111111111], [89.70625, 24.22347222222222], [89.70319444444445, 24.23625], [89.69791666666667, 24.226527777777775], [89.69569444444444, 24.23263888888889], [89.69097222222223, 24.22847222222222], [89.69541666666667, 24.221805555555555], [89.68964109751954, 24.2186956337071]], [[89.70430555555556, 24.373749999999998], [89.69847222222222, 24.374305555555555], [89.70180555555555, 24.36875], [89.70430555555556, 24.373749999999998]], [[89.70375, 24.366805555555555], [89.69375000000001, 24.365972222222222], [89.69875, 24.36236111111111], [89.70375, 24.366805555555555]], [[89.69763888888889, 24.270694444444445], [89.70097222222222, 24.26458333333333], [89.68402777777779, 24.25263888888889], [89.68513888888889, 24.242638888888887], [89.69152777777778, 24.240972222222222], [89.68125, 24.239305555555553], [89.68208333333334, 24.23236111111111], [89.68986111111111, 24.240138888888886], [89.68930555555556, 24.235416666666666], [89.69625, 24.235138888888887], [89.69430555555556, 24.241527777777776], [89.70236111111112, 24.23763888888889], [89.70319444444445, 24.275694444444444], [89.69763888888889, 24.270694444444445]], [[89.70319444444445, 24.596805555555555], [89.69458333333334, 24.61236111111111], [89.69430555555556, 24.603749999999998], [89.70319444444445, 24.596805555555555]], [[89.70069444444445, 24.340694444444445], [89.70069444444445, 24.34486111111111], [89.69541666666667, 24.33986111111111], [89.70069444444445, 24.340694444444445]], [[89.68625, 24.37736111111111], [89.68569444444445, 24.37013888888889], [89.70013888888889, 24.376805555555553], [89.68958333333333, 24.37236111111111], [89.68625, 24.37736111111111]], [[89.69680555555556, 24.631527777777777], [89.69875, 24.62708333333333], [89.69875, 24.63625], [89.69375000000001, 24.637361111111108], [89.6926388888889, 24.629583333333333], [89.69680555555556, 24.631527777777777]], [[89.69819444444445, 24.696805555555553], [89.69819444444445, 24.706249999999997], [89.69236111111111, 24.706527777777776], [89.69430555555556, 24.686249999999998], [89.69819444444445, 24.696805555555553]], [[89.69208333333333, 24.625138888888888], [89.69625, 24.624583333333334], [89.69236111111111, 24.629305555555554], [89.69208333333333, 24.625138888888888]], [[89.68902777777778, 24.711805555555554], [89.68652777777778, 24.721249999999998], [89.69597222222222, 24.72236111111111], [89.68652777777778, 24.727638888888887], [89.69430555555556, 24.73097222222222], [89.67708333333334, 24.73625], [89.68902777777778, 24.711805555555554]], [[89.69125, 24.419027777777778], [89.68625, 24.418194444444442], [89.69486111111111, 24.416805555555555], [89.69125, 24.419027777777778]], [[89.69402777777778, 24.46875], [89.6876388888889, 24.467916666666664], [89.69458333333334, 24.464583333333334], [89.69402777777778, 24.46875]], [[89.6901388888889, 24.38236111111111], [89.69402777777778, 24.38375], [89.68680555555555, 24.385416666666664], [89.68486111111112, 24.37986111111111], [89.6901388888889, 24.38236111111111]], [[89.67958333333334, 24.48986111111111], [89.68208333333334, 24.481805555555553], [89.68180555555556, 24.488194444444442], [89.69097222222223, 24.484583333333333], [89.68486111111112, 24.50097222222222], [89.68154313876089, 24.495442268305176], [89.68569444444445, 24.489305555555553], [89.6776388888889, 24.494027777777777], [89.67958333333334, 24.48986111111111]], [[89.681534539103, 24.49545498084292], [89.68319444444445, 24.50486111111111], [89.67930555555556, 24.498749999999998], [89.681534539103, 24.49545498084292]], [[89.67175779076238, 24.396633509552956], [89.67328993055557, 24.396449652777775], [89.68930555555556, 24.408194444444444], [89.67902777777778, 24.409027777777776], [89.67375, 24.40236111111111], [89.67175779076238, 24.396633509552956]], [[89.68236111111112, 24.337083333333332], [89.68875, 24.341527777777777], [89.67819444444444, 24.337916666666665], [89.68236111111112, 24.337083333333332]], [[89.68319444444445, 24.386527777777776], [89.68736111111112, 24.390416666666667], [89.68041666666667, 24.389027777777777], [89.68097222222222, 24.382916666666667], [89.68319444444445, 24.386527777777776]], [[89.67180555555557, 24.545972222222222], [89.67569444444445, 24.54347222222222], [89.66902777777779, 24.53458333333333], [89.67902777777778, 24.531527777777775], [89.67236111111112, 24.526805555555555], [89.67097222222222, 24.531805555555554], [89.66708333333334, 24.521805555555556], [89.67375, 24.518749999999997], [89.67902777777778, 24.530416666666664], [89.6751388888889, 24.518194444444443], [89.67958333333334, 24.52097222222222], [89.67904195668987, 24.516821667955668], [89.68513888888889, 24.52375], [89.68319444444445, 24.515138888888888], [89.67903925619835, 24.516800964187322], [89.67791666666668, 24.50819444444444], [89.68263888888889, 24.506805555555555], [89.68736111111112, 24.52486111111111], [89.67958333333334, 24.52486111111111], [89.68152777777777, 24.542916666666667], [89.66819444444445, 24.557916666666664], [89.67180555555557, 24.545972222222222]], [[89.68708333333333, 24.27263888888889], [89.66152777777778, 24.259305555555553], [89.68041666666667, 24.265694444444442], [89.68097222222222, 24.255694444444444], [89.68708333333333, 24.27263888888889]], [[89.67569444444445, 24.475416666666664], [89.67375, 24.466805555555553], [89.67819444444444, 24.47513888888889], [89.68680555555555, 24.472916666666666], [89.68597222222222, 24.48097222222222], [89.67569444444445, 24.475416666666664]], [[89.68208333333334, 24.62569444444444], [89.68486111111112, 24.622083333333332], [89.68208333333334, 24.634305555555553], [89.68208333333334, 24.62569444444444]], [[89.66736111111112, 24.22208333333333], [89.67180555555557, 24.21736111111111], [89.67784560723516, 24.229715762273898], [89.68291666666667, 24.228194444444444], [89.67930555555556, 24.234583333333333], [89.67736111111111, 24.22986111111111], [89.6776747311828, 24.229767025089604], [89.66791666666667, 24.22597222222222], [89.67097222222222, 24.222916666666666], [89.66569444444444, 24.22597222222222], [89.66736111111112, 24.22208333333333]], [[89.68152777777777, 24.63958333333333], [89.68263888888889, 24.64597222222222], [89.67791666666668, 24.63347222222222], [89.68152777777777, 24.63958333333333]], [[89.65786421633027, 24.24481911103149], [89.64041666666667, 24.24458333333333], [89.63569444444445, 24.235416666666666], [89.6451388888889, 24.242083333333333], [89.65236111111112, 24.23486111111111], [89.65786421633027, 24.24481911103149]], [[89.6615535246593, 24.24613136458472], [89.67125, 24.248194444444444], [89.67319444444445, 24.233194444444443], [89.67819444444444, 24.234583333333333], [89.6751388888889, 24.24458333333333], [89.68013888888889, 24.248194444444444], [89.67402777777778, 24.24513888888889], [89.66847222222222, 24.26125], [89.6615535246593, 24.24613136458472]], [[89.64625000000001, 24.362916666666667], [89.64708333333334, 24.358194444444443], [89.66041666666666, 24.360416666666666], [89.65791666666667, 24.35625], [89.67041666666667, 24.357916666666664], [89.67625, 24.351805555555554], [89.67986111111111, 24.356805555555553], [89.67541666666666, 24.362916666666667], [89.67458333333333, 24.358194444444443], [89.66486111111111, 24.358749999999997], [89.66208333333334, 24.365416666666665], [89.64319444444445, 24.363194444444442], [89.64041666666667, 24.357083333333332], [89.64625000000001, 24.362916666666667]], [[89.66291666666667, 24.415416666666665], [89.66708333333334, 24.42236111111111], [89.67097222222222, 24.41375], [89.67097222222222, 24.423194444444444], [89.67819444444444, 24.427083333333332], [89.66097222222223, 24.420972222222222], [89.66291666666667, 24.415416666666665]], [[89.67486111111111, 24.50236111111111], [89.66208333333334, 24.494027777777777], [89.66291666666667, 24.488194444444442], [89.66569444444444, 24.494305555555552], [89.67180555555557, 24.490138888888886], [89.67791666666668, 24.49597222222222], [89.6776388888889, 24.50597222222222], [89.67041666666667, 24.506805555555555], [89.67486111111111, 24.50236111111111]], [[89.66513888888889, 24.38486111111111], [89.6751388888889, 24.381249999999998], [89.67625, 24.385416666666664], [89.67013888888889, 24.39236111111111], [89.65541666666667, 24.389305555555556], [89.65680555555556, 24.37847222222222], [89.6601388888889, 24.387916666666666], [89.66513888888889, 24.38486111111111]], [[89.67291666666667, 24.367083333333333], [89.6751388888889, 24.371805555555554], [89.66708333333334, 24.370694444444442], [89.67291666666667, 24.367083333333333]], [[89.66875, 24.27847222222222], [89.6751388888889, 24.27486111111111], [89.67402777777778, 24.280694444444443], [89.66875, 24.27847222222222]], [[89.66736111111112, 24.318194444444444], [89.65680555555556, 24.32375], [89.65541666666667, 24.31736111111111], [89.67208333333333, 24.315694444444443], [89.67458333333333, 24.329583333333332], [89.66736111111112, 24.318194444444444]], [[89.67208333333333, 24.140138888888888], [89.67430555555556, 24.14763888888889], [89.66986111111112, 24.14847222222222], [89.66541666666667, 24.138749999999998], [89.67208333333333, 24.140138888888888]], [[89.66847222222222, 24.479305555555555], [89.67430555555556, 24.47958333333333], [89.66680555555556, 24.490694444444443], [89.66847222222222, 24.479305555555555]], [[89.67319444444445, 24.410138888888888], [89.67347222222223, 24.414305555555554], [89.67125, 24.40513888888889], [89.67319444444445, 24.410138888888888]], [[89.66291666666667, 24.514305555555556], [89.67152777777778, 24.511527777777776], [89.66513888888889, 24.518472222222222], [89.66291666666667, 24.514305555555556]], [[89.66950718575718, 24.303049656799654], [89.66375000000001, 24.300694444444442], [89.67125, 24.299027777777777], [89.66950718575718, 24.303049656799654]], [[89.66652777777779, 24.172638888888887], [89.66097222222223, 24.167638888888888], [89.67013888888889, 24.170416666666664], [89.66652777777779, 24.172638888888887]], [[89.66208333333334, 24.27486111111111], [89.66875, 24.271527777777777], [89.65958333333333, 24.281527777777775], [89.66208333333334, 24.27486111111111]], [[89.6101388888889, 24.539583333333333], [89.60763888888889, 24.52986111111111], [89.61208333333333, 24.53763888888889], [89.61458333333334, 24.533749999999998], [89.60875, 24.51986111111111], [89.61541666666668, 24.530694444444443], [89.61819444444444, 24.52347222222222], [89.61847222222222, 24.531527777777775], [89.62791666666666, 24.53097222222222], [89.61652777777778, 24.519027777777776], [89.61847222222222, 24.507638888888888], [89.62458333333333, 24.505694444444444], [89.6251388888889, 24.510416666666664], [89.62041666666667, 24.509027777777778], [89.62375, 24.524305555555554], [89.62986111111111, 24.52875], [89.63791666666667, 24.519583333333333], [89.63430555555556, 24.53013888888889], [89.64180555555556, 24.531527777777775], [89.63236111111111, 24.540416666666665], [89.65625, 24.541249999999998], [89.64819444444444, 24.522916666666664], [89.65652777777778, 24.533472222222223], [89.65902777777778, 24.540416666666665], [89.63930555555555, 24.547916666666666], [89.65507648741752, 24.559814036316926], [89.65513888888889, 24.559027777777775], [89.66263888888889, 24.559305555555554], [89.65791666666667, 24.560694444444444], [89.6601388888889, 24.567916666666665], [89.66791666666667, 24.557916666666664], [89.65930555555556, 24.582083333333333], [89.66319444444444, 24.58375], [89.64847222222222, 24.594027777777775], [89.65291666666667, 24.585694444444442], [89.66041666666666, 24.577638888888888], [89.65375, 24.57986111111111], [89.6451388888889, 24.57208333333333], [89.65375, 24.576527777777777], [89.65507290095525, 24.55985922574158], [89.64541666666666, 24.559583333333332], [89.63569444444445, 24.545694444444443], [89.62263888888889, 24.547916666666666], [89.61652777777778, 24.538194444444443], [89.61041666666667, 24.537916666666664], [89.60902777777778, 24.547638888888887], [89.6101388888889, 24.539583333333333]], [[89.66763888888889, 24.546527777777776], [89.65930555555556, 24.547916666666666], [89.66347222222223, 24.54208333333333], [89.66763888888889, 24.546527777777776]], [[89.66347222222223, 24.427083333333332], [89.66652777777779, 24.435972222222222], [89.65958333333333, 24.434027777777775], [89.65930555555556, 24.440416666666664], [89.65069444444444, 24.42736111111111], [89.65513888888889, 24.423194444444444], [89.66347222222223, 24.427083333333332]], [[89.65920389563975, 24.604981038043046], [89.65819444444445, 24.595138888888886], [89.66347222222223, 24.60625], [89.65920389563975, 24.604981038043046]], [[89.65930555555556, 24.515416666666667], [89.66319444444444, 24.52375], [89.65569444444445, 24.520138888888887], [89.65930555555556, 24.515416666666667]], [[89.66236111111111, 24.407638888888886], [89.65930555555556, 24.41069444444444], [89.65847222222223, 24.400972222222222], [89.66236111111111, 24.407638888888886]], [[89.65791666666667, 24.47513888888889], [89.64958333333334, 24.47236111111111], [89.66208333333334, 24.471527777777776], [89.6601388888889, 24.47847222222222], [89.65791666666667, 24.47513888888889]], [[89.64708333333334, 24.419027777777778], [89.64069444444445, 24.416527777777777], [89.65013888888889, 24.41263888888889], [89.65165579280348, 24.405391459074714], [89.65347222222222, 24.412916666666664], [89.65958333333333, 24.41208333333333], [89.65791666666667, 24.419583333333332], [89.64708333333334, 24.419027777777778]], [[89.65183006535948, 24.40455882352942], [89.65263888888889, 24.400694444444444], [89.64486111111111, 24.402083333333334], [89.65708333333333, 24.399305555555554], [89.65183006535948, 24.40455882352942]], [[89.64069444444445, 24.490138888888886], [89.65430555555555, 24.494305555555552], [89.65875, 24.48763888888889], [89.65847222222223, 24.494305555555552], [89.63986111111112, 24.496527777777775], [89.63652777777779, 24.488194444444442], [89.64069444444445, 24.490138888888886]], [[89.64041666666667, 24.519583333333333], [89.64208333333333, 24.505694444444444], [89.64625000000001, 24.51097222222222], [89.64680555555556, 24.502916666666664], [89.64872581536761, 24.51114635157545], [89.64041666666667, 24.519583333333333]], [[89.64875, 24.51112179487179], [89.64875, 24.500138888888888], [89.65041666666667, 24.50597222222222], [89.65847222222223, 24.50125], [89.64875, 24.51112179487179]], [[89.65597222222223, 24.480694444444442], [89.65791666666667, 24.48486111111111], [89.64791666666667, 24.484305555555554], [89.64402777777778, 24.477916666666665], [89.65597222222223, 24.480694444444442]], [[89.65791666666667, 24.193194444444444], [89.65236111111112, 24.208194444444445], [89.64958333333334, 24.201527777777777], [89.65791666666667, 24.193194444444444]], [[89.63930555555555, 24.216527777777777], [89.63513888888889, 24.21708333333333], [89.64013888888888, 24.213194444444444], [89.65541666666667, 24.21847222222222], [89.65513888888889, 24.22347222222222], [89.63930555555555, 24.216527777777777]], [[89.63847222222222, 24.376805555555553], [89.64569444444444, 24.37013888888889], [89.64675319096712, 24.38337322042219], [89.63847222222222, 24.376805555555553]], [[89.64791666666667, 24.320416666666667], [89.64625000000001, 24.31513888888889], [89.65236111111112, 24.324583333333333], [89.64791666666667, 24.320416666666667]], [[89.63847222222222, 24.42013888888889], [89.63986111111112, 24.42625], [89.65097222222222, 24.422638888888887], [89.64013888888888, 24.428194444444443], [89.63847222222222, 24.42013888888889]], [[89.64236111111111, 24.569305555555555], [89.64597222222223, 24.56375], [89.65041666666667, 24.566805555555554], [89.64236111111111, 24.569305555555555]], [[89.65013888888889, 24.29208333333333], [89.65041666666667, 24.299305555555556], [89.64736111111111, 24.28875], [89.65013888888889, 24.29208333333333]], [[89.63069444444444, 24.44236111111111], [89.63763888888889, 24.43819444444444], [89.6419468906284, 24.44594884757556], [89.63069444444444, 24.44236111111111]], [[89.6427774370855, 24.446213659489416], [89.64097222222223, 24.437638888888888], [89.64986111111111, 24.44847222222222], [89.6427774370855, 24.446213659489416]], [[89.64541666666666, 24.256805555555555], [89.64958333333334, 24.254583333333333], [89.64291666666666, 24.260416666666664], [89.64541666666666, 24.256805555555555]], [[89.64375, 24.520138888888887], [89.64625000000001, 24.52875], [89.64180555555556, 24.530416666666664], [89.64375, 24.520138888888887]], [[89.64569444444444, 24.470694444444444], [89.64180555555556, 24.469027777777775], [89.64291666666666, 24.475694444444443], [89.63930555555555, 24.46763888888889], [89.64569444444444, 24.463472222222222], [89.64569444444444, 24.470694444444444]], [[89.6426388888889, 24.41208333333333], [89.63569444444445, 24.406527777777775], [89.63930555555555, 24.40375], [89.64430555555556, 24.405416666666664], [89.6426388888889, 24.41208333333333]], [[89.64430555555556, 24.289583333333333], [89.63736111111112, 24.283749999999998], [89.64069444444445, 24.279305555555553], [89.64430555555556, 24.289583333333333]], [[89.63902777777778, 24.33486111111111], [89.63708333333334, 24.338472222222222], [89.63958333333333, 24.327638888888888], [89.64430555555556, 24.33486111111111], [89.63902777777778, 24.33486111111111]], [[89.64291666666666, 24.352083333333333], [89.63736111111112, 24.358194444444443], [89.64069444444445, 24.345972222222223], [89.64291666666666, 24.352083333333333]], [[89.62208333333334, 24.572916666666664], [89.61597222222223, 24.561527777777776], [89.62847222222223, 24.566527777777775], [89.64180555555556, 24.562916666666666], [89.63680555555555, 24.56958333333333], [89.62152777777779, 24.56597222222222], [89.62208333333334, 24.572916666666664]], [[89.63597222222222, 24.367638888888887], [89.63958333333333, 24.364027777777775], [89.63652777777779, 24.379027777777775], [89.6301388888889, 24.37125], [89.63597222222222, 24.367638888888887]], [[89.63069444444444, 24.55236111111111], [89.63930555555555, 24.560416666666665], [89.62652777777778, 24.55013888888889], [89.63069444444444, 24.55236111111111]], [[89.62097222222222, 24.221527777777776], [89.63736111111112, 24.207916666666666], [89.63736111111112, 24.214305555555555], [89.62541666666667, 24.22208333333333], [89.62625, 24.22958333333333], [89.62097222222222, 24.221527777777776]], [[89.63208333333334, 24.22625], [89.63625, 24.226527777777775], [89.63291666666667, 24.232916666666664], [89.62930555555556, 24.22319444444444], [89.63208333333334, 24.22625]], [[89.63569444444445, 24.42486111111111], [89.62680555555556, 24.42236111111111], [89.62597222222223, 24.41597222222222], [89.63569444444445, 24.42486111111111]], [[89.62902777777778, 24.509027777777778], [89.63208333333334, 24.505694444444444], [89.63569444444445, 24.512083333333333], [89.62652777777778, 24.516527777777778], [89.62902777777778, 24.509027777777778]], [[89.63180555555556, 24.39486111111111], [89.63152777777778, 24.399583333333332], [89.62569444444445, 24.39736111111111], [89.62180555555555, 24.387083333333333], [89.63291666666667, 24.38847222222222], [89.63180555555556, 24.39486111111111]], [[89.62875, 24.321527777777778], [89.63236111111111, 24.324583333333333], [89.62375, 24.32847222222222], [89.6276388888889, 24.317083333333333], [89.62875, 24.321527777777778]], [[89.63097222222223, 24.402916666666666], [89.63180555555556, 24.407916666666665], [89.62375, 24.40958333333333], [89.63097222222223, 24.402916666666666]], [[89.62569444444445, 24.34958333333333], [89.63069444444444, 24.361527777777777], [89.62458333333333, 24.36486111111111], [89.62291666666667, 24.34347222222222], [89.62569444444445, 24.34958333333333]], [[89.6251388888889, 24.47236111111111], [89.6301388888889, 24.483749999999997], [89.61736111111111, 24.483194444444443], [89.6251388888889, 24.47236111111111]], [[89.62013888888889, 24.46736111111111], [89.62069444444445, 24.457638888888887], [89.62597222222223, 24.457916666666666], [89.62930555555556, 24.467916666666664], [89.62263888888889, 24.461527777777775], [89.62013888888889, 24.46736111111111]], [[89.62708333333333, 24.580972222222222], [89.62541666666667, 24.58486111111111], [89.62847222222223, 24.576805555555556], [89.62708333333333, 24.580972222222222]], [[89.62402777777778, 24.252916666666664], [89.62208333333334, 24.247083333333332], [89.62708333333333, 24.25819444444444], [89.62402777777778, 24.252916666666664]], [[89.62069444444445, 24.33236111111111], [89.62708333333333, 24.33236111111111], [89.62625, 24.338194444444444], [89.61402777777778, 24.332916666666666], [89.62069444444445, 24.33236111111111]], [[89.62375, 24.318194444444444], [89.62208333333334, 24.310416666666665], [89.62680555555556, 24.311527777777776], [89.62375, 24.318194444444444]], [[89.60902777777778, 24.16875], [89.61097222222223, 24.16347222222222], [89.62625, 24.16375], [89.60847222222222, 24.17236111111111], [89.60625, 24.164861111111108], [89.60902777777778, 24.16875]], [[89.62079907822621, 24.443332710513204], [89.62486111111112, 24.437916666666666], [89.62291666666667, 24.445138888888888], [89.62079907822621, 24.443332710513204]], [[89.62319444444445, 24.622916666666665], [89.62375, 24.62847222222222], [89.61819444444444, 24.626527777777778], [89.62319444444445, 24.622916666666665]], [[89.61791666666667, 24.64097222222222], [89.62236111111112, 24.64486111111111], [89.61291666666666, 24.63847222222222], [89.61791666666667, 24.64097222222222]], [[89.61791666666667, 24.501527777777778], [89.62236111111112, 24.498749999999998], [89.62236111111112, 24.504583333333333], [89.61791666666667, 24.501527777777778]], [[89.61430555555556, 24.293194444444442], [89.62125, 24.29097222222222], [89.61625000000001, 24.298194444444444], [89.61430555555556, 24.293194444444442]], [[89.61819444444444, 24.631249999999998], [89.61152777777778, 24.637361111111108], [89.61069444444445, 24.631249999999998], [89.61819444444444, 24.631249999999998]], [[89.61430555555556, 24.367916666666666], [89.61152777777778, 24.37097222222222], [89.61680555555556, 24.36375], [89.61430555555556, 24.367916666666666]], [[89.60122295968536, 24.430070058997064], [89.59263888888889, 24.422916666666666], [89.60319444444444, 24.420416666666664], [89.59819444444445, 24.42236111111111], [89.60122295968536, 24.430070058997064]], [[89.60131601893373, 24.4301476083707], [89.61597222222223, 24.43208333333333], [89.60763888888889, 24.435416666666665], [89.60131601893373, 24.4301476083707]], [[89.59319444444445, 24.52236111111111], [89.58680555555556, 24.518194444444443], [89.60069444444444, 24.52208333333333], [89.60263888888889, 24.509027777777778], [89.5951388888889, 24.504305555555554], [89.60680555555555, 24.507638888888888], [89.60291666666667, 24.515694444444442], [89.61597222222223, 24.50597222222222], [89.61541666666668, 24.511805555555554], [89.60208333333334, 24.517083333333332], [89.60048829098157, 24.524445067264573], [89.59319444444445, 24.52236111111111]], [[89.60986111111112, 24.483749999999997], [89.60847222222222, 24.478749999999998], [89.6151388888889, 24.480694444444442], [89.61125, 24.489027777777775], [89.60986111111112, 24.483749999999997]], [[89.60430555555556, 24.347916666666666], [89.60069444444444, 24.34263888888889], [89.61236111111111, 24.34986111111111], [89.59652777777778, 24.349305555555553], [89.60430555555556, 24.347916666666666]], [[89.59430555555556, 24.28875], [89.59986111111111, 24.285416666666666], [89.61152777777778, 24.291249999999998], [89.59847222222223, 24.289861111111108], [89.60069444444444, 24.304027777777776], [89.59430555555556, 24.28875]], [[89.60041666666667, 24.490416666666665], [89.59875000000001, 24.485416666666666], [89.60791666666667, 24.483749999999997], [89.61125, 24.491249999999997], [89.60041666666667, 24.490416666666665]], [[89.6093932748538, 24.500211988304095], [89.61041666666667, 24.50708333333333], [89.60541666666667, 24.50208333333333], [89.6093932748538, 24.500211988304095]], [[89.60513888888889, 24.326527777777777], [89.60097222222223, 24.325416666666666], [89.60819444444445, 24.321805555555553], [89.60529816078878, 24.326706958665152], [89.60513888888889, 24.326527777777777]], [[89.60486111111112, 24.144583333333333], [89.60902777777778, 24.14486111111111], [89.60569444444445, 24.150416666666665], [89.60486111111112, 24.144583333333333]], [[89.60819444444445, 24.305694444444445], [89.60152777777778, 24.303194444444443], [89.60875, 24.300416666666667], [89.60819444444445, 24.305694444444445]], [[89.60458333333334, 24.395416666666666], [89.60875, 24.399305555555554], [89.60402777777779, 24.40375], [89.60458333333334, 24.395416666666666]], [[89.60458333333334, 24.366249999999997], [89.60763888888889, 24.37013888888889], [89.60013888888889, 24.366249999999997], [89.60458333333334, 24.366249999999997]], [[89.60486111111112, 24.269583333333333], [89.60680555555555, 24.264027777777777], [89.60541666666667, 24.274305555555554], [89.60486111111112, 24.269583333333333]], [[89.60458333333334, 24.53875], [89.60625, 24.547916666666666], [89.60013888888889, 24.540694444444444], [89.60458333333334, 24.53875]], [[89.59402777777778, 24.17375], [89.5951388888889, 24.168194444444442], [89.60513888888889, 24.171527777777776], [89.60458333333334, 24.181527777777777], [89.59652777777778, 24.181527777777777], [89.59847222222223, 24.19125], [89.59208333333333, 24.187638888888888], [89.5951388888889, 24.179583333333333], [89.58736111111111, 24.17736111111111], [89.59402777777778, 24.17375]], [[89.59930555555556, 24.499583333333334], [89.59652777777778, 24.490972222222222], [89.60486111111112, 24.50597222222222], [89.59930555555556, 24.499583333333334]], [[89.59263888888889, 24.470694444444444], [89.59819444444445, 24.468194444444443], [89.60347222222222, 24.47625], [89.59625, 24.479027777777777], [89.59263888888889, 24.470694444444444]], [[89.60152777777778, 24.37708333333333], [89.60013888888889, 24.382916666666667], [89.59791666666666, 24.374027777777776], [89.60152777777778, 24.37708333333333]], [[89.59430555555556, 24.515138888888888], [89.5976388888889, 24.512083333333333], [89.60013888888889, 24.517638888888886], [89.59430555555556, 24.515138888888888]], [[89.59875000000001, 24.46236111111111], [89.59902777777778, 24.46847222222222], [89.59486111111111, 24.458194444444445], [89.59875000000001, 24.46236111111111]], [[89.59819444444445, 24.192083333333333], [89.5976388888889, 24.199027777777776], [89.59319444444445, 24.19708333333333], [89.59819444444445, 24.192083333333333]], [[89.59375, 24.530416666666664], [89.59791666666666, 24.539027777777775], [89.59125, 24.539027777777775], [89.59375, 24.530416666666664]], [[89.59430555555556, 24.402083333333334], [89.59680555555556, 24.39763888888889], [89.59430555555556, 24.416249999999998], [89.59430555555556, 24.402083333333334]], [[89.58875, 24.34708333333333], [89.58847222222222, 24.34208333333333], [89.59486111111111, 24.342916666666664], [89.58875, 24.34708333333333]], [[89.59375, 24.27208333333333], [89.59208333333333, 24.280416666666664], [89.58291666666666, 24.28236111111111], [89.58736111111111, 24.271805555555556], [89.59375, 24.27208333333333]], [[89.59319444444445, 24.299027777777777], [89.58763888888889, 24.296527777777776], [89.59319444444445, 24.29347222222222], [89.59319444444445, 24.299027777777777]], [[89.59291666666667, 24.318749999999998], [89.59263888888889, 24.324583333333333], [89.59263888888889, 24.312638888888888], [89.59291666666667, 24.318749999999998]], [[89.58819444444444, 24.507916666666667], [89.58847222222222, 24.50347222222222], [89.59291666666667, 24.50708333333333], [89.58819444444444, 24.507916666666667]], [[89.58054035906135, 24.24747066723212], [89.58847222222222, 24.248749999999998], [89.58458333333334, 24.25736111111111], [89.59208333333333, 24.268194444444443], [89.58291666666666, 24.262916666666666], [89.58054035906135, 24.24747066723212]], [[89.58736111111111, 24.377916666666664], [89.57791666666667, 24.372916666666665], [89.58597222222222, 24.36875], [89.59152777777778, 24.379583333333333], [89.58736111111111, 24.377916666666664]], [[89.58486111111111, 24.134027777777778], [89.59152777777778, 24.136805555555554], [89.58180555555556, 24.136805555555554], [89.58486111111111, 24.134027777777778]], [[89.59152777777778, 24.384305555555553], [89.59097222222222, 24.388749999999998], [89.58708333333334, 24.38208333333333], [89.59152777777778, 24.384305555555553]], [[89.58569444444444, 24.53763888888889], [89.58986111111112, 24.529305555555553], [89.58375000000001, 24.542638888888888], [89.58569444444444, 24.53763888888889]], [[89.58097222222223, 24.457916666666666], [89.58958333333334, 24.44458333333333], [89.58375000000001, 24.463749999999997], [89.58097222222223, 24.457916666666666]], [[89.57541666666667, 24.389027777777777], [89.58208333333333, 24.385694444444443], [89.58652777777777, 24.391527777777778], [89.57541666666667, 24.389027777777777]], [[89.5801388888889, 24.430416666666666], [89.58597222222222, 24.428194444444443], [89.58625, 24.434583333333332], [89.5801388888889, 24.430416666666666]], [[89.55319444444444, 24.32069444444444], [89.55791666666667, 24.312638888888888], [89.56541666666666, 24.321527777777778], [89.56875000000001, 24.316527777777775], [89.56458333333333, 24.309305555555554], [89.55625, 24.310416666666665], [89.5526388888889, 24.297916666666666], [89.56213477366255, 24.29718621399177], [89.56180555555555, 24.297083333333333], [89.56430555555556, 24.29208333333333], [89.56652777777778, 24.296805555555554], [89.57125, 24.28736111111111], [89.57708333333333, 24.291249999999998], [89.56902777777778, 24.29347222222222], [89.57069444444444, 24.29986111111111], [89.56328020993344, 24.297544162826423], [89.56069444444445, 24.303749999999997], [89.57125, 24.30847222222222], [89.58094945355192, 24.304244255289326], [89.57180555555556, 24.311805555555555], [89.57652777777778, 24.325694444444444], [89.55319444444444, 24.32069444444444]], [[89.5819778159166, 24.303393878718538], [89.57986111111111, 24.296249999999997], [89.58326542236243, 24.302329127234486], [89.5819778159166, 24.303393878718538]], [[89.58347222222223, 24.421805555555554], [89.58097222222223, 24.414027777777775], [89.58541666666667, 24.42625], [89.58347222222223, 24.421805555555554]], [[89.58125, 24.210416666666664], [89.58069444444445, 24.203194444444442], [89.58513888888889, 24.207916666666666], [89.58125, 24.210416666666664]], [[89.57956223950391, 24.28660681610247], [89.58458333333334, 24.287916666666664], [89.57930555555556, 24.292638888888888], [89.57956223950391, 24.28660681610247]], [[89.5801388888889, 24.546249999999997], [89.57125, 24.541527777777777], [89.58402777777778, 24.543194444444442], [89.5801388888889, 24.546249999999997]], [[89.57680555555555, 24.311805555555555], [89.57847222222223, 24.31597222222222], [89.57319444444445, 24.31486111111111], [89.58125, 24.30736111111111], [89.57680555555555, 24.311805555555555]], [[89.56625, 24.426527777777775], [89.57291666666667, 24.419305555555553], [89.58069444444445, 24.42375], [89.57013888888889, 24.430694444444445], [89.56625, 24.426527777777775]], [[89.56986111111111, 24.34986111111111], [89.57541666666667, 24.34208333333333], [89.58041666666666, 24.35597222222222], [89.57291666666667, 24.355138888888888], [89.57680555555555, 24.34736111111111], [89.56986111111111, 24.34986111111111]], [[89.56708333333333, 24.22319444444444], [89.56927594360471, 24.218609895695216], [89.57380357686455, 24.220151217656014], [89.57319444444445, 24.220972222222223], [89.57402777777779, 24.23097222222222], [89.57680555555555, 24.225694444444443], [89.57875, 24.22958333333333], [89.57263888888889, 24.240138888888886], [89.56708333333333, 24.22319444444444]], [[89.56849170997279, 24.218342922543922], [89.56597222222223, 24.220694444444444], [89.56152777777778, 24.21597222222222], [89.56849170997279, 24.218342922543922]], [[89.57486111111112, 24.398194444444442], [89.57097222222222, 24.395694444444445], [89.57736111111112, 24.394305555555555], [89.57902777777778, 24.399583333333332], [89.57486111111112, 24.398194444444442]], [[89.56875000000001, 24.275416666666665], [89.56125, 24.280416666666664], [89.56708333333333, 24.271527777777777], [89.56208333333333, 24.267083333333332], [89.56958333333334, 24.265416666666667], [89.57180555555556, 24.27486111111111], [89.57208333333334, 24.265694444444442], [89.57291666666667, 24.275694444444444], [89.57819444444445, 24.275138888888886], [89.57569444444445, 24.289027777777775], [89.56875000000001, 24.275416666666665]], [[89.57069444444444, 24.38208333333333], [89.57652777777778, 24.380138888888887], [89.57763888888888, 24.38513888888889], [89.57069444444444, 24.38208333333333]], [[89.56819444444444, 24.24486111111111], [89.56875000000001, 24.23986111111111], [89.57513888888889, 24.24347222222222], [89.57125, 24.246527777777775], [89.57652777777778, 24.254305555555554], [89.56958333333334, 24.25486111111111], [89.57319444444445, 24.25097222222222], [89.56819444444444, 24.24486111111111]], [[89.57069444444444, 24.36125], [89.56652777777778, 24.359027777777776], [89.57486111111112, 24.359583333333333], [89.57069444444444, 24.36125]], [[89.56736111111111, 24.538194444444443], [89.56652777777778, 24.54236111111111], [89.56569444444445, 24.535416666666666], [89.57347222222222, 24.53875], [89.56736111111111, 24.538194444444443]], [[89.56541666666666, 24.261527777777776], [89.55791666666667, 24.261527777777776], [89.57097222222222, 24.260694444444443], [89.56541666666666, 24.261527777777776]], [[89.55763888888889, 24.292916666666667], [89.55402777777778, 24.290416666666665], [89.56028493699885, 24.291232817869414], [89.55763888888889, 24.292916666666667]], [[89.56040399239544, 24.291157055344314], [89.55958333333334, 24.285138888888888], [89.56986111111111, 24.285138888888888], [89.56040399239544, 24.291157055344314]], [[89.56708333333333, 24.326527777777777], [89.56847222222223, 24.334027777777777], [89.56069444444445, 24.327916666666667], [89.56708333333333, 24.326527777777777]], [[89.55958333333334, 24.39236111111111], [89.56069444444445, 24.38347222222222], [89.56597222222223, 24.38458333333333], [89.55958333333334, 24.39236111111111]], [[89.56402777777778, 24.340416666666666], [89.56180555555555, 24.345138888888886], [89.55791666666667, 24.338472222222222], [89.56402777777778, 24.340416666666666]], [[89.54986111111111, 24.414305555555554], [89.54569444444445, 24.411527777777778], [89.55486111111111, 24.406805555555554], [89.56291666666667, 24.41736111111111], [89.55402777777778, 24.41597222222222], [89.55390262949783, 24.419601522340848], [89.54152777777779, 24.416249999999998], [89.54986111111111, 24.414305555555554]], [[89.56041666666667, 24.503194444444443], [89.55680555555556, 24.50069444444444], [89.5626388888889, 24.50347222222222], [89.55875, 24.510694444444443], [89.56041666666667, 24.503194444444443]], [[89.55652777777777, 24.26597222222222], [89.56208333333333, 24.268749999999997], [89.55375000000001, 24.27125], [89.55652777777777, 24.26597222222222]], [[89.55763888888889, 24.248194444444444], [89.56208333333333, 24.248749999999998], [89.55319444444444, 24.249583333333334], [89.55763888888889, 24.248194444444444]], [[89.55791666666667, 24.352916666666665], [89.56069444444445, 24.361527777777777], [89.55347222222223, 24.356527777777778], [89.55791666666667, 24.352916666666665]], [[89.55680555555556, 24.425416666666667], [89.56069444444445, 24.430138888888887], [89.55375000000001, 24.428472222222222], [89.55680555555556, 24.425416666666667]], [[89.55319444444444, 24.375138888888888], [89.55736111111112, 24.376805555555553], [89.55152777777778, 24.374583333333334], [89.55347222222223, 24.36847222222222], [89.55319444444444, 24.375138888888888]], [[89.5476388888889, 24.443749999999998], [89.55625, 24.44013888888889], [89.55430555555556, 24.44736111111111], [89.5476388888889, 24.443749999999998]], [[89.55236111111111, 24.456249999999997], [89.55208333333334, 24.465138888888887], [89.54680555555557, 24.46597222222222], [89.54791666666667, 24.455416666666665], [89.55236111111111, 24.456249999999997]], [[89.54819444444445, 24.391527777777778], [89.55208333333334, 24.398194444444442], [89.54319444444445, 24.396527777777777], [89.54319444444445, 24.390694444444442], [89.54819444444445, 24.391527777777778]], [[89.54513888888889, 24.365138888888886], [89.55125, 24.369305555555552], [89.54513888888889, 24.373749999999998], [89.54513888888889, 24.365138888888886]], [[89.55097222222223, 24.51736111111111], [89.5476388888889, 24.522916666666664], [89.5501388888889, 24.513194444444444], [89.55097222222223, 24.51736111111111]], [[89.53986111111111, 24.302916666666665], [89.5501388888889, 24.307916666666664], [89.53180555555556, 24.30236111111111], [89.53986111111111, 24.302916666666665]], [[89.54986111111111, 24.424305555555556], [89.54819444444445, 24.432916666666664], [89.54208333333334, 24.425416666666667], [89.54541666666667, 24.434305555555554], [89.53180555555556, 24.422083333333333], [89.54347222222222, 24.420694444444443], [89.54013888888889, 24.42347222222222], [89.54680555555557, 24.428194444444443], [89.54986111111111, 24.424305555555556]], [[89.54485162022914, 24.457014863399095], [89.54069444444444, 24.452638888888888], [89.54930555555556, 24.44569444444444], [89.54485162022914, 24.457014863399095]], [[89.54319444444445, 24.38625], [89.54819444444445, 24.387361111111108], [89.54041666666667, 24.390138888888888], [89.54319444444445, 24.38625]], [[89.52541666666667, 24.518749999999997], [89.52627914186509, 24.51775483630952], [89.53847222222223, 24.52236111111111], [89.53958333333334, 24.52875], [89.54736111111112, 24.52486111111111], [89.54736111111112, 24.53763888888889], [89.54402777777779, 24.52986111111111], [89.53486111111111, 24.53763888888889], [89.53680555555556, 24.526527777777776], [89.52541666666667, 24.518749999999997]], [[89.54041666666667, 24.442638888888887], [89.54319444444445, 24.43819444444444], [89.54597222222222, 24.442083333333333], [89.54041666666667, 24.442638888888887]], [[89.54208333333334, 24.286527777777778], [89.53819444444444, 24.279305555555553], [89.54513888888889, 24.281527777777775], [89.54208333333334, 24.286527777777778]], [[89.52600694444445, 24.469357638888887], [89.51875, 24.469027777777775], [89.52263888888889, 24.464305555555555], [89.52600694444445, 24.469357638888887]], [[89.52938553270495, 24.469511211082548], [89.54152777777779, 24.461805555555554], [89.5351388888889, 24.47375], [89.52930555555555, 24.476527777777775], [89.53097222222223, 24.469583333333333], [89.52938553270495, 24.469511211082548]], [[89.53847222222223, 24.24986111111111], [89.54013888888889, 24.25375], [89.53625000000001, 24.245416666666664], [89.53847222222223, 24.24986111111111]], [[89.53625000000001, 24.48847222222222], [89.53319444444445, 24.492638888888887], [89.52819444444445, 24.479305555555555], [89.53625000000001, 24.48847222222222]], [[89.53291666666667, 24.505694444444444], [89.52875, 24.510416666666664], [89.52319444444444, 24.506805555555555], [89.53291666666667, 24.505694444444444]], [[89.52430555555556, 24.478194444444444], [89.52847222222222, 24.47625], [89.52569444444444, 24.48097222222222], [89.51902777777778, 24.477083333333333], [89.52430555555556, 24.478194444444444]], [[89.52430555555556, 24.525416666666665], [89.52847222222222, 24.525138888888886], [89.52097222222223, 24.529305555555553], [89.52430555555556, 24.525416666666665]], [[89.52152777777778, 24.436527777777776], [89.52597222222222, 24.433194444444442], [89.52791666666667, 24.439305555555553], [89.51486111111112, 24.43736111111111], [89.52152777777778, 24.436527777777776]], [[89.52541666666667, 24.352083333333333], [89.52569444444444, 24.35625], [89.52125000000001, 24.352083333333333], [89.52541666666667, 24.352083333333333]], [[89.52097222222223, 24.45347222222222], [89.52541666666667, 24.452638888888888], [89.52430555555556, 24.460416666666664], [89.52097222222223, 24.45347222222222]], [[89.5204153165924, 24.50234862292425], [89.51513888888888, 24.49375], [89.51930555555556, 24.492083333333333], [89.5204153165924, 24.50234862292425]], [[89.51569444444445, 24.45736111111111], [89.52152777777778, 24.463749999999997], [89.51791666666666, 24.46847222222222], [89.51513888888888, 24.45986111111111], [89.50930555555556, 24.46125], [89.51569444444445, 24.45736111111111]], [[89.51208333333334, 24.357083333333332], [89.51875, 24.358472222222222], [89.50180555555556, 24.361805555555556], [89.51208333333334, 24.357083333333332]], [[89.51263888888889, 24.52208333333333], [89.51708333333333, 24.52236111111111], [89.51152777777779, 24.526527777777776], [89.51263888888889, 24.52208333333333]], [[89.50958333333334, 24.49486111111111], [89.50236111111111, 24.49375], [89.50930555555556, 24.492916666666666], [89.50569444444444, 24.480138888888888], [89.51597222222223, 24.483472222222222], [89.51375, 24.50236111111111], [89.50958333333334, 24.49486111111111]], [[89.50875, 24.422083333333333], [89.50597222222223, 24.401249999999997], [89.51347222222222, 24.404305555555553], [89.50763888888889, 24.428749999999997], [89.50875, 24.422083333333333]], [[89.50541666666668, 24.519305555555555], [89.51319444444445, 24.51736111111111], [89.50736111111111, 24.523194444444442], [89.50541666666668, 24.519305555555555]], [[89.51180555555555, 24.449305555555554], [89.50680555555556, 24.45486111111111], [89.5098611111111, 24.445416666666667], [89.51180555555555, 24.449305555555554]], [[89.50375, 24.277638888888887], [89.50180555555556, 24.274027777777775], [89.50930555555556, 24.27986111111111], [89.50375, 24.277638888888887]], [[89.50569444444444, 24.459027777777777], [89.50347222222223, 24.444305555555555], [89.50902777777777, 24.442083333333333], [89.50569444444444, 24.459027777777777]], [[89.49930555555555, 24.53458333333333], [89.50430555555556, 24.531527777777775], [89.50847222222222, 24.539861111111108], [89.49930555555555, 24.53458333333333]], [[89.49652777777779, 24.49236111111111], [89.50569444444444, 24.498472222222222], [89.49458333333334, 24.500138888888888], [89.49652777777779, 24.49236111111111]], [[89.50041666666667, 24.524027777777775], [89.49319444444444, 24.52263888888889], [89.50319444444445, 24.520416666666666], [89.50041666666667, 24.524027777777775]], [[89.49597222222222, 24.262361111111108], [89.50180555555556, 24.262916666666666], [89.49680555555555, 24.268749999999997], [89.49597222222222, 24.262361111111108]], [[89.48875, 24.30986111111111], [89.49680555555555, 24.31375], [89.48569444444445, 24.315694444444443], [89.48875, 24.30986111111111]], [[89.49652777777779, 24.461805555555554], [89.49652777777779, 24.46597222222222], [89.49458333333334, 24.456249999999997], [89.49652777777779, 24.461805555555554]], [[89.48125, 24.397916666666664], [89.48875, 24.394027777777776], [89.48236111111112, 24.38847222222222], [89.49319444444444, 24.387638888888887], [89.49263888888889, 24.381249999999998], [89.49597222222222, 24.387361111111108], [89.48875, 24.389305555555556], [89.48930555555556, 24.402916666666666], [89.48125, 24.397916666666664]], [[89.49430555555556, 24.526249999999997], [89.49347222222222, 24.531805555555554], [89.48847222222223, 24.52847222222222], [89.49430555555556, 24.526249999999997]], [[89.48458333333333, 24.442638888888887], [89.48902777777778, 24.43125], [89.49236111111111, 24.439305555555553], [89.48458333333333, 24.442638888888887]], [[89.48402777777778, 24.38097222222222], [89.49069444444444, 24.373472222222222], [89.48986111111111, 24.38347222222222], [89.48402777777778, 24.38097222222222]], [[89.48319444444445, 24.47458333333333], [89.48736111111111, 24.477083333333333], [89.47458333333334, 24.47319444444444], [89.48319444444445, 24.47458333333333]], [[89.47319444444445, 24.339027777777776], [89.48347222222222, 24.33486111111111], [89.47847222222222, 24.34208333333333], [89.47319444444445, 24.339027777777776]], [[89.47763888888889, 24.44597222222222], [89.48041666666667, 24.454305555555553], [89.47347222222223, 24.462638888888886], [89.47125, 24.45208333333333], [89.47597222222223, 24.454027777777778], [89.47763888888889, 24.44597222222222]], [[89.47791666666667, 24.483749999999997], [89.47597222222223, 24.48875], [89.47152777777778, 24.48597222222222], [89.47791666666667, 24.483749999999997]], [[89.47375000000001, 24.435416666666665], [89.47625000000001, 24.425416666666667], [89.47763888888889, 24.440694444444443], [89.46930555555556, 24.435972222222222], [89.47375000000001, 24.435416666666665]], [[89.46375, 24.36486111111111], [89.4576388888889, 24.359027777777776], [89.4701388888889, 24.36375], [89.46375, 24.36486111111111]], [[89.46263888888889, 24.466527777777777], [89.46791666666667, 24.464583333333334], [89.46402777777779, 24.47236111111111], [89.46958333333333, 24.47486111111111], [89.46152777777777, 24.47625], [89.46263888888889, 24.466527777777777]], [[89.46597222222222, 24.40347222222222], [89.46902777777778, 24.40958333333333], [89.46180555555556, 24.399027777777775], [89.46597222222222, 24.40347222222222]], [[89.46597222222222, 24.37763888888889], [89.46486111111112, 24.384027777777778], [89.46069444444444, 24.37097222222222], [89.46597222222222, 24.37763888888889]], [[89.45625, 24.417916666666667], [89.46263888888889, 24.419305555555553], [89.45902777777778, 24.422916666666666], [89.45625, 24.417916666666667]], [[89.45986111111111, 24.444305555555555], [89.45486111111111, 24.43847222222222], [89.46208333333334, 24.445138888888888], [89.4551388888889, 24.446805555555553], [89.45986111111111, 24.444305555555555]], [[89.45402777777778, 24.388749999999998], [89.45875000000001, 24.384305555555553], [89.46041666666667, 24.39097222222222], [89.45402777777778, 24.388749999999998]], [[89.45597222222223, 24.370694444444442], [89.45347222222223, 24.361527777777777], [89.45930555555556, 24.361805555555556], [89.45597222222223, 24.370694444444442]], [[89.45736111111111, 24.474027777777778], [89.45236111111112, 24.47597222222222], [89.45125, 24.469027777777775], [89.45736111111111, 24.474027777777778]], [[89.43692642956765, 24.48790388191538], [89.4376388888889, 24.482916666666664], [89.44680555555556, 24.484305555555554], [89.44513888888889, 24.477361111111108], [89.44208333333333, 24.48263888888889], [89.43625, 24.477361111111108], [89.44763888888889, 24.475416666666664], [89.45319444444445, 24.490138888888886], [89.44986111111112, 24.492916666666666], [89.44569444444444, 24.484583333333333], [89.43913160403051, 24.49064133986928], [89.43692642956765, 24.48790388191538]], [[89.43980020796197, 24.49147133095662], [89.44847222222222, 24.492916666666666], [89.44208333333333, 24.494305555555552], [89.43980020796197, 24.49147133095662]], [[89.44986111111112, 24.40347222222222], [89.44680555555556, 24.399027777777775], [89.45263888888888, 24.39625], [89.44986111111112, 24.40347222222222]], [[89.44625, 24.464583333333334], [89.45097222222222, 24.463472222222222], [89.44708333333334, 24.47486111111111], [89.44625, 24.464583333333334]], [[89.44319444444444, 24.421527777777776], [89.42791666666668, 24.428472222222222], [89.43125, 24.420972222222222], [89.44319444444444, 24.421527777777776]], [[89.43708333333333, 24.467916666666664], [89.43847222222223, 24.46236111111111], [89.44208333333333, 24.46875], [89.43708333333333, 24.467916666666664]], [[89.43708333333333, 24.408194444444444], [89.43958333333333, 24.413194444444443], [89.43486111111112, 24.413194444444443], [89.43708333333333, 24.408194444444444]], [[89.43180555555556, 24.38097222222222], [89.43736111111112, 24.381249999999998], [89.43375, 24.387083333333333], [89.43180555555556, 24.38097222222222]], [[89.43013888888889, 24.46097222222222], [89.43708333333333, 24.458194444444445], [89.43680555555555, 24.462916666666665], [89.43013888888889, 24.46097222222222]], [[89.43541666666667, 24.451805555555556], [89.43541666666667, 24.457916666666666], [89.43291666666667, 24.44597222222222], [89.43541666666667, 24.451805555555556]], [[89.42958333333334, 24.507916666666667], [89.43513888888889, 24.505694444444444], [89.43180555555556, 24.51097222222222], [89.42430555555556, 24.50736111111111], [89.42958333333334, 24.507916666666667]], [[89.43013888888889, 24.367916666666666], [89.43263888888889, 24.372083333333332], [89.42319444444445, 24.375416666666666], [89.43013888888889, 24.367916666666666]], [[89.42902777777778, 24.542916666666667], [89.43208333333334, 24.549305555555556], [89.42625, 24.54736111111111], [89.42902777777778, 24.542916666666667]], [[89.42119333674165, 24.351026329243354], [89.41930555555555, 24.36208333333333], [89.42013888888889, 24.35125], [89.42119333674165, 24.351026329243354]], [[89.41097222222223, 24.41847222222222], [89.42041666666667, 24.41736111111111], [89.41708333333334, 24.427083333333332], [89.40652777777778, 24.42486111111111], [89.41097222222223, 24.41847222222222]], [[89.41375000000001, 24.554583333333333], [89.4101388888889, 24.55013888888889], [89.41791666666667, 24.55236111111111], [89.41375000000001, 24.554583333333333]], [[89.39986111111111, 24.491527777777776], [89.40375, 24.48708333333333], [89.41291666666667, 24.490416666666665], [89.39875, 24.495694444444442], [89.39986111111111, 24.491527777777776]], [[89.40597222222223, 24.34263888888889], [89.40930555555556, 24.345694444444444], [89.40236111111112, 24.33986111111111], [89.40597222222223, 24.34263888888889]], [[89.39041666666667, 24.517083333333332], [89.39236111111111, 24.51013888888889], [89.39819444444444, 24.515694444444442], [89.39542239404354, 24.52023052691867], [89.40097222222222, 24.519305555555555], [89.39041666666667, 24.52847222222222], [89.39097222222223, 24.52097222222222], [89.39469152046784, 24.520352339181287], [89.39041666666667, 24.517083333333332]], [[89.39319444444445, 24.47958333333333], [89.39347222222223, 24.47375], [89.39736111111111, 24.478194444444444], [89.39319444444445, 24.47958333333333]], [[89.39458333333333, 24.419305555555553], [89.39097222222223, 24.424027777777777], [89.39319444444445, 24.41347222222222], [89.39458333333333, 24.419305555555553]], [[89.38430555555556, 24.54875], [89.3801388888889, 24.545972222222222], [89.39041666666667, 24.547638888888887], [89.38875, 24.55236111111111], [89.38430555555556, 24.54875]], [[89.37013888888889, 24.426527777777775], [89.3801388888889, 24.43208333333333], [89.36625000000001, 24.42986111111111], [89.37013888888889, 24.426527777777775]], [[89.37625, 24.540138888888887], [89.3776388888889, 24.547638888888887], [89.37180555555555, 24.54208333333333], [89.37625, 24.540138888888887]], [[89.37458333333333, 24.506527777777777], [89.37375, 24.511805555555554], [89.37013888888889, 24.506249999999998], [89.37458333333333, 24.506527777777777]], [[89.35152777777778, 24.50819444444444], [89.3476388888889, 24.510694444444443], [89.34847222222223, 24.50486111111111], [89.35152777777778, 24.50819444444444]]], [[[89.30683668582375, 24.37200670498084], [89.31402777777778, 24.366527777777776], [89.31319444444445, 24.35097222222222], [89.31291666666667, 24.366527777777776], [89.29319444444445, 24.374027777777776], [89.30683668582375, 24.37200670498084]]], [[[89.72495232172471, 24.65512230514096], [89.71541666666667, 24.66847222222222], [89.72652777777778, 24.658194444444444], [89.72495232172471, 24.65512230514096]]], [[[89.75486111111111, 24.732083333333332], [89.74958333333333, 24.735694444444444], [89.75791666666667, 24.73263888888889], [89.76597222222223, 24.710416666666664], [89.75625000000001, 24.716805555555553], [89.75486111111111, 24.732083333333332]]], [[[89.73125, 24.667638888888888], [89.7351388888889, 24.66597222222222], [89.72819444444444, 24.659027777777776], [89.72652777777778, 24.670694444444443], [89.73125, 24.667638888888888]]], [[[89.70791666666666, 24.30708333333333], [89.69291666666668, 24.30486111111111], [89.68736111111112, 24.311527777777776], [89.70875000000001, 24.317916666666665], [89.70791666666666, 24.30708333333333]]], [[[89.69986111111112, 24.25125], [89.69652777777777, 24.24736111111111], [89.69291666666668, 24.25375], [89.69902777777779, 24.260694444444443], [89.69986111111112, 24.25125]]], [[[89.69291666666668, 24.77125], [89.6776388888889, 24.78097222222222], [89.6926388888889, 24.77375], [89.69625, 24.763749999999998], [89.69291666666668, 24.77125]]], [[[89.68958333333333, 24.294305555555553], [89.69597222222222, 24.292638888888888], [89.68236111111112, 24.285416666666666], [89.68875, 24.29958333333333], [89.68513888888889, 24.289583333333333], [89.68958333333333, 24.294305555555553]]], [[[89.63597222222222, 24.67013888888889], [89.63790258782515, 24.64945640028605], [89.62847222222223, 24.66236111111111], [89.63597222222222, 24.67013888888889]]], [[[89.63793375094913, 24.64941375601114], [89.64041666666667, 24.665138888888887], [89.64597222222223, 24.664305555555554], [89.64041666666667, 24.65736111111111], [89.64375, 24.650416666666665], [89.64708333333334, 24.656805555555554], [89.65319444444445, 24.65236111111111], [89.64847222222222, 24.651249999999997], [89.65013888888889, 24.643194444444443], [89.64430555555556, 24.642916666666665], [89.64402777777778, 24.650138888888886], [89.63902777777778, 24.647916666666664], [89.63793375094913, 24.64941375601114]]], [[[89.63041666666668, 24.531805555555554], [89.62180555555555, 24.53569444444444], [89.62875, 24.540416666666665], [89.63041666666668, 24.531805555555554]]], [[[89.61819444444444, 24.603194444444444], [89.61763888888889, 24.61347222222222], [89.62458333333333, 24.60597222222222], [89.61819444444444, 24.603194444444444]]], [[[89.60569444444445, 24.61847222222222], [89.61347222222223, 24.609583333333333], [89.59625, 24.617916666666666], [89.60569444444445, 24.61847222222222]]], [[[89.59597222222223, 24.658194444444444], [89.59958333333334, 24.65597222222222], [89.58958333333334, 24.65597222222222], [89.58458333333334, 24.649305555555554], [89.58680555555556, 24.656527777777775], [89.59597222222223, 24.658194444444444]]], [[[89.5692898052692, 24.63797079037801], [89.57319444444445, 24.642916666666665], [89.58097222222223, 24.632638888888888], [89.58319444444444, 24.627916666666664], [89.5692898052692, 24.63797079037801]]], [[[89.55236111111111, 24.671527777777776], [89.55041666666666, 24.677916666666665], [89.56097222222222, 24.681805555555552], [89.56125, 24.68847222222222], [89.57375, 24.686249999999998], [89.56041666666667, 24.692916666666665], [89.57263888888889, 24.694305555555555], [89.57875, 24.682916666666664], [89.56791666666668, 24.679583333333333], [89.56680555555556, 24.672638888888887], [89.55236111111111, 24.671527777777776]]], [[[89.50763888888889, 24.549305555555556], [89.51986111111111, 24.54958333333333], [89.51430555555555, 24.53125], [89.50763888888889, 24.549305555555556]]], [[[89.30236111111111, 24.36986111111111], [89.3126388888889, 24.36375], [89.31125, 24.35736111111111], [89.29013888888889, 24.36958333333333], [89.29152777777779, 24.374027777777776], [89.30236111111111, 24.36986111111111]]]]}}