{"type": "Feature", "properties": {}, "geometry": {"type": "MultiPolygon", "coordinates": [[[[89.28347222222223, 24.379027777777775], [89.2851388888889, 24.420416666666664], [89.27180555555556, 24.42736111111111], [89.2526388888889, 24.42375], [89.24819444444445, 24.432916666666664], [89.28125, 24.456527777777776], [89.28347222222223, 24.484583333333333], [89.29097222222222, 24.48486111111111], [89.32069444444444, 24.519027777777776], [89.31736111111111, 24.523194444444442], [89.33763888888889, 24.544305555555553], [89.34152777777778, 24.56319444444444], [89.35819444444445, 24.551805555555553], [89.36069444444445, 24.559027777777775], [89.3751388888889, 24.554027777777776], [89.39208333333333, 24.55736111111111], [89.39680555555556, 24.550416666666667], [89.40875, 24.554027777777776], [89.40986111111111, 24.560972222222222], [89.4251388888889, 24.560694444444444], [89.43736111111112, 24.54486111111111], [89.4376388888889, 24.55013888888889], [89.44625, 24.54958333333333], [89.47291666666666, 24.53875], [89.47402777777778, 24.552083333333332], [89.47930555555556, 24.554305555555555], [89.48625, 24.546805555555554], [89.48013888888889, 24.553749999999997], [89.4851388888889, 24.556805555555552], [89.5001388888889, 24.552638888888886], [89.50236111111111, 24.545416666666664], [89.51430555555555, 24.54875], [89.51041666666667, 24.553194444444443], [89.51958333333333, 24.55013888888889], [89.50402777777778, 24.55625], [89.50847222222222, 24.556805555555552], [89.52236111111111, 24.551527777777775], [89.51875, 24.535416666666666], [89.53208333333333, 24.546805555555554], [89.53069444444445, 24.56347222222222], [89.54791666666667, 24.547083333333333], [89.55513888888889, 24.555416666666666], [89.56680555555556, 24.546805555555554], [89.58902777777779, 24.55097222222222], [89.60430555555556, 24.569305555555555], [89.59930555555556, 24.594305555555554], [89.60402777777779, 24.607083333333332], [89.58902777777779, 24.610694444444444], [89.58069444444445, 24.621527777777775], [89.55902777777779, 24.625138888888888], [89.55430555555556, 24.64125], [89.56291666666667, 24.651805555555555], [89.55319444444444, 24.651527777777776], [89.55430555555556, 24.657916666666665], [89.54875, 24.65958333333333], [89.55430555555556, 24.667638888888888], [89.5501388888889, 24.677638888888886], [89.55930555555555, 24.680416666666666], [89.56125, 24.68847222222222], [89.5723611111111, 24.687083333333334], [89.55819444444445, 24.692916666666665], [89.55458333333334, 24.704305555555553], [89.56375, 24.71097222222222], [89.55791666666667, 24.697916666666664], [89.56430555555556, 24.702916666666667], [89.58069444444445, 24.679027777777776], [89.57958333333333, 24.67236111111111], [89.55708333333334, 24.663194444444443], [89.5676388888889, 24.664027777777775], [89.57013888888889, 24.654305555555553], [89.56319444444445, 24.644583333333333], [89.56902777777778, 24.63847222222222], [89.57458333333334, 24.669305555555553], [89.58264484978541, 24.66708571769194], [89.57430555555555, 24.66375], [89.57930555555556, 24.658472222222223], [89.57652777777778, 24.651249999999997], [89.58513888888889, 24.631249999999998], [89.58041666666666, 24.627916666666664], [89.58875, 24.622916666666665], [89.58513888888889, 24.63513888888889], [89.58819444444444, 24.628194444444443], [89.60208333333334, 24.626527777777778], [89.60375, 24.63513888888889], [89.5976388888889, 24.62875], [89.58430555555556, 24.63847222222222], [89.58152777777778, 24.652638888888887], [89.58958333333334, 24.657083333333333], [89.58125, 24.661805555555553], [89.58363458409599, 24.66681318215714], [89.59375, 24.664027777777775], [89.60402777777779, 24.669583333333332], [89.5976388888889, 24.675694444444442], [89.59736111111111, 24.67013888888889], [89.58597222222222, 24.667916666666667], [89.58680555555556, 24.680416666666666], [89.57902777777778, 24.68347222222222], [89.58736111111111, 24.686805555555555], [89.58069444444445, 24.693749999999998], [89.59291666666667, 24.694027777777777], [89.59069444444445, 24.680138888888887], [89.59875000000001, 24.696527777777778], [89.60486111111112, 24.69458333333333], [89.6065072016461, 24.686352880658433], [89.62013888888889, 24.687638888888888], [89.6126388888889, 24.664027777777775], [89.62430555555555, 24.66847222222222], [89.62847222222223, 24.661805555555553], [89.62902777777778, 24.67375], [89.63430555555556, 24.670972222222222], [89.63180555555556, 24.68347222222222], [89.63708333333334, 24.675694444444442], [89.63180555555556, 24.691527777777775], [89.64597222222223, 24.701527777777777], [89.64514418447911, 24.711464230695167], [89.63736111111112, 24.716805555555553], [89.64847222222222, 24.71986111111111], [89.65625, 24.71236111111111], [89.65458333333333, 24.720416666666665], [89.66041666666666, 24.72208333333333], [89.65791666666667, 24.709305555555556], [89.66180555555556, 24.712638888888886], [89.66402777777778, 24.705138888888886], [89.65597222222223, 24.747916666666665], [89.66652777777779, 24.74736111111111], [89.66402777777778, 24.75486111111111], [89.67097222222222, 24.75486111111111], [89.67458333333333, 24.765416666666667], [89.67347222222223, 24.754027777777775], [89.68819444444445, 24.749583333333334], [89.68902777777778, 24.75958333333333], [89.69875, 24.750138888888888], [89.69208333333333, 24.767638888888886], [89.67430555555556, 24.77375], [89.67486111111111, 24.781805555555554], [89.68680555555555, 24.78013888888889], [89.69652777777777, 24.765138888888888], [89.69625, 24.77375], [89.68625, 24.782083333333333], [89.69569444444444, 24.775138888888886], [89.69486111111111, 24.78013888888889], [89.71263888888889, 24.77875], [89.73097222222222, 24.766805555555553], [89.74125000000001, 24.742083333333333], [89.73208333333334, 24.71986111111111], [89.74152777777778, 24.704027777777778], [89.74597222222222, 24.70736111111111], [89.74180555555556, 24.719305555555554], [89.73652777777778, 24.718194444444443], [89.74263888888889, 24.721805555555555], [89.73875, 24.726805555555554], [89.76347222222222, 24.70986111111111], [89.76152777777779, 24.716527777777777], [89.74847222222222, 24.721805555555555], [89.75291666666666, 24.727916666666665], [89.74991282949617, 24.72914901012123], [89.75319444444445, 24.731805555555553], [89.74180555555556, 24.73736111111111], [89.75291666666666, 24.73847222222222], [89.75097222222223, 24.743194444444445], [89.76263888888889, 24.73763888888889], [89.75402777777778, 24.74625], [89.75793888888889, 24.746836666666663], [89.73958333333334, 24.74736111111111], [89.74847222222222, 24.748749999999998], [89.74902777777778, 24.754583333333333], [89.75430555555556, 24.748194444444444], [89.75858995584989, 24.746934326710814], [89.75958333333334, 24.747083333333332], [89.76875, 24.73097222222222], [89.76930555555556, 24.740416666666665], [89.7598611111111, 24.751805555555553], [89.77569444444444, 24.735416666666666], [89.76736111111111, 24.750416666666666], [89.77402777777777, 24.748749999999998], [89.75402777777778, 24.754305555555554], [89.74402777777777, 24.76458333333333], [89.75708333333334, 24.75375], [89.74569444444445, 24.766805555555553], [89.74986111111112, 24.770138888888887], [89.75319444444445, 24.763749999999998], [89.75541666666668, 24.768472222222222], [89.75736111111111, 24.75597222222222], [89.76263888888889, 24.75486111111111], [89.75708333333334, 24.762083333333333], [89.76125, 24.765416666666667], [89.77125000000001, 24.753194444444443], [89.76847222222223, 24.76458333333333], [89.77319444444444, 24.766527777777778], [89.77375, 24.755416666666665], [89.7826388888889, 24.75263888888889], [89.77569444444444, 24.751805555555553], [89.77736111111112, 24.742916666666666], [89.78291666666667, 24.740694444444443], [89.76986111111111, 24.715138888888887], [89.77486111111111, 24.70847222222222], [89.77763888888889, 24.715416666666666], [89.79736111111112, 24.678472222222222], [89.78319444444445, 24.669305555555553], [89.7851388888889, 24.62569444444444], [89.77402777777777, 24.624305555555555], [89.76875, 24.63347222222222], [89.76402777777778, 24.623472222222222], [89.77041666666666, 24.60458333333333], [89.76125, 24.614027777777775], [89.75402777777778, 24.603749999999998], [89.75625000000001, 24.59819444444444], [89.76125, 24.611805555555556], [89.76152777777779, 24.595416666666665], [89.76708333333333, 24.602361111111108], [89.76930555555556, 24.595694444444444], [89.77069444444444, 24.602916666666665], [89.78902777777778, 24.57208333333333], [89.76375, 24.559583333333332], [89.76958333333333, 24.539861111111108], [89.74625, 24.53736111111111], [89.74763888888889, 24.520416666666666], [89.73819444444445, 24.522916666666664], [89.73430555555557, 24.517638888888886], [89.75569444444444, 24.506249999999998], [89.75763888888889, 24.499027777777776], [89.74736111111112, 24.483194444444443], [89.75763888888889, 24.482916666666664], [89.74236111111111, 24.470694444444444], [89.74236111111111, 24.455694444444443], [89.7551388888889, 24.455416666666665], [89.74652777777779, 24.430416666666666], [89.76597222222223, 24.37708333333333], [89.7526388888889, 24.36097222222222], [89.75180555555556, 24.350416666666664], [89.77125000000001, 24.330972222222222], [89.77402777777777, 24.301805555555553], [89.79013888888889, 24.276527777777776], [89.78097222222223, 24.233472222222222], [89.79847222222223, 24.174305555555556], [89.78013888888889, 24.166249999999998], [89.78763888888889, 24.157916666666665], [89.80291666666668, 24.15958333333333], [89.80486111111111, 24.14708333333333], [89.82097222222222, 24.137916666666666], [89.8151388888889, 24.117083333333333], [89.82486111111112, 24.087083333333332], [89.82291666666667, 24.072916666666664], [89.79541666666667, 24.04375], [89.78430555555556, 24.04097222222222], [89.7851388888889, 24.035138888888888], [89.76652777777778, 24.02375], [89.74097222222223, 24.02208333333333], [89.72180555555556, 24.01347222222222], [89.70291666666667, 24.02375], [89.69875, 24.03847222222222], [89.68291666666667, 24.034305555555555], [89.68458333333334, 24.05847222222222], [89.6601388888889, 24.075416666666666], [89.63736111111112, 24.086805555555554], [89.62986111111111, 24.083194444444445], [89.61652777777778, 24.096805555555555], [89.60458333333334, 24.096527777777776], [89.58069444444445, 24.111527777777777], [89.55930555555555, 24.11125], [89.55541666666667, 24.119027777777777], [89.56430555555556, 24.12236111111111], [89.54986111111111, 24.129583333333333], [89.54680555555557, 24.124027777777776], [89.54597222222222, 24.131527777777777], [89.53291666666667, 24.130138888888887], [89.52930555555555, 24.136527777777776], [89.52180555555556, 24.154305555555553], [89.52930555555555, 24.158749999999998], [89.52319444444444, 24.16847222222222], [89.53347222222223, 24.166527777777777], [89.5351388888889, 24.172916666666666], [89.5176388888889, 24.179027777777776], [89.51708333333333, 24.18875], [89.52513888888889, 24.19125], [89.52236111111111, 24.19736111111111], [89.51041666666667, 24.199583333333333], [89.50097222222223, 24.21708333333333], [89.48930555555556, 24.21708333333333], [89.48597222222223, 24.20375], [89.46930555555556, 24.20097222222222], [89.46152777777777, 24.22458333333333], [89.47375000000001, 24.219305555555554], [89.47819444444444, 24.22958333333333], [89.47152777777778, 24.234583333333333], [89.45430555555556, 24.227638888888887], [89.44652777777777, 24.23125], [89.45652777777778, 24.233749999999997], [89.46319444444444, 24.250138888888888], [89.46013888888889, 24.262083333333333], [89.44791666666667, 24.268194444444443], [89.43930555555556, 24.25236111111111], [89.42458333333333, 24.250416666666666], [89.42930555555556, 24.26736111111111], [89.41763888888889, 24.292638888888888], [89.41902777777779, 24.304583333333333], [89.42541666666666, 24.306805555555552], [89.41819444444445, 24.32208333333333], [89.40013888888889, 24.321527777777778], [89.39763888888889, 24.337638888888886], [89.3751388888889, 24.338194444444444], [89.37819444444445, 24.34819444444444], [89.36625000000001, 24.353749999999998], [89.35347222222222, 24.34819444444444], [89.31458333333333, 24.351527777777775], [89.31652777777778, 24.36958333333333], [89.30958333333334, 24.371527777777775], [89.3116966540404, 24.359498106060606], [89.31097222222222, 24.357083333333332], [89.28930555555556, 24.37097222222222], [89.304661889885, 24.37449662682242], [89.31041666666667, 24.372083333333332], [89.31152777777778, 24.37736111111111], [89.30180555555556, 24.37569444444444], [89.30388235294117, 24.374823529411763], [89.28875000000001, 24.374583333333334], [89.29958333333333, 24.384305555555553], [89.28819444444444, 24.37569444444444], [89.28347222222223, 24.379027777777775]], [[89.64515502170597, 24.711456793382613], [89.64652777777778, 24.705416666666665], [89.65152777777779, 24.707083333333333], [89.64515502170597, 24.711456793382613]], [[89.8026388888889, 24.136805555555554], [89.80819444444445, 24.132638888888888], [89.80430555555556, 24.13847222222222], [89.79875, 24.135416666666664], [89.8026388888889, 24.136805555555554]], [[89.8001388888889, 24.116805555555555], [89.80430555555556, 24.122916666666665], [89.80097222222223, 24.12013888888889], [89.79847222222223, 24.12625], [89.80541666666667, 24.12736111111111], [89.79930555555556, 24.131527777777777], [89.79319444444445, 24.115416666666665], [89.8001388888889, 24.116805555555555]], [[89.80236111111111, 24.080694444444443], [89.79847222222223, 24.08458333333333], [89.79680555555557, 24.07708333333333], [89.80236111111111, 24.080694444444443]], [[89.79263888888889, 24.137638888888887], [89.8001388888889, 24.146805555555556], [89.78875000000001, 24.137361111111108], [89.79152777777779, 24.13375], [89.79263888888889, 24.137638888888887]], [[89.78819444444444, 24.685416666666665], [89.79097222222222, 24.68208333333333], [89.78541666666666, 24.690416666666664], [89.78819444444444, 24.685416666666665]], [[89.76930555555556, 24.58986111111111], [89.77652777777779, 24.57097222222222], [89.77180555555556, 24.596805555555555], [89.76652777777778, 24.586527777777775], [89.76930555555556, 24.58986111111111]], [[89.77208333333334, 24.70847222222222], [89.7701388888889, 24.713194444444444], [89.76708333333333, 24.70875], [89.77208333333334, 24.70847222222222]], [[89.76569444444445, 24.72208333333333], [89.76458333333333, 24.71736111111111], [89.76986111111111, 24.730694444444442], [89.76569444444445, 24.72208333333333]], [[89.76291666666667, 24.577916666666667], [89.76097222222222, 24.57097222222222], [89.76902777777778, 24.58513888888889], [89.76291666666667, 24.577916666666667]], [[89.75763888888889, 24.61375], [89.76180555555555, 24.614305555555553], [89.75819444444444, 24.620694444444442], [89.7526388888889, 24.617638888888887], [89.75763888888889, 24.61375]], [[89.76097222222222, 24.735138888888887], [89.75763888888889, 24.73763888888889], [89.76013888888889, 24.729305555555555], [89.76097222222222, 24.735138888888887]], [[89.75319444444445, 24.62236111111111], [89.74402777777777, 24.615416666666665], [89.75930555555556, 24.622638888888886], [89.75319444444445, 24.62236111111111]], [[89.75180555555556, 24.70236111111111], [89.75680555555556, 24.697916666666664], [89.75680555555556, 24.70736111111111], [89.74763888888889, 24.716527777777777], [89.75680555555556, 24.711805555555554], [89.74291666666667, 24.722916666666666], [89.75180555555556, 24.70236111111111]], [[89.75652777777778, 24.588472222222222], [89.75430555555556, 24.59708333333333], [89.75625000000001, 24.583194444444445], [89.75652777777778, 24.588472222222222]], [[89.75208333333333, 24.656527777777775], [89.75625000000001, 24.650694444444444], [89.75208333333333, 24.661805555555553], [89.75208333333333, 24.656527777777775]], [[89.75236111111111, 24.64875], [89.7526388888889, 24.64236111111111], [89.75402777777778, 24.64875], [89.74680555555555, 24.651805555555555], [89.74875, 24.64597222222222], [89.75236111111111, 24.64875]], [[89.73736111111111, 24.391805555555553], [89.75041666666667, 24.387916666666666], [89.75375, 24.39875], [89.74902777777778, 24.409305555555555], [89.74263888888889, 24.406805555555554], [89.74430555555556, 24.39986111111111], [89.70236111111112, 24.393194444444443], [89.70347222222223, 24.387638888888887], [89.70819444444444, 24.39125], [89.70597222222223, 24.386527777777776], [89.71402777777779, 24.388749999999998], [89.71013888888889, 24.368194444444445], [89.7201388888889, 24.37097222222222], [89.70819444444444, 24.352083333333333], [89.71347222222222, 24.358194444444443], [89.71541666666667, 24.35125], [89.72180555555556, 24.362916666666667], [89.72180555555556, 24.38208333333333], [89.71513888888889, 24.391805555555553], [89.73736111111111, 24.391805555555553]], [[89.7351388888889, 24.681527777777777], [89.73708333333333, 24.67458333333333], [89.73625, 24.684583333333332], [89.74150495750708, 24.680579556185084], [89.73625, 24.687916666666666], [89.7351388888889, 24.681527777777777]], [[89.7421496481256, 24.679679422113946], [89.74597222222222, 24.653194444444445], [89.75097222222223, 24.66736111111111], [89.7421496481256, 24.679679422113946]], [[89.74486111111112, 24.389305555555556], [89.74236111111111, 24.384027777777778], [89.74763888888889, 24.384027777777778], [89.74486111111112, 24.389305555555556]], [[89.74069444444444, 24.638194444444444], [89.73986111111111, 24.630694444444444], [89.74708333333334, 24.650138888888886], [89.74069444444444, 24.638194444444444]], [[89.71597222222222, 24.68847222222222], [89.71319444444444, 24.676805555555553], [89.71097222222222, 24.689305555555553], [89.70791666666666, 24.67513888888889], [89.71347222222222, 24.672638888888887], [89.70986111111111, 24.679305555555555], [89.71513888888889, 24.67347222222222], [89.72097222222223, 24.680694444444445], [89.71597222222222, 24.672083333333333], [89.72763888888889, 24.65458333333333], [89.71625, 24.636805555555554], [89.72041666666667, 24.630694444444444], [89.72458333333334, 24.64486111111111], [89.73236111111112, 24.627916666666664], [89.72680555555556, 24.643749999999997], [89.73819444444445, 24.638749999999998], [89.7376388888889, 24.64847222222222], [89.74375, 24.650416666666665], [89.73041666666667, 24.655694444444443], [89.73680555555556, 24.64708333333333], [89.72597222222223, 24.64763888888889], [89.73069444444445, 24.650416666666665], [89.72958333333334, 24.666249999999998], [89.72208333333333, 24.685416666666665], [89.73236111111112, 24.68347222222222], [89.73486111111112, 24.690416666666664], [89.72375000000001, 24.694305555555555], [89.72597222222223, 24.689305555555553], [89.72041666666667, 24.687916666666666], [89.72291666666666, 24.694305555555555], [89.71625, 24.695416666666667], [89.71597222222222, 24.68847222222222]], [[89.73263888888889, 24.661805555555553], [89.73458333333333, 24.65625], [89.73652777777778, 24.665694444444444], [89.74208333333334, 24.66097222222222], [89.74041666666668, 24.672638888888887], [89.73263888888889, 24.661805555555553]], [[89.73085799001248, 24.6752131710362], [89.7351388888889, 24.670694444444443], [89.73236111111112, 24.682916666666664], [89.73085799001248, 24.6752131710362]], [[89.70708333333333, 24.66736111111111], [89.72486111111111, 24.656527777777775], [89.70930555555556, 24.66986111111111], [89.71347222222222, 24.671805555555554], [89.70847222222223, 24.67347222222222], [89.70708333333333, 24.66736111111111]], [[89.71986111111111, 24.761805555555554], [89.71597222222222, 24.764027777777777], [89.72402777777778, 24.759027777777778], [89.71986111111111, 24.761805555555554]], [[89.7201388888889, 24.747638888888886], [89.7226388888889, 24.742916666666666], [89.72208333333333, 24.75208333333333], [89.7201388888889, 24.747638888888886]], [[89.71188592780598, 24.75408276931754], [89.71708333333333, 24.757638888888888], [89.72069444444445, 24.75208333333333], [89.71875, 24.759027777777778], [89.70875000000001, 24.768194444444443], [89.71188592780598, 24.75408276931754]], [[89.66553551570755, 24.45316154665925], [89.66291666666667, 24.455416666666665], [89.66291666666667, 24.44875], [89.65486111111112, 24.44625], [89.66375000000001, 24.44763888888889], [89.66375000000001, 24.44097222222222], [89.67069444444445, 24.440416666666664], [89.66625, 24.44708333333333], [89.67291666666667, 24.446527777777778], [89.68708333333333, 24.45208333333333], [89.68625, 24.444027777777777], [89.69152777777778, 24.449027777777776], [89.68652777777778, 24.443749999999998], [89.69319444444444, 24.442638888888887], [89.68319444444445, 24.440416666666664], [89.67791666666668, 24.427638888888886], [89.68180555555556, 24.42513888888889], [89.68652777777778, 24.43263888888889], [89.68263888888889, 24.424027777777777], [89.68513888888889, 24.427916666666665], [89.68680555555555, 24.42375], [89.6926388888889, 24.439027777777778], [89.69708333333334, 24.43208333333333], [89.68875, 24.42236111111111], [89.69625, 24.416805555555555], [89.70180555555555, 24.434583333333332], [89.70263888888888, 24.421527777777776], [89.71142111111111, 24.427016666666667], [89.70819444444444, 24.43875], [89.71180555555556, 24.43125], [89.71541666666667, 24.451527777777777], [89.70847222222223, 24.440416666666664], [89.72069444444445, 24.464027777777776], [89.71347222222222, 24.47958333333333], [89.69236111111111, 24.485416666666666], [89.68847222222223, 24.479305555555555], [89.6926388888889, 24.482083333333332], [89.70236111111112, 24.469027777777775], [89.69986111111112, 24.475416666666664], [89.70486111111111, 24.477083333333333], [89.70875000000001, 24.46763888888889], [89.69513888888889, 24.469027777777775], [89.69569444444444, 24.463749999999997], [89.6776388888889, 24.470416666666665], [89.68791666666667, 24.462638888888886], [89.68125, 24.457638888888887], [89.68958333333333, 24.459027777777777], [89.68791666666667, 24.452638888888888], [89.67291666666667, 24.446805555555553], [89.66577136752137, 24.45295845204178], [89.67236111111112, 24.451249999999998], [89.67625, 24.452638888888888], [89.66553551570755, 24.45316154665925]], [[89.71041666666667, 24.769583333333333], [89.71875, 24.76736111111111], [89.70708333333333, 24.775138888888886], [89.71041666666667, 24.769583333333333]], [[89.71347222222222, 24.65513888888889], [89.71513888888889, 24.642638888888886], [89.71402777777779, 24.656805555555554], [89.70791666666666, 24.66069444444444], [89.71347222222222, 24.65513888888889]], [[89.70860211068756, 24.31939626570662], [89.71402777777779, 24.321527777777778], [89.71236111111111, 24.327916666666667], [89.70860211068756, 24.31939626570662]], [[89.69430555555556, 24.31625], [89.68486111111112, 24.312638888888888], [89.68958333333333, 24.302638888888886], [89.67791666666668, 24.30125], [89.68263888888889, 24.296805555555554], [89.67375, 24.28875], [89.68236111111112, 24.284027777777776], [89.6776388888889, 24.279027777777777], [89.68986111111111, 24.282916666666665], [89.69069444444445, 24.27347222222222], [89.6926388888889, 24.28708333333333], [89.70847222222223, 24.292638888888888], [89.70208333333333, 24.30486111111111], [89.70902777777778, 24.30847222222222], [89.69569444444444, 24.303749999999997], [89.68791666666667, 24.30847222222222], [89.69819444444445, 24.315416666666664], [89.69347222222223, 24.32069444444444], [89.69430555555556, 24.31625]], [[89.70458333333333, 24.756805555555555], [89.70819444444444, 24.768472222222222], [89.70097222222222, 24.77375], [89.70458333333333, 24.756805555555555]], [[89.7076388888889, 24.41069444444444], [89.6973611111111, 24.40986111111111], [89.70569444444445, 24.400694444444444], [89.7076388888889, 24.41069444444444]], [[89.69986111111112, 24.229305555555555], [89.70236111111112, 24.220972222222223], [89.70680555555556, 24.229305555555555], [89.69902777777779, 24.233472222222222], [89.69986111111112, 24.229305555555555]], [[89.69430555555556, 24.35736111111111], [89.69708333333334, 24.35347222222222], [89.70652777777778, 24.36125], [89.69430555555556, 24.35736111111111]], [[89.69958333333334, 24.362916666666667], [89.70347222222223, 24.366527777777776], [89.69375000000001, 24.365694444444443], [89.69958333333334, 24.362916666666667]], [[89.68430555555555, 24.25236111111111], [89.68791666666667, 24.242083333333333], [89.70152777777778, 24.242083333333333], [89.69236111111111, 24.255138888888887], [89.6973611111111, 24.262361111111108], [89.68819444444445, 24.25347222222222], [89.69486111111111, 24.243194444444445], [89.68430555555555, 24.25236111111111]], [[89.69569444444444, 24.221805555555555], [89.69069444444445, 24.219027777777775], [89.69402777777778, 24.214305555555555], [89.70069444444445, 24.22375], [89.6973611111111, 24.227361111111108], [89.69569444444444, 24.221805555555555]], [[89.68847222222223, 24.379305555555554], [89.69347222222223, 24.38458333333333], [89.68680555555555, 24.38513888888889], [89.68847222222223, 24.379305555555554]], [[89.69319444444444, 24.398194444444442], [89.69319444444444, 24.406805555555554], [89.68708333333333, 24.395416666666666], [89.69319444444444, 24.398194444444442]], [[89.69180555555556, 24.330138888888886], [89.68458333333334, 24.330694444444443], [89.68180555555556, 24.319305555555555], [89.69180555555556, 24.330138888888886]], [[89.68569444444445, 24.371527777777775], [89.69097222222223, 24.371805555555554], [89.68319444444445, 24.376527777777778], [89.68569444444445, 24.371527777777775]], [[89.67338679003588, 24.396296017106142], [89.68541666666667, 24.40597222222222], [89.68986111111111, 24.40625], [89.68736111111112, 24.41125], [89.67236111111112, 24.396527777777777], [89.66569444444444, 24.39736111111111], [89.67338679003588, 24.396296017106142]], [[89.68236111111112, 24.492638888888887], [89.6876388888889, 24.492083333333333], [89.68597222222222, 24.497916666666665], [89.68236111111112, 24.492638888888887]], [[89.68486111111112, 24.52208333333333], [89.68375, 24.512638888888887], [89.68708333333333, 24.525416666666665], [89.68486111111112, 24.52208333333333]], [[89.67541666666666, 24.538194444444443], [89.66986111111112, 24.534305555555555], [89.67875000000001, 24.535138888888888], [89.67986111111111, 24.519583333333333], [89.68625, 24.526805555555555], [89.67958333333334, 24.52486111111111], [89.68236111111112, 24.536805555555553], [89.67652777777778, 24.546249999999997], [89.67541666666666, 24.538194444444443]], [[89.67402777777778, 24.267916666666665], [89.66986111111112, 24.262083333333333], [89.68041666666667, 24.265694444444442], [89.68041666666667, 24.256249999999998], [89.68625, 24.27208333333333], [89.67402777777778, 24.267916666666665]], [[89.67930555555556, 24.50347222222222], [89.68125, 24.496805555555554], [89.68402777777779, 24.50263888888889], [89.67930555555556, 24.50347222222222]], [[89.68319444444445, 24.50875], [89.68180555555556, 24.517083333333332], [89.67875000000001, 24.507638888888888], [89.68319444444445, 24.50875]], [[89.67875000000001, 24.416805555555555], [89.68236111111112, 24.414305555555554], [89.68263888888889, 24.423194444444444], [89.67875000000001, 24.416805555555555]], [[89.67902777777778, 24.732916666666664], [89.68069444444444, 24.72458333333333], [89.68208333333334, 24.736527777777777], [89.67902777777778, 24.732916666666664]], [[89.64319444444445, 24.36097222222222], [89.65652777777778, 24.356805555555553], [89.65875, 24.36125], [89.6607078313253, 24.360256024096383], [89.66041666666666, 24.36375], [89.65125, 24.365416666666665], [89.64319444444445, 24.36097222222222]], [[89.66467126739299, 24.358243818092788], [89.67680555555556, 24.352083333333333], [89.67986111111111, 24.356805555555553], [89.6751388888889, 24.361527777777777], [89.66467126739299, 24.358243818092788]], [[89.67180555555557, 24.245416666666664], [89.67486111111111, 24.240416666666665], [89.67930555555556, 24.248749999999998], [89.67180555555557, 24.245416666666664]], [[89.67620596868885, 24.471903402913675], [89.67875000000001, 24.471805555555555], [89.67375, 24.477361111111108], [89.67620596868885, 24.471903402913675]], [[89.66486111111111, 24.42013888888889], [89.67208333333333, 24.418194444444442], [89.67155873015874, 24.42396507936508], [89.66125000000001, 24.420972222222222], [89.66291666666667, 24.41597222222222], [89.66486111111111, 24.42013888888889]], [[89.67458333333333, 24.50236111111111], [89.66819444444445, 24.49513888888889], [89.67152777777778, 24.490416666666665], [89.67791666666668, 24.50263888888889], [89.67041666666667, 24.506527777777777], [89.67458333333333, 24.50236111111111]], [[89.66541666666667, 24.38486111111111], [89.67597222222223, 24.385694444444443], [89.65541666666667, 24.389305555555556], [89.66541666666667, 24.38486111111111]], [[89.6576388888889, 24.318194444444444], [89.67208333333333, 24.315694444444443], [89.67541666666666, 24.328194444444442], [89.66458333333334, 24.31736111111111], [89.65625, 24.32347222222222], [89.6576388888889, 24.318194444444444]], [[89.67097222222222, 24.369027777777777], [89.67430555555556, 24.372083333333332], [89.66736111111112, 24.37097222222222], [89.67097222222222, 24.369027777777777]], [[89.67319444444445, 24.409027777777776], [89.67291666666667, 24.414027777777775], [89.67125, 24.405416666666664], [89.67319444444445, 24.409027777777776]], [[89.66902777777779, 24.247083333333332], [89.67291666666667, 24.249027777777776], [89.66652777777779, 24.25875], [89.66347222222223, 24.24513888888889], [89.66902777777779, 24.247083333333332]], [[89.66930555555555, 24.483749999999997], [89.67236111111112, 24.479305555555555], [89.66680555555556, 24.490694444444443], [89.66930555555555, 24.483749999999997]], [[89.67208333333333, 24.30597222222222], [89.66347222222223, 24.30097222222222], [89.67180555555557, 24.29958333333333], [89.67208333333333, 24.30597222222222]], [[89.66208333333334, 24.544305555555553], [89.66763888888889, 24.54375], [89.65986111111111, 24.547916666666666], [89.66208333333334, 24.544305555555553]], [[89.66208333333334, 24.554027777777776], [89.66680555555556, 24.552083333333332], [89.66541666666667, 24.55736111111111], [89.66208333333334, 24.554027777777776]], [[89.66097222222223, 24.432916666666664], [89.66319444444444, 24.427083333333332], [89.66652777777779, 24.435694444444444], [89.66097222222223, 24.432916666666664]], [[89.66097222222223, 24.273194444444442], [89.66569444444444, 24.275416666666665], [89.66041666666666, 24.28125], [89.66097222222223, 24.273194444444442]], [[89.65902777777778, 24.68125], [89.65513888888889, 24.68875], [89.66347222222223, 24.686527777777776], [89.65263888888889, 24.693194444444444], [89.65902777777778, 24.68125]], [[89.66319444444444, 24.520138888888887], [89.6576388888889, 24.52097222222222], [89.65902777777778, 24.515416666666667], [89.66319444444444, 24.520138888888887]], [[89.65940432098766, 24.57678703703703], [89.65541666666667, 24.579305555555553], [89.64569444444444, 24.572916666666664], [89.65402777777778, 24.576527777777777], [89.65708333333333, 24.564027777777778], [89.65902777777778, 24.574861111111108], [89.66319444444444, 24.565416666666664], [89.65940432098766, 24.57678703703703]], [[89.66291666666667, 24.404305555555553], [89.66041666666666, 24.41069444444444], [89.65847222222223, 24.400972222222222], [89.66291666666667, 24.404305555555553]], [[89.65708333333333, 24.299027777777777], [89.66069444444445, 24.292916666666667], [89.66180555555556, 24.29958333333333], [89.65708333333333, 24.299027777777777]], [[89.64986111111111, 24.241527777777776], [89.65291666666667, 24.23597222222222], [89.66069444444445, 24.24625], [89.64986111111111, 24.241527777777776]], [[89.6276388888889, 24.657083333333333], [89.64569444444444, 24.624583333333334], [89.64680555555556, 24.63625], [89.64496444876303, 24.639291828613732], [89.6576388888889, 24.639027777777777], [89.65430555555555, 24.630416666666665], [89.6601388888889, 24.62708333333333], [89.65569444444445, 24.662916666666664], [89.63902777777778, 24.67347222222222], [89.63458333333334, 24.666805555555555], [89.63791666666667, 24.65236111111111], [89.64013888888888, 24.66736111111111], [89.64597222222223, 24.664583333333333], [89.64069444444445, 24.657916666666665], [89.64375, 24.650972222222222], [89.64791666666667, 24.650416666666665], [89.64652777777778, 24.656805555555554], [89.65402777777778, 24.654305555555553], [89.64680555555556, 24.641527777777778], [89.64402777777778, 24.64986111111111], [89.63977777777778, 24.647861111111112], [89.63402777777777, 24.65736111111111], [89.6276388888889, 24.657083333333333]], [[89.64847222222222, 24.607083333333332], [89.65819444444445, 24.615416666666665], [89.65362636003957, 24.628314787339256], [89.65291666666667, 24.616249999999997], [89.64680555555556, 24.61875], [89.65208333333334, 24.61486111111111], [89.64847222222222, 24.607083333333332]], [[89.65364879955332, 24.62869625907314], [89.65986111111111, 24.626805555555553], [89.65375, 24.630416666666665], [89.65364879955332, 24.62869625907314]], [[89.65708333333333, 24.41875], [89.64069444444445, 24.416527777777777], [89.64736111111111, 24.416249999999998], [89.65097222222222, 24.407638888888886], [89.65930555555556, 24.41236111111111], [89.65708333333333, 24.41875]], [[89.61030235482396, 24.538916895290352], [89.60763888888889, 24.52986111111111], [89.61180555555556, 24.53763888888889], [89.6151388888889, 24.534027777777776], [89.60875, 24.520138888888887], [89.61680555555556, 24.53458333333333], [89.61819444444444, 24.530416666666664], [89.62824761453125, 24.537559708570445], [89.63375, 24.533472222222223], [89.63291666666667, 24.540694444444444], [89.65652777777778, 24.541249999999998], [89.64930555555556, 24.524305555555554], [89.65902777777778, 24.540416666666665], [89.63968255915385, 24.54825932286555], [89.64680555555556, 24.552916666666665], [89.65513888888889, 24.560138888888886], [89.64569444444444, 24.559583333333332], [89.6396296546953, 24.54828077061902], [89.63847222222222, 24.54875], [89.62958333333333, 24.542916666666667], [89.63097222222223, 24.54736111111111], [89.62430555555555, 24.547916666666666], [89.61541666666668, 24.537916666666664], [89.61041666666667, 24.537916666666664], [89.61030235482396, 24.538916895290352]], [[89.65541666666667, 24.429583333333333], [89.65541666666667, 24.423194444444444], [89.65875, 24.436805555555555], [89.65541666666667, 24.429583333333333]], [[89.64458333333333, 24.49375], [89.65430555555555, 24.494305555555552], [89.65875, 24.48763888888889], [89.65180555555555, 24.498194444444444], [89.63958333333333, 24.49625], [89.63625, 24.48875], [89.64458333333333, 24.49375]], [[89.65236111111112, 24.587638888888886], [89.6576388888889, 24.582638888888887], [89.65680555555556, 24.589027777777776], [89.65236111111112, 24.587638888888886]], [[89.65513888888889, 24.47513888888889], [89.64958333333334, 24.472916666666666], [89.65652777777778, 24.471249999999998], [89.65513888888889, 24.47513888888889]], [[89.65152777777779, 24.202916666666667], [89.65652777777778, 24.195138888888888], [89.65236111111112, 24.208194444444445], [89.65152777777779, 24.202916666666667]], [[89.65569444444445, 24.481805555555553], [89.64791666666667, 24.484305555555554], [89.64430555555556, 24.477916666666665], [89.65569444444445, 24.481805555555553]], [[89.64152777777778, 24.376527777777778], [89.63847222222222, 24.371805555555554], [89.64569444444444, 24.37013888888889], [89.64680555555556, 24.384027777777778], [89.65486111111112, 24.388749999999998], [89.64152777777778, 24.382916666666667], [89.64152777777778, 24.376527777777778]], [[89.65236111111112, 24.505694444444444], [89.65069444444444, 24.512638888888887], [89.64013888888888, 24.51458333333333], [89.64208333333333, 24.505694444444444], [89.64763888888889, 24.50875], [89.64597222222223, 24.50263888888889], [89.64930555555556, 24.51125], [89.65236111111112, 24.505694444444444]], [[89.64986111111111, 24.32069444444444], [89.65180555555555, 24.324861111111108], [89.64763888888889, 24.31625], [89.64986111111111, 24.32069444444444]], [[89.65041666666667, 24.567083333333333], [89.64291666666666, 24.57069444444444], [89.64597222222223, 24.56375], [89.65041666666667, 24.567083333333333]], [[89.64291666666666, 24.443749999999998], [89.64375, 24.43847222222222], [89.64986111111111, 24.44847222222222], [89.63958333333333, 24.447916666666664], [89.64291666666666, 24.443749999999998]], [[89.64430555555556, 24.265694444444442], [89.64875, 24.264027777777777], [89.64736111111111, 24.26986111111111], [89.64430555555556, 24.265694444444442]], [[89.64819444444444, 24.464583333333334], [89.64819444444444, 24.46986111111111], [89.64236111111111, 24.46875], [89.64819444444444, 24.464583333333334]], [[89.63270459976106, 24.597579151732376], [89.63791666666667, 24.584027777777777], [89.64319444444445, 24.590138888888887], [89.63763888888889, 24.580694444444443], [89.63791666666667, 24.580694444444443], [89.63708333333334, 24.580416666666665], [89.64097222222223, 24.579027777777778], [89.64328703703704, 24.580694444444443], [89.64375, 24.580694444444443], [89.6437809214595, 24.581050041228604], [89.64791666666667, 24.584027777777777], [89.64392412935324, 24.58269693200663], [89.64486111111111, 24.59347222222222], [89.63270459976106, 24.597579151732376]], [[89.63847222222222, 24.599305555555553], [89.64736111111111, 24.59486111111111], [89.64541666666666, 24.603749999999998], [89.63847222222222, 24.599305555555553]], [[89.64097222222223, 24.346527777777776], [89.64430555555556, 24.354027777777777], [89.63736111111112, 24.358194444444443], [89.64097222222223, 24.346527777777776]], [[89.64347222222223, 24.330694444444443], [89.63958333333333, 24.334305555555556], [89.63875, 24.327916666666667], [89.64347222222223, 24.330694444444443]], [[89.64152777777778, 24.40597222222222], [89.6426388888889, 24.411805555555553], [89.63652777777779, 24.405694444444443], [89.64152777777778, 24.40597222222222]], [[89.63430555555556, 24.565416666666664], [89.64208333333333, 24.56597222222222], [89.62013888888889, 24.568749999999998], [89.61680555555556, 24.56319444444444], [89.63430555555556, 24.565416666666664]], [[89.63708333333334, 24.53236111111111], [89.64152777777778, 24.531805555555554], [89.62402777777778, 24.534305555555555], [89.6301388888889, 24.526805555555555], [89.63708333333334, 24.53236111111111]], [[89.6348611111111, 24.44625], [89.63041666666668, 24.440694444444443], [89.63736111111112, 24.440694444444443], [89.63958333333333, 24.44763888888889], [89.6348611111111, 24.44625]], [[89.63430555555556, 24.37236111111111], [89.63875, 24.36347222222222], [89.63597222222222, 24.379027777777775], [89.63430555555556, 24.37236111111111]], [[89.62902777777778, 24.49375], [89.63847222222222, 24.497638888888886], [89.63097222222223, 24.499027777777776], [89.62902777777778, 24.49375]], [[89.63513888888889, 24.61875], [89.63402777777777, 24.624027777777776], [89.63097222222223, 24.600416666666664], [89.63513888888889, 24.61875]], [[89.63430555555556, 24.419027777777778], [89.63402777777777, 24.425416666666667], [89.6301388888889, 24.420416666666664], [89.63430555555556, 24.419027777777778]], [[89.63430555555556, 24.45958333333333], [89.63069444444444, 24.462916666666665], [89.62930555555556, 24.457916666666666], [89.63430555555556, 24.45958333333333]], [[89.63291666666667, 24.64097222222222], [89.63208333333334, 24.645416666666666], [89.62263888888889, 24.643194444444443], [89.63291666666667, 24.64097222222222]], [[89.62791666666666, 24.31736111111111], [89.63208333333334, 24.324861111111108], [89.62486111111112, 24.32875], [89.62791666666666, 24.31736111111111]], [[89.62708333333333, 24.40347222222222], [89.63180555555556, 24.407916666666665], [89.62375, 24.40958333333333], [89.62708333333333, 24.40347222222222]], [[89.63125000000001, 24.39236111111111], [89.62708333333333, 24.39736111111111], [89.62208333333334, 24.387083333333333], [89.62708333333333, 24.38486111111111], [89.63125000000001, 24.39236111111111]], [[89.62458333333333, 24.479305555555555], [89.62736111111111, 24.471805555555555], [89.62486111111112, 24.48125], [89.6301388888889, 24.483749999999997], [89.61930555555556, 24.48263888888889], [89.62347222222222, 24.475416666666664], [89.62458333333333, 24.479305555555555]], [[89.62958333333333, 24.36097222222222], [89.62458333333333, 24.36486111111111], [89.62569444444445, 24.358472222222222], [89.62958333333333, 24.36097222222222]], [[89.62902777777778, 24.21625], [89.62930555555556, 24.22236111111111], [89.62458333333333, 24.221249999999998], [89.62902777777778, 24.21625]], [[89.62486111111112, 24.451805555555556], [89.62125, 24.447916666666664], [89.62930555555556, 24.451527777777777], [89.62486111111112, 24.451805555555556]], [[89.6126388888889, 24.607916666666664], [89.61069444444445, 24.581249999999997], [89.61819444444444, 24.594305555555554], [89.61458333333334, 24.59958333333333], [89.62319444444445, 24.599027777777778], [89.62236111111112, 24.605416666666667], [89.62902777777778, 24.60125], [89.62263888888889, 24.60736111111111], [89.6151388888889, 24.60125], [89.61847222222222, 24.607916666666664], [89.6126388888889, 24.607916666666664]], [[89.62236111111112, 24.520138888888887], [89.62680555555556, 24.527083333333334], [89.62236111111112, 24.52847222222222], [89.61847222222222, 24.507638888888888], [89.6251388888889, 24.514305555555556], [89.62236111111112, 24.520138888888887]], [[89.62486111111112, 24.345694444444444], [89.62569444444445, 24.35597222222222], [89.62069444444445, 24.345972222222223], [89.62486111111112, 24.345694444444444]], [[89.62152777777779, 24.44347222222222], [89.62541666666667, 24.43819444444444], [89.62263888888889, 24.445416666666667], [89.61430555555556, 24.43819444444444], [89.62152777777779, 24.44347222222222]], [[89.61763888888889, 24.65958333333333], [89.62402777777778, 24.651527777777776], [89.62319444444445, 24.660138888888888], [89.61180555555556, 24.661805555555553], [89.61763888888889, 24.65958333333333]], [[89.61986111111112, 24.503194444444443], [89.62236111111112, 24.499027777777776], [89.62069444444445, 24.505416666666665], [89.61569444444444, 24.500138888888888], [89.61986111111112, 24.503194444444443]], [[89.61736111111111, 24.637638888888887], [89.62180555555555, 24.645694444444445], [89.61291666666666, 24.63847222222222], [89.61736111111111, 24.637638888888887]], [[89.62069444444445, 24.32736111111111], [89.61486111111111, 24.327638888888888], [89.62013888888889, 24.32069444444444], [89.62069444444445, 24.32736111111111]], [[89.61097222222223, 24.57375], [89.6126388888889, 24.569305555555555], [89.61875, 24.574583333333333], [89.61541666666668, 24.580972222222222], [89.61097222222223, 24.57375]], [[89.61791666666667, 24.63097222222222], [89.61319444444445, 24.637638888888887], [89.61069444444445, 24.631249999999998], [89.61791666666667, 24.63097222222222]], [[89.61152777777778, 24.430138888888887], [89.61597222222223, 24.43208333333333], [89.61236111111111, 24.436805555555555], [89.60208333333334, 24.43097222222222], [89.61152777777778, 24.430138888888887]], [[89.60819444444445, 24.483472222222222], [89.60875, 24.478749999999998], [89.61486111111111, 24.480694444444442], [89.61125, 24.48875], [89.60819444444445, 24.483472222222222]], [[89.6126388888889, 24.62013888888889], [89.60902777777778, 24.624305555555555], [89.61458333333334, 24.615416666666665], [89.6126388888889, 24.62013888888889]], [[89.60430555555556, 24.655694444444443], [89.61347222222223, 24.647916666666664], [89.6101388888889, 24.657083333333333], [89.60430555555556, 24.655694444444443]], [[89.60986111111112, 24.50986111111111], [89.61319444444445, 24.51347222222222], [89.60652777777779, 24.51597222222222], [89.60986111111112, 24.50986111111111]], [[89.60847222222222, 24.680416666666666], [89.60263888888889, 24.680416666666666], [89.60902777777778, 24.676527777777775], [89.60597222222222, 24.670972222222222], [89.61319444444445, 24.67375], [89.60847222222222, 24.680416666666666]], [[89.60708333333334, 24.50125], [89.60847222222222, 24.494027777777777], [89.61152777777778, 24.506805555555555], [89.60708333333334, 24.50125]], [[89.60486111111112, 24.59847222222222], [89.61069444444445, 24.60125], [89.60402777777779, 24.605694444444442], [89.60486111111112, 24.59847222222222]], [[89.60430555555556, 24.349027777777778], [89.60986111111112, 24.35097222222222], [89.59652777777778, 24.349305555555553], [89.60430555555556, 24.349027777777778]], [[89.60875, 24.399027777777775], [89.60402777777779, 24.403194444444445], [89.60458333333334, 24.395694444444445], [89.60875, 24.399027777777775]], [[89.60569444444445, 24.305694444444445], [89.60152777777778, 24.303472222222222], [89.60819444444445, 24.30125], [89.60569444444445, 24.305694444444445]], [[89.60708333333334, 24.330972222222222], [89.60347222222222, 24.321805555555553], [89.60819444444445, 24.321805555555553], [89.60708333333334, 24.330972222222222]], [[89.60680555555555, 24.365972222222222], [89.60763888888889, 24.370416666666664], [89.60013888888889, 24.366805555555555], [89.60680555555555, 24.365972222222222]], [[89.60763888888889, 24.528194444444445], [89.60347222222222, 24.53125], [89.60375, 24.52347222222222], [89.60763888888889, 24.528194444444445]], [[89.59902777777778, 24.618194444444445], [89.60708333333334, 24.61875], [89.59402777777778, 24.622083333333332], [89.59569444444445, 24.615694444444443], [89.59902777777778, 24.618194444444445]], [[89.60041666666667, 24.660138888888888], [89.59569444444445, 24.657916666666665], [89.60652777777779, 24.66236111111111], [89.59291666666667, 24.660138888888888], [89.60041666666667, 24.660138888888888]], [[89.59569444444445, 24.178194444444443], [89.59430555555556, 24.172916666666666], [89.60208333333334, 24.175416666666667], [89.60402777777779, 24.17013888888889], [89.60430555555556, 24.17986111111111], [89.59569444444445, 24.178194444444443]], [[89.59680555555556, 24.29375], [89.5951388888889, 24.286805555555553], [89.60291666666667, 24.28625], [89.59736111111111, 24.294027777777778], [89.60180555555556, 24.294305555555553], [89.60041666666667, 24.303749999999997], [89.59680555555556, 24.29375]], [[89.59347222222223, 24.519027777777776], [89.60236111111111, 24.518472222222222], [89.60069444444444, 24.532083333333333], [89.60125000000001, 24.52375], [89.58680555555556, 24.517916666666665], [89.59347222222223, 24.519027777777776]], [[89.5976388888889, 24.427916666666665], [89.59375, 24.422916666666666], [89.60180555555556, 24.43097222222222], [89.5976388888889, 24.427916666666665]], [[89.60069444444444, 24.651249999999997], [89.58708333333334, 24.643749999999997], [89.59902777777778, 24.643749999999997], [89.60069444444444, 24.651249999999997]], [[89.59458333333333, 24.46125], [89.60013888888889, 24.45986111111111], [89.5976388888889, 24.465416666666666], [89.59458333333333, 24.46125]], [[89.59708333333333, 24.402916666666666], [89.59541666666667, 24.411805555555553], [89.59597222222223, 24.39847222222222], [89.59708333333333, 24.402916666666666]], [[89.58763888888889, 24.544583333333332], [89.59597222222223, 24.540694444444444], [89.59263888888889, 24.54847222222222], [89.58763888888889, 24.544583333333332]], [[89.58708333333334, 24.36986111111111], [89.59152777777778, 24.379583333333333], [89.57763888888888, 24.376805555555553], [89.58708333333334, 24.36986111111111]], [[89.58485296115187, 24.263655596305348], [89.59152777777778, 24.265138888888888], [89.58597222222222, 24.267083333333332], [89.58485296115187, 24.263655596305348]], [[89.58569444444444, 24.53625], [89.59041666666667, 24.532638888888886], [89.58486111111111, 24.541805555555555], [89.58569444444444, 24.53625]], [[89.55791666666667, 24.303194444444443], [89.55402777777778, 24.299027777777777], [89.56180555555555, 24.29847222222222], [89.55986111111112, 24.304305555555555], [89.5723611111111, 24.30847222222222], [89.58208333333333, 24.303749999999997], [89.57986111111111, 24.296249999999997], [89.58597222222222, 24.30236111111111], [89.57097222222222, 24.311805555555555], [89.57180555555556, 24.326527777777777], [89.56652777777778, 24.320416666666667], [89.56986111111111, 24.314027777777778], [89.56152777777778, 24.306805555555552], [89.55652777777777, 24.310416666666665], [89.55791666666667, 24.303194444444443]], [[89.58458333333334, 24.435138888888886], [89.57875, 24.427638888888886], [89.58569444444444, 24.428472222222222], [89.58458333333334, 24.435138888888886]], [[89.57680555555555, 24.39097222222222], [89.58513888888889, 24.386805555555554], [89.5826388888889, 24.393472222222222], [89.57680555555555, 24.39097222222222]], [[89.58041666666666, 24.506249999999998], [89.5826388888889, 24.502916666666664], [89.58152777777778, 24.51013888888889], [89.58041666666666, 24.506249999999998]], [[89.56680555555556, 24.635416666666664], [89.56041666666667, 24.642638888888886], [89.56708333333333, 24.62763888888889], [89.58152777777778, 24.626527777777778], [89.56680555555556, 24.635416666666664]], [[89.57930555555556, 24.247916666666665], [89.57958333333333, 24.241249999999997], [89.57958333333333, 24.25263888888889], [89.57930555555556, 24.247916666666665]], [[89.57791666666667, 24.35013888888889], [89.57902777777778, 24.35597222222222], [89.57319444444445, 24.355138888888888], [89.57791666666667, 24.35013888888889]], [[89.57847222222223, 24.34847222222222], [89.57041666666667, 24.346805555555555], [89.57458333333334, 24.34208333333333], [89.57847222222223, 24.34847222222222]], [[89.57680555555555, 24.311249999999998], [89.57819444444445, 24.31625], [89.57319444444445, 24.31458333333333], [89.57680555555555, 24.311249999999998]], [[89.57069444444444, 24.38208333333333], [89.57625, 24.380138888888887], [89.57763888888888, 24.38513888888889], [89.57069444444444, 24.38208333333333]], [[89.57180555555556, 24.253194444444443], [89.57263888888889, 24.247916666666665], [89.57680555555555, 24.254027777777775], [89.57180555555556, 24.253194444444443]], [[89.57597222222222, 24.27736111111111], [89.57430555555555, 24.28736111111111], [89.56708333333333, 24.277916666666666], [89.57319444444445, 24.283749999999998], [89.57597222222222, 24.27736111111111]], [[89.56958333333334, 24.424027777777777], [89.57541666666667, 24.422916666666666], [89.57097222222222, 24.430694444444445], [89.56375, 24.42597222222222], [89.56958333333334, 24.424027777777777]], [[89.57180555555556, 24.36236111111111], [89.56791666666668, 24.360138888888887], [89.57486111111112, 24.359583333333333], [89.57180555555556, 24.36236111111111]], [[89.57013888888889, 24.276805555555555], [89.56208333333333, 24.267083333333332], [89.57091091954024, 24.27508333333333], [89.57013888888889, 24.276805555555555]], [[89.56708333333333, 24.226527777777775], [89.56986111111111, 24.220694444444444], [89.57347222222222, 24.230694444444442], [89.56708333333333, 24.226527777777775]], [[89.56069444444445, 24.28763888888889], [89.56875000000001, 24.28569444444444], [89.55763888888889, 24.296249999999997], [89.55486111111111, 24.29097222222222], [89.56069444444445, 24.28763888888889]], [[89.56097222222222, 24.328194444444442], [89.56847222222223, 24.324583333333333], [89.56736111111111, 24.33347222222222], [89.56097222222222, 24.328194444444442]], [[89.56652777777778, 24.296805555555554], [89.56180555555555, 24.297083333333333], [89.56430555555556, 24.29236111111111], [89.56652777777778, 24.296805555555554]], [[89.56597222222223, 24.38458333333333], [89.55819444444445, 24.392083333333332], [89.56069444444445, 24.38347222222222], [89.56597222222223, 24.38458333333333]], [[89.56430555555556, 24.509305555555553], [89.56458333333333, 24.514027777777777], [89.55986111111112, 24.511805555555554], [89.56430555555556, 24.509305555555553]], [[89.55958333333334, 24.31375], [89.56152777777778, 24.32208333333333], [89.55125, 24.319305555555555], [89.55958333333334, 24.31375]], [[89.55763888888889, 24.24986111111111], [89.55347222222223, 24.250138888888888], [89.56152777777778, 24.248749999999998], [89.55763888888889, 24.24986111111111]], [[89.55597222222222, 24.343194444444443], [89.55902777777779, 24.35013888888889], [89.5526388888889, 24.340416666666666], [89.55597222222222, 24.343194444444443]], [[89.55319444444444, 24.408194444444444], [89.55791666666667, 24.41263888888889], [89.55458333333334, 24.417638888888888], [89.54680555555557, 24.41097222222222], [89.55319444444444, 24.408194444444444]], [[89.55291666666668, 24.424027777777777], [89.55486111111111, 24.419583333333332], [89.54930555555556, 24.41847222222222], [89.55597222222222, 24.41875], [89.55291666666668, 24.424027777777777]], [[89.54597222222222, 24.393194444444443], [89.55125, 24.392916666666665], [89.5501388888889, 24.397916666666664], [89.54347222222222, 24.396805555555556], [89.54597222222222, 24.393194444444443]], [[89.54375, 24.36736111111111], [89.54375, 24.36263888888889], [89.55125, 24.369027777777777], [89.54375, 24.36736111111111]], [[89.53680555555556, 24.304305555555555], [89.53180555555556, 24.302638888888886], [89.54847222222223, 24.304305555555555], [89.53680555555556, 24.304305555555555]], [[89.54291666666667, 24.430416666666666], [89.53791666666667, 24.43125], [89.54263888888889, 24.426805555555553], [89.53458333333333, 24.422638888888887], [89.54347222222222, 24.420972222222222], [89.54291666666667, 24.430416666666666]], [[89.52652777777779, 24.521527777777777], [89.53847222222223, 24.52236111111111], [89.54319444444445, 24.531805555555554], [89.53875000000001, 24.52986111111111], [89.53680555555556, 24.536805555555553], [89.53680555555556, 24.526527777777776], [89.52652777777779, 24.521527777777777]], [[89.53125, 24.475416666666664], [89.54125, 24.461527777777775], [89.53441784869976, 24.47492930532824], [89.53125, 24.475416666666664]], [[89.53125, 24.340694444444445], [89.52875, 24.33736111111111], [89.53625000000001, 24.33736111111111], [89.53125, 24.340694444444445]], [[89.52454437156632, 24.468524077811413], [89.5201388888889, 24.46875], [89.52319444444444, 24.464305555555555], [89.52454437156632, 24.468524077811413]], [[89.52930555555555, 24.36736111111111], [89.53069444444445, 24.371805555555554], [89.52625, 24.36375], [89.52930555555555, 24.36736111111111]], [[89.52680555555555, 24.435138888888886], [89.52791666666667, 24.439027777777778], [89.52152777777778, 24.436249999999998], [89.52680555555555, 24.435138888888886]], [[89.52347222222222, 24.53625], [89.51680555555556, 24.52986111111111], [89.52458333333334, 24.52958333333333], [89.52791666666667, 24.54097222222222], [89.52347222222222, 24.53625]], [[89.52541666666667, 24.47597222222222], [89.52319444444444, 24.480694444444442], [89.51902777777778, 24.477083333333333], [89.52541666666667, 24.47597222222222]], [[89.51902777777778, 24.497916666666665], [89.52263888888889, 24.50597222222222], [89.51513888888888, 24.494027777777777], [89.51930555555556, 24.492083333333333], [89.51902777777778, 24.497916666666665]], [[89.50847222222222, 24.408472222222223], [89.50597222222223, 24.401249999999997], [89.51319444444445, 24.404305555555553], [89.50847222222222, 24.408472222222223]], [[89.50541666666668, 24.483194444444443], [89.51319444444445, 24.483749999999997], [89.51098356009071, 24.48728741496598], [89.51319444444445, 24.490972222222222], [89.51263888888889, 24.501527777777778], [89.50486111111111, 24.492916666666666], [89.50841579861111, 24.489192708333338], [89.50541666666668, 24.483194444444443]], [[89.50708333333334, 24.394305555555555], [89.51180555555555, 24.38958333333333], [89.50930555555556, 24.397916666666664], [89.50708333333334, 24.394305555555555]], [[89.51041666666667, 24.422083333333333], [89.50708333333334, 24.425416666666667], [89.50597222222223, 24.410416666666666], [89.51041666666667, 24.40986111111111], [89.51041666666667, 24.422083333333333]], [[89.5051388888889, 24.44347222222222], [89.50902777777777, 24.442083333333333], [89.50680555555556, 24.449027777777776], [89.5051388888889, 24.44347222222222]], [[89.50291666666666, 24.534027777777776], [89.50847222222222, 24.539861111111108], [89.49930555555555, 24.536527777777778], [89.50291666666666, 24.534027777777776]], [[89.49986111111112, 24.497916666666665], [89.49458333333334, 24.497083333333332], [89.50569444444444, 24.49736111111111], [89.49986111111112, 24.497916666666665]], [[89.49930555555555, 24.34486111111111], [89.49847222222222, 24.338194444444444], [89.49986111111112, 24.349027777777778], [89.49930555555555, 24.34486111111111]], [[89.4851388888889, 24.393472222222222], [89.49041666666668, 24.394027777777776], [89.48875, 24.400138888888886], [89.4851388888889, 24.393472222222222]], [[89.47875, 24.541249999999998], [89.47791666666667, 24.535416666666666], [89.48569444444445, 24.545416666666664], [89.47875, 24.541249999999998]], [[89.47763888888889, 24.337638888888886], [89.47875, 24.341527777777777], [89.47319444444445, 24.339027777777776], [89.47763888888889, 24.337638888888886]], [[89.47597222222223, 24.516805555555553], [89.47375000000001, 24.520138888888887], [89.47208333333333, 24.514027777777777], [89.47597222222223, 24.516805555555553]], [[89.46902777777778, 24.466527777777777], [89.46430555555555, 24.47597222222222], [89.46347222222222, 24.466805555555553], [89.46902777777778, 24.466527777777777]], [[89.46347222222222, 24.379583333333333], [89.46763888888889, 24.378194444444443], [89.46513888888889, 24.384027777777778], [89.46347222222222, 24.379583333333333]], [[89.44402777777778, 24.480138888888888], [89.44819444444445, 24.47597222222222], [89.45180555555555, 24.492916666666666], [89.44402777777778, 24.480138888888888]], [[89.43909749598481, 24.479503759672944], [89.43652777777778, 24.476805555555554], [89.4426388888889, 24.476805555555554], [89.43909749598481, 24.479503759672944]], [[89.42125, 24.356805555555553], [89.41902777777779, 24.361805555555556], [89.42069444444445, 24.350416666666664], [89.42125, 24.356805555555553]], [[89.4101388888889, 24.379305555555554], [89.40486111111112, 24.378194444444443], [89.41430555555556, 24.380138888888887], [89.4101388888889, 24.379305555555554]], [[89.40513888888889, 24.490694444444443], [89.41263888888889, 24.490694444444443], [89.40041666666667, 24.491249999999997], [89.40513888888889, 24.490694444444443]], [[89.35013888888889, 24.525138888888886], [89.35236111111111, 24.519305555555555], [89.35513888888889, 24.52486111111111], [89.35013888888889, 24.525138888888886]], [[89.35319444444444, 24.50847222222222], [89.34791666666666, 24.51097222222222], [89.34819444444445, 24.505138888888887], [89.35319444444444, 24.50847222222222]]], [[[89.70402777777778, 24.435138888888886], [89.71069444444444, 24.429583333333333], [89.70458333333333, 24.428194444444443], [89.70402777777778, 24.435138888888886]]], [[[89.68180555555556, 24.285416666666666], [89.68875, 24.29958333333333], [89.68541666666667, 24.289305555555554], [89.68847222222223, 24.29486111111111], [89.69597222222222, 24.293194444444442], [89.68180555555556, 24.285416666666666]]], [[[89.58902777777779, 24.695138888888888], [89.57736111111112, 24.695138888888888], [89.59430555555556, 24.70236111111111], [89.5951388888889, 24.696527777777778], [89.58902777777779, 24.695138888888888]]], [[[89.56652777777778, 24.620416666666664], [89.54930555555556, 24.617638888888887], [89.54986111111111, 24.623749999999998], [89.56652777777778, 24.620416666666664]]]]}}