{"type": "Feature", "properties": {}, "geometry": {"type": "MultiPolygon", "coordinates": [[[[89.62212421594981, 24.136329805107536], [89.62069444444445, 24.137083333333333], [89.61652777777778, 24.12013888888889], [89.61458333333334, 24.12875], [89.61708333333334, 24.136805555555554], [89.62652777777778, 24.140138888888888], [89.63819444444445, 24.137083333333333], [89.62097222222222, 24.137638888888887], [89.62212421594981, 24.136329805107536]]], [[[89.63880488351255, 24.127538642473116], [89.64152777777778, 24.126805555555553], [89.64592660475725, 24.145317285760836], [89.64708333333334, 24.13375], [89.65327862873812, 24.138430889861393], [89.64125, 24.12625], [89.63880488351255, 24.127538642473116]]], [[[89.668094639866, 24.149625209380236], [89.67208333333333, 24.152638888888887], [89.6574711740042, 24.15424266247379], [89.67736111111111, 24.152916666666666], [89.69430555555556, 24.174305555555556], [89.6926388888889, 24.19097222222222], [89.70402777777778, 24.207916666666666], [89.70708333333333, 24.229027777777777], [89.71095287451631, 24.22864082365948], [89.70808166248956, 24.23394632414369], [89.71291666666667, 24.24458333333333], [89.70430555555556, 24.255138888888887], [89.70458333333333, 24.276805555555555], [89.71986111111111, 24.301527777777775], [89.71486111111112, 24.33236111111111], [89.72736111111111, 24.345972222222223], [89.72097222222223, 24.374027777777776], [89.72986111111112, 24.381527777777777], [89.74541666666667, 24.379305555555554], [89.7520212600869, 24.389920080695216], [89.74652777777779, 24.37875], [89.73069444444445, 24.381249999999998], [89.72236111111111, 24.374583333333334], [89.72819444444444, 24.344027777777775], [89.71541666666667, 24.332638888888887], [89.72041666666667, 24.301527777777775], [89.70541666666666, 24.26986111111111], [89.72069444444445, 24.276249999999997], [89.72849297736839, 24.298884766291433], [89.7226388888889, 24.277083333333334], [89.70597222222223, 24.25597222222222], [89.71402777777779, 24.249305555555555], [89.71291666666667, 24.238194444444442], [89.72875, 24.24736111111111], [89.73541666666667, 24.264305555555556], [89.73152777777779, 24.251805555555553], [89.7526388888889, 24.25986111111111], [89.76180555555555, 24.29736111111111], [89.75680555555556, 24.31458333333333], [89.73138614666358, 24.307282013757973], [89.73208333333334, 24.309305555555554], [89.75652777777778, 24.316805555555554], [89.75486111111111, 24.34708333333333], [89.76458333333333, 24.340416666666666], [89.77263888888889, 24.32597222222222], [89.77402777777777, 24.301805555555553], [89.78430555555556, 24.291527777777777], [89.78097222222223, 24.285416666666666], [89.78791666666667, 24.285416666666666], [89.77819444444445, 24.276249999999997], [89.77541666666667, 24.23625], [89.79513888888889, 24.171527777777776], [89.78013888888889, 24.166249999999998], [89.78763888888889, 24.157916666666665], [89.7976388888889, 24.159305555555555], [89.78652777777778, 24.12708333333333], [89.79097222222222, 24.078194444444442], [89.78319444444445, 24.059583333333332], [89.78319444444445, 24.033749999999998], [89.76375, 24.023194444444442], [89.77569444444444, 24.047083333333333], [89.77041666666666, 24.06375], [89.75223484848486, 24.058093434343437], [89.74597222222222, 24.056527777777777], [89.74919364508395, 24.05714728217426], [89.74541666666667, 24.05597222222222], [89.74708333333334, 24.03625], [89.75319444444445, 24.029027777777777], [89.75125, 24.03569444444444], [89.75402777777778, 24.030416666666664], [89.75625000000001, 24.03458333333333], [89.75819444444444, 24.02236111111111], [89.74375, 24.028194444444445], [89.74291666666667, 24.02236111111111], [89.72180555555556, 24.01347222222222], [89.71069444444444, 24.019305555555555], [89.71569444444445, 24.090694444444445], [89.70569444444445, 24.081249999999997], [89.70262050468419, 24.052137982270576], [89.70180555555555, 24.05763888888889], [89.69319444444444, 24.04513888888889], [89.69763888888889, 24.039861111111108], [89.69680555555556, 24.05013888888889], [89.7017178362573, 24.043589181286546], [89.70097222222222, 24.036527777777778], [89.68291666666667, 24.034305555555555], [89.68458333333334, 24.078194444444442], [89.68902777777778, 24.072916666666664], [89.69097222222223, 24.08236111111111], [89.68180555555556, 24.090138888888887], [89.6726388888889, 24.065694444444443], [89.66319444444444, 24.07208333333333], [89.67319444444445, 24.085416666666664], [89.66763888888889, 24.12486111111111], [89.67736111111111, 24.151805555555555], [89.668094639866, 24.149625209380236]], [[89.71205122029544, 24.2266112716763], [89.7076388888889, 24.212638888888886], [89.71375, 24.22347222222222], [89.71205122029544, 24.2266112716763]], [[89.78236111111111, 24.086527777777775], [89.77736111111112, 24.09097222222222], [89.77875, 24.075416666666666], [89.78236111111111, 24.086527777777775]], [[89.74236111111111, 24.081249999999997], [89.74041666666668, 24.068194444444444], [89.74541666666667, 24.064305555555553], [89.75152777777778, 24.070416666666667], [89.74847222222222, 24.061527777777776], [89.76347222222222, 24.062916666666666], [89.77041666666666, 24.076805555555556], [89.76958333333333, 24.09986111111111], [89.74236111111111, 24.081249999999997]], [[89.70680555555556, 24.11347222222222], [89.72498883271813, 24.13055348258706], [89.72513888888889, 24.12125], [89.71013888888889, 24.108749999999997], [89.71041666666667, 24.09736111111111], [89.71180555555556, 24.102083333333333], [89.7201388888889, 24.09819444444444], [89.73236111111112, 24.121805555555554], [89.76625, 24.152638888888887], [89.76680555555556, 24.199861111111108], [89.75541666666668, 24.22513888888889], [89.73569444444445, 24.216527777777777], [89.74125000000001, 24.215416666666666], [89.71041666666667, 24.184583333333332], [89.71208333333334, 24.172916666666666], [89.71625, 24.18097222222222], [89.71541666666667, 24.174027777777777], [89.72000000000001, 24.175486111111113], [89.71291666666667, 24.171527777777776], [89.71180555555556, 24.16347222222222], [89.71625, 24.141805555555553], [89.72402777777778, 24.137361111111108], [89.72520713895713, 24.13909329784329], [89.72486111111111, 24.13847222222222], [89.72498418270064, 24.13084178367135], [89.71347222222222, 24.141805555555553], [89.70986111111111, 24.159027777777776], [89.70041666666667, 24.142083333333332], [89.69958333333334, 24.126805555555553], [89.70097222222222, 24.120694444444442], [89.70069444444445, 24.130694444444444], [89.70680555555556, 24.11347222222222]], [[89.76680555555556, 24.11958333333333], [89.76180555555555, 24.123472222222222], [89.75180555555556, 24.108194444444443], [89.76680555555556, 24.11958333333333]], [[89.72347222222223, 24.230694444444442], [89.74263888888889, 24.22847222222222], [89.75208333333333, 24.239305555555553], [89.72875, 24.240138888888886], [89.72347222222223, 24.230694444444442]], [[89.73736111111111, 24.05708333333333], [89.74486111111112, 24.060694444444444], [89.73597222222223, 24.071527777777778], [89.73736111111111, 24.05708333333333]], [[89.7226388888889, 24.21125], [89.73013888888889, 24.219027777777775], [89.71958333333333, 24.21708333333333], [89.71375, 24.205138888888886], [89.7226388888889, 24.21125]], [[89.71763888888889, 24.200138888888887], [89.72291666666666, 24.205972222222222], [89.71208333333334, 24.198194444444443], [89.71763888888889, 24.200138888888887]], [[89.71847222222223, 24.05847222222222], [89.71819444444445, 24.069305555555555], [89.71652777777778, 24.04847222222222], [89.71847222222223, 24.05847222222222]], [[89.70875000000001, 24.266527777777778], [89.71375, 24.270694444444445], [89.70569444444445, 24.269305555555555], [89.70569444444445, 24.26013888888889], [89.70875000000001, 24.266527777777778]], [[89.67986111111111, 24.13597222222222], [89.67347222222223, 24.12097222222222], [89.67958333333334, 24.11236111111111], [89.68041666666667, 24.123749999999998], [89.68319444444445, 24.105416666666667], [89.69319444444444, 24.10458333333333], [89.69847222222222, 24.111527777777777], [89.69763888888889, 24.10597222222222], [89.70402777777778, 24.104305555555555], [89.70736111111111, 24.110694444444444], [89.69763888888889, 24.12013888888889], [89.6973611111111, 24.149027777777775], [89.67986111111111, 24.13597222222222]], [[89.70486111111111, 24.102083333333333], [89.69291666666668, 24.099305555555553], [89.70541666666666, 24.08597222222222], [89.70486111111111, 24.102083333333333]], [[89.68791666666667, 24.065694444444443], [89.69152777777778, 24.06958333333333], [89.68902777777778, 24.061527777777776], [89.69569444444444, 24.06347222222222], [89.69847222222222, 24.07736111111111], [89.68513888888889, 24.089027777777776], [89.69291666666668, 24.081249999999997], [89.68791666666667, 24.065694444444443]], [[89.67930555555556, 24.149583333333332], [89.67652777777778, 24.14236111111111], [89.69291666666668, 24.16263888888889], [89.67930555555556, 24.149583333333332]]], [[[89.75310646790486, 24.392126669925055], [89.74763888888889, 24.41208333333333], [89.74152777777778, 24.407638888888886], [89.7226388888889, 24.421249999999997], [89.71597222222222, 24.440416666666664], [89.72180555555556, 24.46013888888889], [89.71347222222222, 24.47986111111111], [89.69847222222222, 24.48097222222222], [89.68847222222223, 24.492083333333333], [89.70458333333333, 24.481805555555553], [89.68625, 24.527916666666666], [89.69180555555556, 24.52208333333333], [89.66791666666667, 24.558194444444442], [89.66319444444444, 24.58513888888889], [89.66095641194553, 24.588194664031622], [89.66430555555556, 24.58625], [89.66597222222222, 24.590138888888887], [89.66180555555556, 24.608472222222222], [89.64986111111111, 24.603749999999998], [89.65038329407143, 24.60263103651358], [89.64875, 24.60486111111111], [89.66180555555556, 24.609027777777776], [89.66208333333334, 24.638194444444444], [89.67375, 24.641527777777778], [89.67402777777778, 24.629305555555554], [89.68041666666667, 24.643472222222222], [89.67708333333334, 24.62097222222222], [89.68569444444445, 24.61347222222222], [89.68319444444445, 24.644583333333333], [89.6901388888889, 24.646527777777777], [89.70041666666667, 24.638749999999998], [89.70208333333333, 24.650138888888886], [89.70930555555556, 24.652083333333334], [89.71486111111112, 24.624583333333334], [89.75208333333333, 24.59708333333333], [89.73819444444445, 24.57986111111111], [89.75958333333334, 24.560416666666665], [89.76569444444445, 24.540138888888887], [89.76013888888889, 24.549027777777777], [89.75902777777777, 24.538194444444443], [89.75208333333333, 24.53736111111111], [89.75763888888889, 24.54847222222222], [89.75402777777778, 24.55875], [89.74458333333334, 24.568194444444444], [89.73625, 24.566805555555554], [89.74680555555555, 24.54375], [89.71902777777778, 24.494305555555552], [89.72736111111111, 24.477916666666665], [89.74291666666667, 24.46708333333333], [89.74236111111111, 24.455694444444443], [89.7551388888889, 24.455416666666665], [89.74736111111112, 24.435138888888886], [89.73652777777778, 24.44125], [89.73125, 24.43347222222222], [89.73930555555556, 24.417638888888888], [89.74402777777777, 24.41736111111111], [89.74319444444444, 24.424027777777777], [89.74736111111112, 24.41708333333333], [89.74347222222222, 24.42625], [89.74930555555555, 24.424305555555556], [89.76597222222223, 24.37569444444444], [89.76125, 24.385694444444443], [89.75736111111111, 24.366249999999997], [89.75958333333334, 24.38958333333333], [89.75486111111111, 24.395694444444445], [89.75310646790486, 24.392126669925055]], [[89.70930555555556, 24.610138888888887], [89.71736111111112, 24.596249999999998], [89.72958333333334, 24.594305555555554], [89.73597222222223, 24.58625], [89.74513888888889, 24.59375], [89.74541666666667, 24.60097222222222], [89.72958333333334, 24.606527777777778], [89.71263888888889, 24.623194444444444], [89.71152777777777, 24.614583333333332], [89.71013888888889, 24.625138888888888], [89.70319444444445, 24.62569444444444], [89.70069444444445, 24.615972222222222], [89.70930555555556, 24.610138888888887]], [[89.74180555555556, 24.567916666666665], [89.73625, 24.585694444444442], [89.72875, 24.57208333333333], [89.74180555555556, 24.567916666666665]], [[89.73236111111112, 24.58486111111111], [89.73041666666667, 24.59125], [89.71680555555555, 24.594305555555554], [89.72652777777778, 24.574305555555554], [89.73236111111112, 24.58486111111111]], [[89.71013888888889, 24.54513888888889], [89.71236111111111, 24.541249999999998], [89.72097222222223, 24.545972222222222], [89.72319444444445, 24.554305555555555], [89.73041666666667, 24.54986111111111], [89.72986111111112, 24.554583333333333], [89.7201388888889, 24.56236111111111], [89.71013888888889, 24.54513888888889]], [[89.72097222222223, 24.525416666666665], [89.71875, 24.506249999999998], [89.72958333333334, 24.531805555555554], [89.72097222222223, 24.525416666666665]], [[89.69847222222222, 24.55486111111111], [89.70465601133284, 24.557180032027592], [89.70236111111112, 24.550694444444442], [89.70902777777778, 24.54513888888889], [89.71125, 24.552638888888886], [89.71652777777778, 24.561527777777776], [89.71041666666667, 24.566805555555554], [89.71819444444445, 24.56319444444444], [89.70875000000001, 24.568749999999998], [89.70505684481951, 24.558312822315987], [89.70375, 24.57347222222222], [89.69847222222222, 24.55486111111111]], [[89.70430555555556, 24.597055084745758], [89.70152777777778, 24.59875], [89.69930555555555, 24.635694444444443], [89.69319444444444, 24.637083333333333], [89.69208333333333, 24.606527777777778], [89.71736111111112, 24.579583333333332], [89.71791666666667, 24.588749999999997], [89.70753806973325, 24.59508270321361], [89.71430555555555, 24.59263888888889], [89.70430555555556, 24.60763888888889], [89.70430555555556, 24.597055084745758]], [[89.71069444444444, 24.63236111111111], [89.70597222222223, 24.636805555555554], [89.70263888888888, 24.626527777777778], [89.71069444444444, 24.63236111111111]], [[89.70263888888888, 24.53013888888889], [89.69791666666667, 24.54236111111111], [89.68986111111111, 24.540416666666665], [89.70069444444445, 24.52236111111111], [89.70263888888888, 24.53013888888889]], [[89.68958333333333, 24.54986111111111], [89.68097222222222, 24.560694444444444], [89.68375, 24.547638888888887], [89.68958333333333, 24.54986111111111]], [[89.68847222222223, 24.582916666666666], [89.68958333333333, 24.573194444444443], [89.68902777777778, 24.59236111111111], [89.67791666666668, 24.59708333333333], [89.68041666666667, 24.584027777777777], [89.68847222222223, 24.582916666666666]], [[89.68409428794993, 24.569117762128293], [89.68180555555556, 24.574305555555554], [89.67875000000001, 24.56375], [89.68486111111112, 24.56375], [89.68409428794993, 24.569117762128293]], [[89.67458333333333, 24.56319444444444], [89.67347222222223, 24.574861111111108], [89.66958333333334, 24.569305555555555], [89.67458333333333, 24.56319444444444]]], [[[89.76180555555555, 24.648194444444442], [89.77097222222223, 24.654305555555553], [89.7826388888889, 24.63847222222222], [89.78319444444445, 24.66208333333333], [89.78486111111111, 24.626805555555553], [89.76180555555555, 24.648194444444442]]], [[[89.73280261542438, 24.152726204322956], [89.73180555555555, 24.172916666666666], [89.72236111111111, 24.176805555555553], [89.72198458840901, 24.17659514581026], [89.72382765830346, 24.179108422939066], [89.73319444444445, 24.172083333333333], [89.73569444444445, 24.157916666666665], [89.73280261542438, 24.152726204322956]]], [[[89.75541666666668, 24.49736111111111], [89.74319444444444, 24.49513888888889], [89.74152777777778, 24.511527777777776], [89.74486111111112, 24.50236111111111], [89.75541666666668, 24.49736111111111]]], [[[89.69152777777778, 24.11875], [89.69708333333334, 24.11958333333333], [89.68875, 24.11375], [89.68597222222222, 24.12597222222222], [89.69152777777778, 24.11875]]], [[[89.51458333333333, 24.489097222222224], [89.51347222222222, 24.48875], [89.51375, 24.50236111111111], [89.52569444444444, 24.51097222222222], [89.51597222222223, 24.51986111111111], [89.53597222222223, 24.526805555555555], [89.52458333333334, 24.531805555555554], [89.53016745112238, 24.544037432617266], [89.53125, 24.54486111111111], [89.52597222222222, 24.531805555555554], [89.53680555555556, 24.526805555555555], [89.51680555555556, 24.519583333333333], [89.52680555555555, 24.510694444444443], [89.51458333333333, 24.501527777777778], [89.51458333333333, 24.489097222222224]]], [[[89.54250353784352, 24.470797840774214], [89.54486111111112, 24.469583333333333], [89.54806533646322, 24.449289906103285], [89.54680555555557, 24.44875], [89.54250353784352, 24.470797840774214]]], [[[89.56687564901353, 24.447893302180717], [89.56736111111111, 24.44875], [89.57319444444445, 24.436527777777776], [89.58652777777777, 24.437083333333334], [89.59289351851852, 24.428935185185185], [89.59096484759095, 24.424526794493595], [89.59208333333333, 24.42986111111111], [89.57263888888889, 24.435972222222222], [89.56708333333333, 24.448194444444443], [89.56687564901353, 24.447893302180717]]], [[[89.61248412104067, 24.43941220114273], [89.61507125936116, 24.452652261959358], [89.61597222222223, 24.44013888888889], [89.61248412104067, 24.43941220114273]]], [[[89.61688656721333, 24.48007747151419], [89.61458333333334, 24.48486111111111], [89.62236111111112, 24.490138888888886], [89.61125, 24.49513888888889], [89.61336946050096, 24.500148522800266], [89.61208333333333, 24.49486111111111], [89.62347222222222, 24.490138888888886], [89.61688656721333, 24.48007747151419]]], [[[89.61588398692811, 24.510486020334053], [89.60236111111111, 24.518749999999997], [89.59930555555556, 24.545416666666664], [89.60319444444444, 24.518472222222222], [89.61708333333334, 24.515416666666667], [89.61588398692811, 24.510486020334053]]], [[[89.58333333333333, 24.40708333333333], [89.58041666666666, 24.400416666666665], [89.59236111111112, 24.39097222222222], [89.60625, 24.391527777777778], [89.61125, 24.379027777777775], [89.60652777777779, 24.37013888888889], [89.58125, 24.358194444444443], [89.60013888888889, 24.34097222222222], [89.59180555555555, 24.334305555555556], [89.57680555555555, 24.335694444444442], [89.59041666666667, 24.318194444444444], [89.58513888888889, 24.305138888888887], [89.59347222222223, 24.304305555555555], [89.59625, 24.294027777777778], [89.59441666666666, 24.292561111111112], [89.59319444444445, 24.30013888888889], [89.58375000000001, 24.305416666666666], [89.58875, 24.317638888888887], [89.57541666666667, 24.33597222222222], [89.59902777777778, 24.34125], [89.58458333333334, 24.34875], [89.57986111111111, 24.359305555555554], [89.60430555555556, 24.370416666666664], [89.60986111111112, 24.379305555555554], [89.60680555555555, 24.389305555555556], [89.58847222222222, 24.39097222222222], [89.57819444444445, 24.401527777777776], [89.58333333333333, 24.40708333333333]]], [[[89.59124063670411, 24.290020287141072], [89.58236111111111, 24.282916666666665], [89.58763888888889, 24.27263888888889], [89.57905674335251, 24.253934212719855], [89.58486111111111, 24.271805555555556], [89.58041666666666, 24.285138888888888], [89.59124063670411, 24.290020287141072]]], [[[89.57701052210975, 24.247634005209253], [89.57958333333333, 24.230138888888888], [89.60319444444444, 24.224305555555553], [89.60097222222223, 24.228194444444444], [89.61511839708561, 24.231544854280507], [89.60347222222222, 24.224027777777778], [89.60271825396825, 24.211964285714174], [89.60319444444444, 24.221805555555555], [89.58041666666666, 24.227916666666665], [89.57430555555555, 24.239305555555553], [89.57701052210975, 24.247634005209253]]], [[[89.60244100458647, 24.206234465157564], [89.62236111111112, 24.20236111111111], [89.62902777777778, 24.194305555555555], [89.62402777777778, 24.185694444444444], [89.60791666666667, 24.18263888888889], [89.60486111111112, 24.165138888888887], [89.58986111111112, 24.155694444444443], [89.59430555555556, 24.145138888888887], [89.60763888888889, 24.139027777777777], [89.59291666666667, 24.127916666666664], [89.59597222222223, 24.116805555555555], [89.61652777777778, 24.096805555555555], [89.60041666666667, 24.101527777777775], [89.58152777777778, 24.13097222222222], [89.57535130718955, 24.132295751633983], [89.56791666666668, 24.13458333333333], [89.56927039381155, 24.1335988045007], [89.55819444444445, 24.13597222222222], [89.54319444444445, 24.129305555555554], [89.54402777777779, 24.13847222222222], [89.54041666666667, 24.131527777777777], [89.53402777777778, 24.13375], [89.52180555555556, 24.15375], [89.53347222222223, 24.149583333333332], [89.52930555555555, 24.167916666666667], [89.54041666666667, 24.146527777777777], [89.54263888888889, 24.15458333333333], [89.53597222222223, 24.172916666666666], [89.51958333333333, 24.18097222222222], [89.52347222222222, 24.179583333333333], [89.51875, 24.186805555555555], [89.52319444444444, 24.18958333333333], [89.54458333333334, 24.17736111111111], [89.54708333333333, 24.16208333333333], [89.55402777777778, 24.170972222222222], [89.56625, 24.166527777777777], [89.55680555555556, 24.169583333333332], [89.55208333333334, 24.16097222222222], [89.56291666666667, 24.155416666666664], [89.56375, 24.140138888888888], [89.55875, 24.137916666666666], [89.57875, 24.139305555555556], [89.59097222222222, 24.130416666666665], [89.60208333333334, 24.137083333333333], [89.59013888888889, 24.14708333333333], [89.58625, 24.161527777777778], [89.60069444444444, 24.164583333333333], [89.60569444444445, 24.184305555555554], [89.62041666666667, 24.186249999999998], [89.62625, 24.193749999999998], [89.62013888888889, 24.20097222222222], [89.60236111111111, 24.204583333333332], [89.60244100458647, 24.206234465157564]], [[89.55958333333334, 24.148194444444442], [89.56097222222222, 24.155694444444443], [89.54236111111112, 24.161527777777778], [89.54680555555557, 24.147916666666664], [89.5501388888889, 24.157638888888886], [89.54986111111111, 24.151527777777776], [89.56097222222222, 24.144027777777776], [89.55958333333334, 24.148194444444442]], [[89.54569444444445, 24.142638888888886], [89.55625, 24.14097222222222], [89.54263888888889, 24.14875], [89.53986111111111, 24.142638888888886], [89.54569444444445, 24.142638888888886]], [[89.5351388888889, 24.145694444444445], [89.54041666666667, 24.14597222222222], [89.53652777777778, 24.150416666666665], [89.5351388888889, 24.145694444444445]]], [[[89.62881535947712, 24.255596405228754], [89.62708333333333, 24.25819444444444], [89.65069444444444, 24.275416666666665], [89.65875, 24.289861111111108], [89.65125, 24.275416666666665], [89.62791666666666, 24.257638888888888], [89.62881535947712, 24.255596405228754]]], [[[89.65291666666667, 24.08458333333333], [89.65430555555555, 24.077916666666667], [89.64486111111111, 24.095972222222223], [89.62958333333333, 24.105416666666667], [89.64208333333333, 24.100416666666664], [89.65291666666667, 24.08458333333333]]], [[[89.62347222222222, 24.089583333333334], [89.60847222222222, 24.11847222222222], [89.61486111111111, 24.107083333333332], [89.61875, 24.12097222222222], [89.61930555555556, 24.10013888888889], [89.63708333333334, 24.086805555555554], [89.62347222222222, 24.089583333333334]]], [[[89.62569444444445, 24.241527777777776], [89.60041666666667, 24.25097222222222], [89.61791666666667, 24.250416666666666], [89.62569444444445, 24.241527777777776]]], [[[89.48765478006611, 24.244398995677596], [89.48708333333333, 24.24458333333333], [89.49375, 24.28569444444444], [89.50067833204432, 24.289990010311918], [89.49458333333334, 24.285138888888888], [89.48765478006611, 24.244398995677596]]], [[[89.45819444444444, 24.23263888888889], [89.45930555555556, 24.239583333333332], [89.47759374578102, 24.230815022951262], [89.45819444444444, 24.23263888888889]]], [[[89.48094598692191, 24.23049985498075], [89.48847222222223, 24.234027777777776], [89.49625, 24.225416666666664], [89.49402777777777, 24.216805555555553], [89.48652777777778, 24.222638888888888], [89.48375, 24.211805555555554], [89.46875, 24.206249999999997], [89.48402777777778, 24.212916666666665], [89.47875, 24.21986111111111], [89.48625, 24.227638888888887], [89.49180555555556, 24.221527777777776], [89.49069444444444, 24.22958333333333], [89.48094598692191, 24.23049985498075]]], [[[89.30281222802437, 24.37465731070496], [89.28875000000001, 24.37486111111111], [89.29625, 24.379305555555554], [89.30281222802437, 24.37465731070496]]]]}}