{"type": "Feature", "properties": {}, "geometry": {"type": "MultiPolygon", "coordinates": [[[[89.82013888888889, 24.074583333333333], [89.80208333333334, 24.068749999999998], [89.81013888888889, 24.079583333333332], [89.81458333333333, 24.076527777777777], [89.81208333333333, 24.082638888888887], [89.81819444444444, 24.089583333333334], [89.82430555555555, 24.08486111111111], [89.82013888888889, 24.074583333333333]]], [[[89.79291666666667, 24.089027777777776], [89.8026388888889, 24.095694444444444], [89.80375000000001, 24.091527777777777], [89.79291666666667, 24.089027777777776]]], [[[89.42986111111111, 24.31319444444444], [89.44180555555556, 24.321805555555553], [89.44236111111111, 24.311249999999998], [89.43680555555555, 24.30763888888889], [89.44152777777778, 24.302638888888886], [89.44265415785765, 24.30537438336857], [89.44958333333334, 24.30486111111111], [89.44708333333334, 24.28875], [89.45319444444445, 24.286527777777778], [89.45819444444444, 24.296805555555554], [89.46097222222222, 24.283472222222223], [89.46819444444445, 24.280694444444443], [89.46180555555556, 24.27986111111111], [89.46347222222222, 24.27375], [89.47208333333333, 24.268194444444443], [89.46705851470027, 24.268728999618173], [89.46381307949537, 24.2659828621371], [89.46152777777777, 24.268194444444443], [89.46696878579611, 24.268738545246276], [89.45902777777778, 24.269583333333333], [89.46152777777777, 24.276249999999997], [89.45597222222223, 24.281527777777775], [89.45125, 24.274027777777775], [89.45569444444445, 24.27375], [89.45458333333333, 24.263194444444444], [89.44763888888889, 24.27236111111111], [89.45291666666667, 24.28597222222222], [89.42875000000001, 24.297083333333333], [89.43458333333334, 24.298194444444444], [89.42986111111111, 24.31319444444444]]], [[[89.442841954023, 24.305830459770117], [89.44930555555555, 24.321527777777778], [89.44819444444445, 24.30875], [89.442841954023, 24.305830459770117]]], [[[89.46842423133236, 24.261520457133557], [89.46819444444445, 24.266805555555553], [89.47847222222222, 24.266805555555553], [89.47097222222223, 24.260416666666664], [89.47902777777779, 24.25819444444444], [89.46708333333333, 24.255138888888887], [89.47236111111111, 24.246527777777775], [89.46319444444444, 24.241527777777776], [89.47725414078675, 24.231831435472735], [89.47125, 24.234583333333333], [89.45263888888888, 24.228194444444444], [89.44597222222222, 24.233749999999997], [89.45652777777778, 24.233749999999997], [89.46597222222222, 24.25236111111111], [89.46041666666667, 24.25875], [89.4701388888889, 24.25986111111111], [89.46842423133236, 24.261520457133557]]], [[[89.47896502399409, 24.23104728066937], [89.47180555555556, 24.244305555555552], [89.48625, 24.25263888888889], [89.48541666666667, 24.246527777777775], [89.47402777777778, 24.241805555555555], [89.48125, 24.235416666666666], [89.48569444444445, 24.242916666666666], [89.49680555555555, 24.22486111111111], [89.49569444444445, 24.241805555555555], [89.48708333333333, 24.242916666666666], [89.48875, 24.25708333333333], [89.47236111111111, 24.250416666666666], [89.49319444444444, 24.26347222222222], [89.49320356021472, 24.26384141091868], [89.49375, 24.262916666666666], [89.48791666666666, 24.24347222222222], [89.49625, 24.24236111111111], [89.49708333333334, 24.22319444444444], [89.50564161554193, 24.219881561008858], [89.50708333333334, 24.230694444444442], [89.51819444444445, 24.215694444444445], [89.52708333333334, 24.217916666666664], [89.52069444444444, 24.22458333333333], [89.52958333333333, 24.23708333333333], [89.53375, 24.232916666666664], [89.52819444444445, 24.22625], [89.53819444444444, 24.22625], [89.53180555555556, 24.220694444444444], [89.54680555555557, 24.203194444444442], [89.53958333333334, 24.206527777777776], [89.53152777777778, 24.20097222222222], [89.52791666666667, 24.20847222222222], [89.52513888888889, 24.19875], [89.53819444444444, 24.184027777777775], [89.54493302982318, 24.18378711401425], [89.54680555555557, 24.179027777777776], [89.55791666666667, 24.179305555555555], [89.54458333333334, 24.172638888888887], [89.57013888888889, 24.17513888888889], [89.58180555555556, 24.15986111111111], [89.56319444444445, 24.16069444444444], [89.56402777777778, 24.15375], [89.57013888888889, 24.154305555555553], [89.55847222222222, 24.138194444444444], [89.57513888888889, 24.13597222222222], [89.56458333333333, 24.141527777777778], [89.57763888888888, 24.142916666666665], [89.59041666666667, 24.131249999999998], [89.58597222222222, 24.16125], [89.60069444444444, 24.170694444444443], [89.59319444444445, 24.16236111111111], [89.59902777777778, 24.164305555555554], [89.60597222222222, 24.173194444444444], [89.60479383093781, 24.18272870120013], [89.62541666666667, 24.191527777777775], [89.62236111111112, 24.199305555555554], [89.60180555555556, 24.205138888888886], [89.59902777777778, 24.22486111111111], [89.57986111111111, 24.228194444444444], [89.57430555555555, 24.239305555555553], [89.58486111111111, 24.27236111111111], [89.58041666666666, 24.285138888888888], [89.59375, 24.294027777777778], [89.59263888888889, 24.300694444444442], [89.58208333333333, 24.30486111111111], [89.58847222222222, 24.316805555555554], [89.57680555555555, 24.330694444444443], [89.57652777777778, 24.34125], [89.58573067632851, 24.336164187643018], [89.57680555555555, 24.335694444444442], [89.59069444444445, 24.317916666666665], [89.58541666666667, 24.305138888888887], [89.59347222222223, 24.304583333333333], [89.59625, 24.294027777777778], [89.58236111111111, 24.28236111111111], [89.58763888888889, 24.27236111111111], [89.57652777777778, 24.24625], [89.5801388888889, 24.22986111111111], [89.60236111111111, 24.22513888888889], [89.59986111111111, 24.229027777777777], [89.60375, 24.225416666666664], [89.60652777777779, 24.23263888888889], [89.6170290036018, 24.232833356033776], [89.60375, 24.224305555555553], [89.60430555555556, 24.21736111111111], [89.60958333333333, 24.217916666666664], [89.60319444444444, 24.21486111111111], [89.60569444444445, 24.205416666666665], [89.61817350642099, 24.20375279173646], [89.62902777777778, 24.194305555555555], [89.62458333333333, 24.185972222222222], [89.60791666666667, 24.18263888888889], [89.60541666666667, 24.16597222222222], [89.59013888888889, 24.155694444444443], [89.59986111111111, 24.142638888888886], [89.60013888888889, 24.151805555555555], [89.60708333333334, 24.15375], [89.60152777777778, 24.141805555555553], [89.60930555555557, 24.138194444444444], [89.59291666666667, 24.12736111111111], [89.60708333333334, 24.103749999999998], [89.61736111111111, 24.09708333333333], [89.59958333333334, 24.117638888888887], [89.61402777777778, 24.105694444444442], [89.60708333333334, 24.117916666666666], [89.61402777777778, 24.108749999999997], [89.61597222222223, 24.14625], [89.61958333333334, 24.137916666666666], [89.62402777777778, 24.14597222222222], [89.62486111111112, 24.140138888888888], [89.64013888888888, 24.136805555555554], [89.62263888888889, 24.136527777777776], [89.63787014885698, 24.12713516746412], [89.61708333333334, 24.135694444444443], [89.61652777777778, 24.123194444444444], [89.61986111111112, 24.130694444444444], [89.62347222222222, 24.128194444444443], [89.61875, 24.120694444444442], [89.62680555555556, 24.125138888888888], [89.61819444444444, 24.11875], [89.62902777777778, 24.12125], [89.61819444444444, 24.115416666666665], [89.61736111111111, 24.10458333333333], [89.63819444444445, 24.086527777777775], [89.63041666666668, 24.08347222222222], [89.61652777777778, 24.096805555555555], [89.59875000000001, 24.102916666666665], [89.58236111111111, 24.130694444444444], [89.55708333333334, 24.13597222222222], [89.54263888888889, 24.129305555555554], [89.54347222222222, 24.136805555555554], [89.53660762907111, 24.133011964603625], [89.52930555555555, 24.136527777777776], [89.52180555555556, 24.154305555555553], [89.52847222222222, 24.156527777777775], [89.52375, 24.165416666666665], [89.52791666666667, 24.16875], [89.53819444444444, 24.163194444444443], [89.5351388888889, 24.172916666666666], [89.5176388888889, 24.179027777777776], [89.51625, 24.186805555555555], [89.52513888888889, 24.191527777777775], [89.51097222222222, 24.199305555555554], [89.51597222222223, 24.200138888888887], [89.5098611111111, 24.204027777777778], [89.51125, 24.212638888888886], [89.50430555555556, 24.214305555555555], [89.51125, 24.21625], [89.50541666666668, 24.218194444444443], [89.50561666666668, 24.219694444444475], [89.50375, 24.215694444444445], [89.49000674217908, 24.219288834951456], [89.49319444444444, 24.220138888888886], [89.48625, 24.22236111111111], [89.48847677595629, 24.21968897996357], [89.48569444444445, 24.220416666666665], [89.48278225806452, 24.213893369175622], [89.47625000000001, 24.22236111111111], [89.48458333333333, 24.22847222222222], [89.47896502399409, 24.23104728066937]], [[89.59708333333333, 24.131805555555555], [89.60041666666667, 24.13958333333333], [89.59041666666667, 24.146527777777777], [89.59097222222222, 24.130416666666665], [89.59708333333333, 24.131805555555555]], [[89.48402777777778, 24.229305555555555], [89.4901388888889, 24.229305555555555], [89.48569444444445, 24.233472222222222], [89.48402777777778, 24.229305555555555]]], [[[89.4818635157207, 24.211835386325482], [89.47875, 24.20486111111111], [89.46875, 24.206249999999997], [89.47621757257568, 24.20943063276371], [89.47430555555556, 24.216805555555553], [89.48125, 24.214027777777776], [89.47651785714287, 24.209558531746033], [89.4818635157207, 24.211835386325482]]], [[[89.6395264036121, 24.126453180212014], [89.64625000000001, 24.132638888888888], [89.64652777777778, 24.15236111111111], [89.6486818859089, 24.153575244785017], [89.64736111111111, 24.134027777777778], [89.65259615384618, 24.13787393162395], [89.64069444444445, 24.12597222222222], [89.6395264036121, 24.126453180212014]]], [[[89.65021657724122, 24.15444025262687], [89.65271122016937, 24.155846324095457], [89.6776388888889, 24.153194444444445], [89.69513888888889, 24.17597222222222], [89.6926388888889, 24.19125], [89.70402777777778, 24.207916666666666], [89.70708333333333, 24.229027777777777], [89.71108543970512, 24.2286275671406], [89.70743347456443, 24.235693325782357], [89.7123860904515, 24.243221301930724], [89.71319444444444, 24.23847222222222], [89.72569444444444, 24.245694444444442], [89.73597222222223, 24.265416666666667], [89.73263888888889, 24.25236111111111], [89.75347222222223, 24.26125], [89.76069444444445, 24.289027777777775], [89.75680555555556, 24.31458333333333], [89.73069444444445, 24.30708333333333], [89.72347222222223, 24.27875], [89.70948611111109, 24.26529166666663], [89.71347222222222, 24.270416666666666], [89.70825479727638, 24.271128133704735], [89.72097222222223, 24.276805555555555], [89.72930555555556, 24.306805555555552], [89.75597222222223, 24.31625], [89.75486111111111, 24.34708333333333], [89.76458333333333, 24.340416666666666], [89.77263888888889, 24.32597222222222], [89.77402777777777, 24.301805555555553], [89.78430555555556, 24.291527777777777], [89.78097222222223, 24.285416666666666], [89.78791666666667, 24.285416666666666], [89.77819444444445, 24.275972222222222], [89.77541666666667, 24.236527777777777], [89.79513888888889, 24.171527777777776], [89.78013888888889, 24.166249999999998], [89.78763888888889, 24.157916666666665], [89.7976388888889, 24.159305555555555], [89.78708333333334, 24.12986111111111], [89.79125, 24.080972222222222], [89.78319444444445, 24.059583333333332], [89.78208333333333, 24.046527777777776], [89.78847222222223, 24.044305555555553], [89.78347222222223, 24.034027777777776], [89.76347222222222, 24.023194444444442], [89.77569444444444, 24.04736111111111], [89.76930555555556, 24.06375], [89.74486111111112, 24.05097222222222], [89.74769387072101, 24.042813874545743], [89.75402777777778, 24.03097222222222], [89.76180555555555, 24.046805555555554], [89.75819444444444, 24.02236111111111], [89.74458333333334, 24.027916666666666], [89.72180555555556, 24.01347222222222], [89.70875000000001, 24.020694444444445], [89.71319444444444, 24.04097222222222], [89.71458333333334, 24.03708333333333], [89.71097222222222, 24.08513888888889], [89.70597222222223, 24.082083333333333], [89.70125, 24.036527777777778], [89.68291666666667, 24.034305555555555], [89.6876388888889, 24.07263888888889], [89.68236111111112, 24.077638888888888], [89.6876388888889, 24.074861111111108], [89.68708333333333, 24.080972222222222], [89.68902777777778, 24.072916666666664], [89.69152777777778, 24.081805555555555], [89.68152777777777, 24.08986111111111], [89.67625, 24.06375], [89.67625, 24.06958333333333], [89.67347222222223, 24.06486111111111], [89.66319444444444, 24.07208333333333], [89.67319444444445, 24.085416666666664], [89.66736111111112, 24.120694444444442], [89.67652777777778, 24.152638888888887], [89.66860112142305, 24.15005059293632], [89.67152777777778, 24.15236111111111], [89.65021657724122, 24.15444025262687]], [[89.71208017676769, 24.22670296717172], [89.7076388888889, 24.212638888888886], [89.71375, 24.22347222222222], [89.71208017676769, 24.22670296717172]], [[89.77430555555556, 24.06847222222222], [89.77875, 24.069027777777777], [89.77569444444444, 24.07375], [89.77430555555556, 24.06847222222222]], [[89.75208333333333, 24.070416666666667], [89.75319444444445, 24.08375], [89.75652777777778, 24.075138888888887], [89.75152777777778, 24.062638888888888], [89.76597222222223, 24.067916666666665], [89.76930555555556, 24.09986111111111], [89.74097222222223, 24.080138888888886], [89.74541666666667, 24.06847222222222], [89.75041666666667, 24.074583333333333], [89.75208333333333, 24.070416666666667]], [[89.72482900217742, 24.18071290510903], [89.72958333333334, 24.175694444444442], [89.73247807017543, 24.16687865497077], [89.72930555555556, 24.17458333333333], [89.71486111111112, 24.172916666666666], [89.71180555555556, 24.165416666666665], [89.71430555555555, 24.146805555555556], [89.72152777777778, 24.138194444444444], [89.72430555555556, 24.143194444444443], [89.72402777777778, 24.137638888888887], [89.73481675587274, 24.15975629398354], [89.73569444444445, 24.157083333333333], [89.72486111111111, 24.136805555555554], [89.72513888888889, 24.12125], [89.71097222222222, 24.10986111111111], [89.70902777777778, 24.09958333333333], [89.71430555555555, 24.10597222222222], [89.7201388888889, 24.09847222222222], [89.72486111111111, 24.11875], [89.72152777777778, 24.104027777777777], [89.7676388888889, 24.157638888888886], [89.75930555555556, 24.17236111111111], [89.76736111111111, 24.166527777777777], [89.76513888888888, 24.20347222222222], [89.75458333333333, 24.22513888888889], [89.73958333333334, 24.218194444444443], [89.71041666666667, 24.184305555555554], [89.71263888888889, 24.174027777777777], [89.72375000000001, 24.187638888888888], [89.71652777777778, 24.177916666666665], [89.72097222222223, 24.175694444444442], [89.72482900217742, 24.18071290510903]], [[89.75375, 24.11208333333333], [89.75180555555556, 24.108194444444443], [89.76708333333333, 24.122916666666665], [89.75375, 24.11208333333333]], [[89.72541312809625, 24.23448602264685], [89.74236111111111, 24.22847222222222], [89.75152777777778, 24.239027777777775], [89.72986111111112, 24.240416666666665], [89.72541312809625, 24.23448602264685]], [[89.7401388888889, 24.06236111111111], [89.73597222222223, 24.06375], [89.74236111111111, 24.05763888888889], [89.7401388888889, 24.06236111111111]], [[89.71430555555555, 24.20736111111111], [89.72569444444444, 24.214305555555555], [89.71847222222223, 24.21486111111111], [89.71430555555555, 24.20736111111111]], [[89.7076388888889, 24.11486111111111], [89.71263888888889, 24.13375], [89.70902777777778, 24.11236111111111], [89.72486111111111, 24.129305555555554], [89.71347222222222, 24.141527777777778], [89.70930555555556, 24.159027777777776], [89.70013888888889, 24.140416666666667], [89.7076388888889, 24.11486111111111]], [[89.71486111111112, 24.088472222222222], [89.71069444444444, 24.085694444444442], [89.71458333333334, 24.083194444444445], [89.71486111111112, 24.088472222222222]], [[89.69319444444444, 24.100416666666664], [89.70013888888889, 24.088749999999997], [89.70625, 24.09125], [89.70458333333333, 24.10125], [89.69319444444444, 24.100416666666664]], [[89.7051388888889, 24.106805555555553], [89.69791666666667, 24.12013888888889], [89.6926388888889, 24.11375], [89.70069444444445, 24.110694444444444], [89.69791666666667, 24.10597222222222], [89.7051388888889, 24.106805555555553]], [[89.68819444444445, 24.085694444444442], [89.6929166666666, 24.081250000000065], [89.68513888888889, 24.089027777777776], [89.68819444444445, 24.085694444444442]], [[89.69291666666668, 24.081249999999994], [89.68791666666667, 24.067083333333333], [89.69819444444445, 24.07597222222222], [89.69291666666668, 24.081249999999994]], [[89.69569444444444, 24.06375], [89.69819444444445, 24.07125], [89.69069444444445, 24.06347222222222], [89.69569444444444, 24.06375]], [[89.67898951313796, 24.130810674920333], [89.67375, 24.12569444444444], [89.67847222222223, 24.11736111111111], [89.67898951313796, 24.130810674920333]], [[89.6795169047889, 24.131325657355962], [89.69375000000001, 24.11736111111111], [89.69069444444445, 24.123194444444444], [89.69486111111111, 24.119305555555552], [89.69763888888889, 24.12486111111111], [89.68958333333333, 24.13625], [89.69625, 24.131249999999998], [89.6973611111111, 24.14875], [89.6795169047889, 24.131325657355962]], [[89.68236111111112, 24.151527777777776], [89.67708333333334, 24.143194444444443], [89.69291666666668, 24.16263888888889], [89.68236111111112, 24.151527777777776]], [[89.68486111111112, 24.104305555555555], [89.69125, 24.10986111111111], [89.68402777777779, 24.11236111111111], [89.68375, 24.117916666666666], [89.68958333333333, 24.116527777777776], [89.68069444444444, 24.124027777777776], [89.68486111111112, 24.104305555555555]]], [[[89.70878325020782, 24.264387988362433], [89.71192244846657, 24.24594519859227], [89.70902777777778, 24.251527777777778], [89.70291666666667, 24.247916666666665], [89.70416440591335, 24.242018262955085], [89.70097222222222, 24.248194444444444], [89.70847222222223, 24.25208333333333], [89.70402777777778, 24.255694444444444], [89.70541666666666, 24.280416666666664], [89.71986111111111, 24.301805555555553], [89.71513888888889, 24.33347222222222], [89.72736111111111, 24.345972222222223], [89.72097222222223, 24.374305555555555], [89.73097222222222, 24.381805555555555], [89.73840775902485, 24.38051863572433], [89.73097222222222, 24.381249999999998], [89.7226388888889, 24.37486111111111], [89.72819444444444, 24.344027777777775], [89.71569444444445, 24.33236111111111], [89.72041666666667, 24.30125], [89.70541666666666, 24.26986111111111], [89.70727507374632, 24.270690757128808], [89.70569444444445, 24.260416666666664], [89.70878325020782, 24.264387988362433]]], [[[89.65390989729225, 24.156521942110174], [89.66180555555556, 24.16097222222222], [89.66152777777778, 24.16736111111111], [89.66597222222222, 24.159305555555555], [89.65390989729225, 24.156521942110174]]], [[[89.74564841901345, 24.37980643965988], [89.75402777777778, 24.397916666666664], [89.74791666666667, 24.411805555555553], [89.74402777777777, 24.407083333333333], [89.73180555555555, 24.41125], [89.72208333333333, 24.42236111111111], [89.71597222222222, 24.43958333333333], [89.72180555555556, 24.460694444444442], [89.71375, 24.47958333333333], [89.69625, 24.482083333333332], [89.68791666666667, 24.492916666666666], [89.70458333333333, 24.481805555555553], [89.68597222222222, 24.528194444444445], [89.69347222222223, 24.52208333333333], [89.66791666666667, 24.558194444444442], [89.66319444444444, 24.58513888888889], [89.66057061579652, 24.588418674698797], [89.66430555555556, 24.58625], [89.66597222222222, 24.590138888888887], [89.66263888888889, 24.60763888888889], [89.65790196312193, 24.607283619456364], [89.66180555555556, 24.609027777777776], [89.66236111111111, 24.652638888888887], [89.65097222222222, 24.669583333333332], [89.63569444444445, 24.678749999999997], [89.63208333333334, 24.691527777777775], [89.63708333333334, 24.69597222222222], [89.65986111111111, 24.678194444444443], [89.66458333333334, 24.685972222222222], [89.66152777777778, 24.677638888888886], [89.66875, 24.672916666666666], [89.66708333333334, 24.68986111111111], [89.65486111111112, 24.693194444444444], [89.65402777777778, 24.71236111111111], [89.64708333333334, 24.71763888888889], [89.65513888888889, 24.712083333333332], [89.65652777777778, 24.692916666666665], [89.66652777777779, 24.692083333333333], [89.65597222222223, 24.747916666666665], [89.66652777777779, 24.74736111111111], [89.66680555555556, 24.75597222222222], [89.72319444444445, 24.734305555555554], [89.72319444444445, 24.762916666666666], [89.70652777777778, 24.77125], [89.72125, 24.765416666666667], [89.70861742424243, 24.774753787878787], [89.69541666666667, 24.77958333333333], [89.71263888888889, 24.77875], [89.73069444444445, 24.765138888888888], [89.73875, 24.742638888888887], [89.73152777777779, 24.720694444444444], [89.74319444444444, 24.69763888888889], [89.79430555555555, 24.67513888888889], [89.78708333333334, 24.677638888888886], [89.79125, 24.67236111111111], [89.78236111111111, 24.671527777777776], [89.78430555555556, 24.626805555555553], [89.76375, 24.645138888888887], [89.74486111111112, 24.679583333333333], [89.71708333333333, 24.709027777777777], [89.69819444444445, 24.682916666666664], [89.70180555555555, 24.674027777777777], [89.70708333333333, 24.69347222222222], [89.70430555555556, 24.67458333333333], [89.71486111111112, 24.624583333333334], [89.75208333333333, 24.59708333333333], [89.73819444444445, 24.57986111111111], [89.75958333333334, 24.560416666666665], [89.76569444444445, 24.540138888888887], [89.76013888888889, 24.549027777777777], [89.75902777777777, 24.538194444444443], [89.75208333333333, 24.53736111111111], [89.75763888888889, 24.54847222222222], [89.75402777777778, 24.55875], [89.74458333333334, 24.568194444444444], [89.73569444444445, 24.56625], [89.74680555555555, 24.54375], [89.71902777777778, 24.494305555555552], [89.72791666666667, 24.477361111111108], [89.74263888888889, 24.46763888888889], [89.74236111111111, 24.455694444444443], [89.7551388888889, 24.455416666666665], [89.74736111111112, 24.435138888888886], [89.73652777777778, 24.44125], [89.73125, 24.43347222222222], [89.74041666666668, 24.41708333333333], [89.74263888888889, 24.424027777777777], [89.74680555555555, 24.417916666666667], [89.74347222222222, 24.42625], [89.74902777777778, 24.42486111111111], [89.76597222222223, 24.37569444444444], [89.76125, 24.385416666666664], [89.75736111111111, 24.366249999999997], [89.75958333333334, 24.38958333333333], [89.75486111111111, 24.395416666666666], [89.74791666666667, 24.379583333333333], [89.74564841901345, 24.37980643965988]], [[89.77958333333333, 24.661527777777778], [89.76263888888889, 24.664583333333333], [89.7826388888889, 24.63847222222222], [89.77958333333333, 24.661527777777778]], [[89.77513888888889, 24.67375], [89.7551388888889, 24.678749999999997], [89.76958333333333, 24.665416666666665], [89.77791666666667, 24.665138888888887], [89.77513888888889, 24.67375]], [[89.71736111111112, 24.596249999999998], [89.72958333333334, 24.594305555555554], [89.73597222222223, 24.58625], [89.74625, 24.59708333333333], [89.71263888888889, 24.623194444444444], [89.71152777777777, 24.614583333333332], [89.71013888888889, 24.625138888888888], [89.70291666666667, 24.625416666666666], [89.70069444444445, 24.615972222222222], [89.71736111111112, 24.596249999999998]], [[89.73847222222223, 24.57375], [89.74263888888889, 24.57069444444444], [89.73680555555556, 24.579583333333332], [89.73847222222223, 24.57375]], [[89.73736111111111, 24.57347222222222], [89.73625, 24.585694444444442], [89.72875, 24.57208333333333], [89.74180555555556, 24.567916666666665], [89.73736111111111, 24.57347222222222]], [[89.73236111111112, 24.750416666666666], [89.73152777777779, 24.733194444444443], [89.73597222222223, 24.740416666666665], [89.73236111111112, 24.750416666666666]], [[89.72597222222223, 24.701249999999998], [89.73097222222222, 24.699583333333333], [89.7226388888889, 24.706527777777776], [89.72597222222223, 24.701249999999998]], [[89.70335642404191, 24.554047077474497], [89.70236111111112, 24.550694444444442], [89.70902777777778, 24.54513888888889], [89.71099499089253, 24.548308287795987], [89.71236111111111, 24.541249999999998], [89.72319444444445, 24.554305555555555], [89.73041666666667, 24.55013888888889], [89.72513888888889, 24.560138888888886], [89.71819444444445, 24.560694444444444], [89.71481209150328, 24.55580882352943], [89.71652777777778, 24.561527777777776], [89.71041666666667, 24.566805555555554], [89.71819444444445, 24.56319444444444], [89.7076388888889, 24.56847222222222], [89.70347836580657, 24.554457828681773], [89.70375, 24.57347222222222], [89.69819444444445, 24.565416666666664], [89.69847222222222, 24.55486111111111], [89.70335642404191, 24.554047077474497]], [[89.73041666666667, 24.59125], [89.71680555555555, 24.594305555555554], [89.72652777777778, 24.574305555555554], [89.73041666666667, 24.59125]], [[89.72125, 24.52097222222222], [89.71875, 24.506249999999998], [89.72958333333334, 24.531805555555554], [89.72097222222223, 24.52958333333333], [89.72125, 24.52097222222222]], [[89.72430555555556, 24.721249999999998], [89.72041666666667, 24.72319444444444], [89.7201388888889, 24.71236111111111], [89.72680555555556, 24.708194444444445], [89.72430555555556, 24.721249999999998]], [[89.70430555555556, 24.597055084745758], [89.70152777777778, 24.59875], [89.69930555555555, 24.635694444444443], [89.69486111111111, 24.637638888888887], [89.69208333333333, 24.606527777777778], [89.71736111111112, 24.579583333333332], [89.71791666666667, 24.588749999999997], [89.70753806973325, 24.59508270321361], [89.71430555555555, 24.59263888888889], [89.70430555555556, 24.60763888888889], [89.70430555555556, 24.597055084745758]], [[89.68884994570013, 24.70213107196995], [89.68263888888889, 24.70236111111111], [89.68930555555556, 24.69347222222222], [89.68983559724019, 24.698949319630085], [89.69402777777778, 24.685416666666665], [89.69930555555555, 24.70375], [89.69625, 24.727361111111108], [89.70069444444445, 24.703194444444442], [89.70902777777778, 24.714583333333334], [89.70486111111111, 24.727083333333333], [89.71347222222222, 24.72458333333333], [89.70375, 24.73486111111111], [89.67819444444444, 24.736527777777777], [89.68884994570013, 24.70213107196995]], [[89.70569444444445, 24.636527777777776], [89.70263888888888, 24.626527777777778], [89.71041666666667, 24.629583333333333], [89.70569444444445, 24.636527777777776]], [[89.70236111111112, 24.652638888888887], [89.69763888888889, 24.664583333333333], [89.68986111111111, 24.64486111111111], [89.69319444444444, 24.639305555555556], [89.70180555555555, 24.640416666666667], [89.70236111111112, 24.652638888888887]], [[89.69708333333334, 24.542916666666667], [89.68986111111111, 24.540416666666665], [89.70069444444445, 24.52236111111111], [89.69708333333334, 24.542916666666667]], [[89.68625, 24.57597222222222], [89.69069444444445, 24.575138888888887], [89.69125, 24.587638888888886], [89.67847222222223, 24.59736111111111], [89.68125, 24.582638888888887], [89.68847222222223, 24.582916666666666], [89.68625, 24.57597222222222]], [[89.68875, 24.556805555555552], [89.68069444444444, 24.560416666666665], [89.68375, 24.547638888888887], [89.68958333333333, 24.54986111111111], [89.68875, 24.556805555555552]], [[89.68402777777779, 24.671527777777776], [89.67875000000001, 24.66097222222222], [89.68708333333333, 24.66347222222222], [89.68402777777779, 24.671527777777776]], [[89.68652777777778, 24.622083333333332], [89.68263888888889, 24.646805555555556], [89.67680555555556, 24.622638888888886], [89.68569444444445, 24.61347222222222], [89.68652777777778, 24.622083333333332]], [[89.68597222222222, 24.56486111111111], [89.68152777777777, 24.574027777777776], [89.67875000000001, 24.56375], [89.68486111111112, 24.56375], [89.68263888888889, 24.57125], [89.68597222222222, 24.56486111111111]], [[89.67986111111111, 24.715694444444445], [89.67819444444444, 24.705416666666665], [89.68430555555555, 24.711527777777775], [89.67986111111111, 24.715694444444445]], [[89.67958333333334, 24.68736111111111], [89.67569444444445, 24.693749999999998], [89.68375, 24.67986111111111], [89.67958333333334, 24.68736111111111]], [[89.68347222222222, 24.672083333333333], [89.68069444444444, 24.67597222222222], [89.6776388888889, 24.66597222222222], [89.68347222222222, 24.672083333333333]], [[89.6751388888889, 24.676527777777775], [89.67958333333334, 24.679027777777776], [89.67597222222223, 24.68208333333333], [89.6751388888889, 24.676527777777775]], [[89.6726388888889, 24.637361111111108], [89.67375, 24.629305555555554], [89.67819444444444, 24.64625], [89.6726388888889, 24.637361111111108]], [[89.67597222222223, 24.564305555555553], [89.67347222222223, 24.574861111111108], [89.66958333333334, 24.56986111111111], [89.67597222222223, 24.564305555555553]]], [[[89.5974375637105, 24.342075688073397], [89.58458333333334, 24.34875], [89.57986111111111, 24.359305555555554], [89.59494955300127, 24.366323435504462], [89.58125, 24.35736111111111], [89.59541666666667, 24.34736111111111], [89.59569444444445, 24.356527777777778], [89.60059185872214, 24.358640387858348], [89.59625, 24.355138888888888], [89.5974375637105, 24.342075688073397]]], [[[89.60608687721493, 24.361010787992495], [89.60986111111112, 24.36263888888889], [89.61569444444444, 24.351805555555554], [89.61053140096618, 24.348363526570044], [89.61375, 24.354305555555555], [89.60608687721493, 24.361010787992495]]], [[[89.6076369047619, 24.343019841269836], [89.60875, 24.341805555555553], [89.62180555555555, 24.34986111111111], [89.62263888888889, 24.367083333333333], [89.62541666666667, 24.35597222222222], [89.61986111111112, 24.345138888888886], [89.60652777777779, 24.34097222222222], [89.6076369047619, 24.343019841269836]]], [[[89.60402524432766, 24.372260803661906], [89.60652777777779, 24.389027777777777], [89.58958333333334, 24.390416666666667], [89.57819444444445, 24.401527777777776], [89.58844841269843, 24.41841666666667], [89.58097222222223, 24.400972222222222], [89.59152777777778, 24.391527777777778], [89.60236111111111, 24.392083333333332], [89.59597222222223, 24.39625], [89.60625, 24.391527777777778], [89.61097222222223, 24.376805555555553], [89.60402524432766, 24.372260803661906]]], [[[89.59179722222223, 24.426230555555552], [89.58847222222222, 24.434305555555554], [89.57263888888889, 24.435972222222222], [89.56717241658568, 24.44799846128927], [89.5676388888889, 24.44875], [89.57319444444445, 24.436527777777776], [89.58486111111111, 24.44013888888889], [89.59294958253051, 24.42891939627489], [89.59179722222223, 24.426230555555552]]], [[[89.54827537182852, 24.449379921259844], [89.54680555555557, 24.44875], [89.54158910838792, 24.472361287179844], [89.54347222222222, 24.471527777777776], [89.54827537182852, 24.449379921259844]]], [[[89.51482204486626, 24.49030833573003], [89.51291666666667, 24.491527777777776], [89.51375, 24.50236111111111], [89.52569444444444, 24.51097222222222], [89.51597222222223, 24.51986111111111], [89.53597222222223, 24.527083333333334], [89.52458333333334, 24.531805555555554], [89.53013888888889, 24.544583333333332], [89.51680555555556, 24.535416666666666], [89.53041666666667, 24.545416666666664], [89.52597222222222, 24.531805555555554], [89.53680555555556, 24.526805555555555], [89.51680555555556, 24.519583333333333], [89.52680555555555, 24.510694444444443], [89.51458333333333, 24.501527777777778], [89.51482204486626, 24.49030833573003]]], [[[89.6134514819542, 24.439370967170106], [89.6126388888889, 24.47458333333333], [89.62214181286551, 24.4897880116959], [89.62347222222222, 24.489027777777775], [89.61347222222223, 24.47458333333333], [89.61597222222223, 24.43986111111111], [89.6134514819542, 24.439370967170106]]], [[[89.61843954248364, 24.491903594771248], [89.61125, 24.49513888888889], [89.61625000000001, 24.514027777777777], [89.60236111111111, 24.518749999999997], [89.60069444444444, 24.544027777777778], [89.59180555555555, 24.55486111111111], [89.60125000000001, 24.544027777777778], [89.60319444444444, 24.518749999999997], [89.61708333333334, 24.515416666666667], [89.61180555555556, 24.495694444444442], [89.61843954248364, 24.491903594771248]]], [[[89.54434884559886, 24.185271915584405], [89.53708333333334, 24.192083333333333], [89.54013888888889, 24.19597222222222], [89.54434884559886, 24.185271915584405]]], [[[89.49363085782367, 24.281146964080822], [89.49375, 24.28597222222222], [89.50763888888889, 24.294305555555553], [89.50625000000001, 24.31347222222222], [89.51986111111111, 24.32208333333333], [89.50652777777778, 24.312638888888888], [89.50791666666667, 24.290416666666665], [89.49486111111112, 24.285416666666666], [89.49363085782367, 24.281146964080822]]], [[[89.60477584960232, 24.182874186550972], [89.60381184895833, 24.190673828125], [89.60958333333333, 24.18875], [89.60477584960232, 24.182874186550972]]], [[[89.62965493601466, 24.240941752996168], [89.63375, 24.244305555555552], [89.62708333333333, 24.25819444444444], [89.6659728045656, 24.295452189611016], [89.65180555555555, 24.275972222222222], [89.62791666666666, 24.257638888888888], [89.63402777777777, 24.24375], [89.62965493601466, 24.240941752996168]]], [[[89.66661766199472, 24.296338868576065], [89.64625000000001, 24.30597222222222], [89.65236111111112, 24.324027777777776], [89.64708333333334, 24.305694444444445], [89.66736111111112, 24.29736111111111], [89.66661766199472, 24.296338868576065]]], [[[89.62384259259261, 24.241805555555537], [89.62013888888889, 24.24625], [89.59486111111111, 24.249583333333334], [89.60902777777778, 24.249583333333334], [89.62430555555555, 24.267916666666665], [89.62375, 24.26013888888889], [89.6101388888889, 24.249583333333334], [89.61958333333334, 24.249583333333334], [89.62384259259261, 24.241805555555537]]], [[[89.75569444444444, 24.495416666666664], [89.74430555555556, 24.499305555555555], [89.74319444444444, 24.49513888888889], [89.74152777777778, 24.511527777777776], [89.75569444444444, 24.495416666666664]]], [[[89.66263888888889, 24.075138888888887], [89.65597222222223, 24.084305555555556], [89.65930555555556, 24.088194444444444], [89.65930555555556, 24.080694444444443], [89.66291666666667, 24.09097222222222], [89.66263888888889, 24.075138888888887]]], [[[89.64402777777778, 24.184305555555554], [89.65541666666667, 24.184027777777775], [89.64680555555556, 24.180138888888887], [89.64402777777778, 24.184305555555554]]], [[[89.62458333333333, 24.11125], [89.64069444444445, 24.10347222222222], [89.65541666666667, 24.07875], [89.62458333333333, 24.11125]]], [[[89.63152777777778, 24.18958333333333], [89.64152777777778, 24.20208333333333], [89.64347222222223, 24.19847222222222], [89.63875, 24.207916666666666], [89.64291666666666, 24.206805555555555], [89.64402777777778, 24.19625], [89.63152777777778, 24.18958333333333]]], [[[89.58736111111111, 24.11875], [89.59115412776863, 24.10857781896394], [89.57875, 24.11208333333333], [89.58041666666666, 24.11958333333333], [89.58458333333334, 24.115972222222222], [89.58125, 24.120416666666664], [89.58736111111111, 24.11875]]], [[[89.57902777777778, 24.14736111111111], [89.58125, 24.143472222222222], [89.56958333333334, 24.14486111111111], [89.57958333333333, 24.154305555555553], [89.57902777777778, 24.14736111111111]]], [[[89.57208333333334, 24.174305555555556], [89.56708333333333, 24.17736111111111], [89.57263888888889, 24.181527777777777], [89.57708333333333, 24.179027777777776], [89.57208333333334, 24.174305555555556]]], [[[89.56180555555555, 24.19708333333333], [89.5676388888889, 24.205694444444443], [89.56597222222223, 24.187638888888888], [89.55041666666666, 24.180694444444445], [89.55402777777778, 24.18819444444444], [89.54597222222222, 24.19458333333333], [89.55208333333334, 24.18986111111111], [89.56180555555555, 24.19708333333333]]], [[[89.56041666666667, 24.346527777777776], [89.55680555555556, 24.34347222222222], [89.56597222222223, 24.372083333333332], [89.56041666666667, 24.346527777777776]]], [[[89.50430555555556, 24.556527777777777], [89.52041666666666, 24.553194444444443], [89.52236111111111, 24.54736111111111], [89.50430555555556, 24.556527777777777]]], [[[89.48069444444445, 24.370416666666664], [89.47486111111111, 24.36097222222222], [89.47597222222223, 24.374027777777776], [89.48069444444445, 24.370416666666664]]], [[[89.46208333333334, 24.31597222222222], [89.45263888888888, 24.294305555555553], [89.45708333333333, 24.318194444444444], [89.46791666666667, 24.323194444444443], [89.47069444444445, 24.318749999999998], [89.46208333333334, 24.31597222222222]]], [[[89.4276388888889, 24.25597222222222], [89.42736111111111, 24.262916666666666], [89.42819444444444, 24.25847222222222], [89.43625, 24.260416666666664], [89.43625, 24.27097222222222], [89.43827680067001, 24.270419458403126], [89.43458333333334, 24.275138888888886], [89.44569444444444, 24.27208333333333], [89.44118827160494, 24.26962542087542], [89.44541666666667, 24.268472222222222], [89.43930555555556, 24.25236111111111], [89.42791666666668, 24.248472222222222], [89.4276388888889, 24.25597222222222]]], [[[89.43736111111112, 24.332083333333333], [89.42708333333334, 24.329305555555553], [89.43930555555556, 24.338749999999997], [89.43736111111112, 24.332083333333333]]], [[[89.26902777777778, 24.433194444444442], [89.29847222222223, 24.424305555555556], [89.33319444444444, 24.387361111111108], [89.34041666666667, 24.387083333333333], [89.34152777777778, 24.393472222222222], [89.34125, 24.38847222222222], [89.35152777777778, 24.390138888888888], [89.34902777777778, 24.379027777777775], [89.35986111111112, 24.37875], [89.34041666666667, 24.377916666666664], [89.33791666666667, 24.36847222222222], [89.34902777777778, 24.369305555555552], [89.33763888888889, 24.363194444444442], [89.34208333333333, 24.363194444444442], [89.34152777777778, 24.35347222222222], [89.32791666666667, 24.350694444444443], [89.33180555555556, 24.381249999999998], [89.32263888888889, 24.38958333333333], [89.32597222222222, 24.394027777777776], [89.29652777777778, 24.396805555555556], [89.30125, 24.401805555555555], [89.30319444444444, 24.396527777777777], [89.32180555555556, 24.398194444444442], [89.29902777777778, 24.421805555555554], [89.26791666666666, 24.43208333333333], [89.26152777777779, 24.42458333333333], [89.25625000000001, 24.42736111111111], [89.26902777777778, 24.433194444444442]], [[89.33625, 24.372638888888886], [89.33236111111111, 24.37097222222222], [89.33736111111111, 24.36847222222222], [89.33930555555555, 24.377916666666664], [89.33625, 24.372638888888886]], [[89.33625, 24.360416666666666], [89.33402777777778, 24.36486111111111], [89.32986111111111, 24.358749999999997], [89.33625, 24.360416666666666]]], [[[89.31291666666667, 24.358194444444443], [89.31347222222223, 24.35097222222222], [89.30791666666667, 24.374583333333334], [89.28986111111111, 24.376527777777778], [89.30875, 24.37486111111111], [89.31291666666667, 24.358194444444443]]]]}}