{"type": "Feature", "properties": {}, "geometry": {"type": "MultiPolygon", "coordinates": [[[[89.82041666666667, 24.07736111111111], [89.80430555555556, 24.069305555555555], [89.82430555555555, 24.08486111111111], [89.82041666666667, 24.07736111111111]]], [[[89.52946103526735, 24.54249004550625], [89.52597222222222, 24.531805555555554], [89.53680555555556, 24.526805555555555], [89.51680555555556, 24.519583333333333], [89.52680555555555, 24.510694444444443], [89.51458333333333, 24.501527777777778], [89.51486111111112, 24.48847222222222], [89.53180555555556, 24.49486111111111], [89.53430555555556, 24.485694444444444], [89.5267324561403, 24.479203216374213], [89.53319444444445, 24.485416666666666], [89.53125, 24.494305555555552], [89.51486111111112, 24.48708333333333], [89.51375, 24.50236111111111], [89.52569444444444, 24.51097222222222], [89.51597222222223, 24.51986111111111], [89.53597222222223, 24.526805555555555], [89.52458333333334, 24.531805555555554], [89.52946103526735, 24.54249004550625]]], [[[89.54186144245638, 24.471128617185773], [89.54486111111112, 24.469583333333333], [89.54806533646322, 24.449289906103285], [89.54680555555557, 24.44875], [89.54186144245638, 24.471128617185773]]], [[[89.56641283524907, 24.44722222222227], [89.56736111111111, 24.44875], [89.57319444444445, 24.436527777777776], [89.58541666666667, 24.43986111111111], [89.59291959835826, 24.428994796247437], [89.59201851851851, 24.426935185185176], [89.58819444444444, 24.434583333333332], [89.57263888888889, 24.435972222222222], [89.56708333333333, 24.448194444444443], [89.56641283524907, 24.44722222222227]]], [[[89.61307833154697, 24.439535994998213], [89.61569444444444, 24.44125], [89.6126388888889, 24.47458333333333], [89.62236111111112, 24.490138888888886], [89.61125, 24.49513888888889], [89.61235723964384, 24.497756000774352], [89.61180555555556, 24.495694444444442], [89.62319444444445, 24.490694444444443], [89.61347222222223, 24.47458333333333], [89.61597222222223, 24.44013888888889], [89.61307833154697, 24.439535994998213]]], [[[89.61578074796384, 24.510549110812217], [89.60236111111111, 24.518749999999997], [89.59986111111111, 24.545416666666664], [89.60319444444444, 24.518749999999997], [89.61708333333334, 24.515416666666667], [89.61578074796384, 24.510549110812217]]], [[[89.58829907822621, 24.418433607374208], [89.58041666666666, 24.400416666666665], [89.59180555555555, 24.39125], [89.60625, 24.391527777777778], [89.61125, 24.377916666666664], [89.60700836659502, 24.37512818544673], [89.60652777777779, 24.389305555555556], [89.58902777777779, 24.390694444444442], [89.57819444444445, 24.401527777777776], [89.58829907822621, 24.418433607374208]]], [[[89.59272058823528, 24.365735294117638], [89.58125, 24.358194444444443], [89.58736111111111, 24.349305555555553], [89.59569444444445, 24.34708333333333], [89.59486111111111, 24.352638888888887], [89.60013888888889, 24.34097222222222], [89.59180555555555, 24.334305555555556], [89.57680555555555, 24.335694444444442], [89.59069444444445, 24.317916666666665], [89.58541666666667, 24.304583333333333], [89.59347222222223, 24.304305555555555], [89.59625, 24.294027777777778], [89.59417139077854, 24.292323318216184], [89.59319444444445, 24.30013888888889], [89.58319444444444, 24.304583333333333], [89.58875, 24.31625], [89.57541666666667, 24.33597222222222], [89.59902777777778, 24.34125], [89.58458333333334, 24.34875], [89.57986111111111, 24.359305555555554], [89.59272058823528, 24.365735294117638]]], [[[89.59119152046782, 24.289879824561392], [89.58236111111111, 24.282638888888886], [89.58763888888889, 24.27263888888889], [89.57751230661039, 24.249347749648322], [89.58486111111111, 24.27236111111111], [89.58041666666666, 24.285138888888888], [89.59119152046782, 24.289879824561392]]], [[[89.57663140177073, 24.246589126597787], [89.5801388888889, 24.22986111111111], [89.60402777777779, 24.225416666666664], [89.63374156789052, 24.244400477016477], [89.63402777777777, 24.24375], [89.60347222222222, 24.224027777777778], [89.60791666666667, 24.21708333333333], [89.60263888888889, 24.205972222222222], [89.62180555555555, 24.202916666666667], [89.62902777777778, 24.19236111111111], [89.62227613621734, 24.18925180249775], [89.62569444444445, 24.195138888888888], [89.60097222222223, 24.206249999999997], [89.60041666666667, 24.224305555555553], [89.58041666666666, 24.227916666666665], [89.57430555555555, 24.239305555555553], [89.57663140177073, 24.246589126597787]]], [[[89.61430598890621, 24.185581339920258], [89.60791666666667, 24.18263888888889], [89.60486111111112, 24.165138888888887], [89.59041666666667, 24.157083333333333], [89.59347222222223, 24.14597222222222], [89.60763888888889, 24.139027777777777], [89.59291666666667, 24.12763888888889], [89.60211526181355, 24.113909642401012], [89.61430555555556, 24.105694444444442], [89.60791666666667, 24.117916666666666], [89.61430555555556, 24.107916666666664], [89.61597222222223, 24.13597222222222], [89.63291666666667, 24.140416666666667], [89.63875, 24.136527777777776], [89.62208333333334, 24.136527777777776], [89.64180555555556, 24.12708333333333], [89.64069444444445, 24.12597222222222], [89.61680555555556, 24.135416666666664], [89.61736111111111, 24.10458333333333], [89.63736111111112, 24.087083333333332], [89.63041666666668, 24.08347222222222], [89.61652777777778, 24.096805555555555], [89.60041666666667, 24.101527777777775], [89.58791666666667, 24.127916666666664], [89.57652476173241, 24.131004192303052], [89.57875, 24.131527777777777], [89.56819444444444, 24.134027777777778], [89.57039499857915, 24.13266552998011], [89.55819444444445, 24.13597222222222], [89.54291666666667, 24.129305555555554], [89.54402777777779, 24.13847222222222], [89.54041666666667, 24.131527777777777], [89.52930555555555, 24.136527777777776], [89.52180555555556, 24.15375], [89.52847222222222, 24.16263888888889], [89.53208333333333, 24.158749999999998], [89.52791666666667, 24.16847222222222], [89.54236111111112, 24.151527777777776], [89.5351388888889, 24.172916666666666], [89.52069444444444, 24.177638888888886], [89.51736111111111, 24.185416666666665], [89.52513888888889, 24.19125], [89.51958333333333, 24.200416666666666], [89.55125, 24.17625], [89.54513888888889, 24.170694444444443], [89.55708333333334, 24.174305555555556], [89.5658640491453, 24.166227297008547], [89.55680555555556, 24.165694444444444], [89.55541666666667, 24.157916666666665], [89.56347222222223, 24.15597222222222], [89.55763888888889, 24.164027777777775], [89.56708333333333, 24.16208333333333], [89.56634259259259, 24.165787037037045], [89.57097222222222, 24.161527777777778], [89.56319444444445, 24.16069444444444], [89.56625, 24.150416666666665], [89.55875, 24.137916666666666], [89.57541666666667, 24.13597222222222], [89.57041666666667, 24.139027777777777], [89.57819444444445, 24.14125], [89.58513888888889, 24.137361111111108], [89.58152777777778, 24.13486111111111], [89.59736111111111, 24.131805555555555], [89.60208333333334, 24.136527777777776], [89.59069444444445, 24.146805555555556], [89.59130938697318, 24.13942624521076], [89.58625, 24.161527777777778], [89.60180555555556, 24.166249999999998], [89.60569444444445, 24.184305555555554], [89.61430598890621, 24.185581339920258]], [[89.60250420875423, 24.11332912457911], [89.61152777777778, 24.09986111111111], [89.62069444444445, 24.095138888888886], [89.60250420875423, 24.11332912457911]]], [[[89.64180555555556, 24.127083333333335], [89.64819444444444, 24.15486111111111], [89.67736111111111, 24.152916666666666], [89.69486111111111, 24.175416666666667], [89.6926388888889, 24.19125], [89.70402777777778, 24.207916666666666], [89.70708333333333, 24.229027777777777], [89.71098723723725, 24.228637387387383], [89.70704494760868, 24.236007754953825], [89.71208333333334, 24.247916666666665], [89.70958333333334, 24.251527777777778], [89.70180555555555, 24.24597222222222], [89.70195512820513, 24.24552350427351], [89.70097222222222, 24.24736111111111], [89.70847222222223, 24.251805555555553], [89.70802064454668, 24.255105546261444], [89.71402777777779, 24.249305555555555], [89.71291666666667, 24.238194444444442], [89.72569444444444, 24.245694444444442], [89.73541666666667, 24.264305555555556], [89.73180555555555, 24.251805555555553], [89.75347222222223, 24.26125], [89.76180555555555, 24.29736111111111], [89.75680555555556, 24.31458333333333], [89.73069444444445, 24.30708333333333], [89.72291666666666, 24.277638888888887], [89.70958333333334, 24.26597222222222], [89.70730205599301, 24.26035677030755], [89.70596980851235, 24.27009242497385], [89.72069444444445, 24.276249999999997], [89.72930555555556, 24.306805555555552], [89.75652777777778, 24.317083333333333], [89.75486111111111, 24.34708333333333], [89.76458333333333, 24.340416666666666], [89.77263888888889, 24.32597222222222], [89.77402777777777, 24.301805555555553], [89.78430555555556, 24.291527777777777], [89.78097222222223, 24.285416666666666], [89.78791666666667, 24.285416666666666], [89.77819444444445, 24.275972222222222], [89.77541666666667, 24.23625], [89.79513888888889, 24.171527777777776], [89.78013888888889, 24.166249999999998], [89.78763888888889, 24.157916666666665], [89.7976388888889, 24.159305555555555], [89.78680555555556, 24.129027777777775], [89.79097222222222, 24.077916666666667], [89.78319444444445, 24.059583333333332], [89.78347222222223, 24.034027777777776], [89.76375, 24.023194444444442], [89.77569444444444, 24.04736111111111], [89.76930555555556, 24.06375], [89.74402777777777, 24.053749999999997], [89.7526388888889, 24.029305555555553], [89.75097222222223, 24.036805555555553], [89.75402777777778, 24.030694444444443], [89.76152777777779, 24.045972222222222], [89.7551388888889, 24.02986111111111], [89.75819444444444, 24.02236111111111], [89.74430555555556, 24.028194444444445], [89.74291666666667, 24.02236111111111], [89.72180555555556, 24.01347222222222], [89.70986111111111, 24.01986111111111], [89.71263888888889, 24.08375], [89.71569444444445, 24.080694444444443], [89.71708333333333, 24.086527777777775], [89.71291666666667, 24.089583333333334], [89.70597222222223, 24.082083333333333], [89.70319444444445, 24.039861111111108], [89.68291666666667, 24.034305555555555], [89.6876388888889, 24.072916666666664], [89.68236111111112, 24.07736111111111], [89.6876388888889, 24.079027777777778], [89.68902777777778, 24.072916666666664], [89.69152777777778, 24.081805555555555], [89.6900408496732, 24.08308006535948], [89.69291666666668, 24.081249999999997], [89.68819444444445, 24.06625], [89.69208333333333, 24.07097222222222], [89.68958333333333, 24.062638888888888], [89.69458333333334, 24.062916666666666], [89.69791666666667, 24.07847222222222], [89.68513888888889, 24.089027777777776], [89.68632168458781, 24.08626792114696], [89.68180555555556, 24.090138888888887], [89.67347222222223, 24.06597222222222], [89.66319444444444, 24.07208333333333], [89.67319444444445, 24.085416666666664], [89.66763888888889, 24.12486111111111], [89.67652777777778, 24.152638888888887], [89.668984270415, 24.150175702811243], [89.67152777777778, 24.152083333333334], [89.64902777777777, 24.15458333333333], [89.64708333333334, 24.13375], [89.6526388888889, 24.13791666666667], [89.64180555555556, 24.127083333333335]], [[89.71205855315748, 24.226634492406074], [89.7076388888889, 24.212638888888886], [89.71375, 24.22347222222222], [89.71205855315748, 24.226634492406074]], [[89.77847222222222, 24.069027777777777], [89.77513888888889, 24.074305555555554], [89.77458333333334, 24.06597222222222], [89.77847222222222, 24.069027777777777]], [[89.76569444444445, 24.066805555555554], [89.76930555555556, 24.09986111111111], [89.73986111111111, 24.076527777777777], [89.74486111111112, 24.064305555555553], [89.7551388888889, 24.076249999999998], [89.75097222222223, 24.062083333333334], [89.76569444444445, 24.066805555555554]], [[89.71513888888889, 24.173194444444444], [89.71430555555555, 24.146527777777777], [89.72402777777778, 24.137638888888887], [89.72640873015872, 24.140972222222203], [89.72486111111111, 24.138194444444444], [89.72513888888889, 24.12125], [89.71125, 24.110416666666666], [89.71013888888889, 24.097916666666666], [89.71569444444445, 24.10347222222222], [89.7201388888889, 24.09847222222222], [89.73208333333334, 24.121527777777775], [89.76625, 24.152916666666666], [89.76708333333333, 24.192083333333333], [89.75541666666668, 24.22513888888889], [89.73625, 24.216805555555553], [89.74125000000001, 24.215416666666666], [89.71041666666667, 24.184583333333332], [89.71236111111111, 24.17347222222222], [89.71819444444445, 24.184305555555554], [89.71569444444445, 24.17597222222222], [89.71952880027267, 24.175546182685753], [89.71513888888889, 24.173194444444444]], [[89.76513888888888, 24.124027777777776], [89.75180555555556, 24.108194444444443], [89.76152777777779, 24.113194444444442], [89.76513888888888, 24.124027777777776]], [[89.74986111111112, 24.05625], [89.7598611111111, 24.061527777777776], [89.74819444444445, 24.060416666666665], [89.74986111111112, 24.05625]], [[89.74791666666667, 24.09263888888889], [89.74569444444445, 24.089305555555555], [89.75569444444444, 24.09486111111111], [89.74791666666667, 24.09263888888889]], [[89.72402777777778, 24.236805555555556], [89.72125, 24.228749999999998], [89.72541666666667, 24.233472222222222], [89.74263888888889, 24.22847222222222], [89.75208333333333, 24.239027777777775], [89.72402777777778, 24.236805555555556]], [[89.7401388888889, 24.05847222222222], [89.7376388888889, 24.067083333333333], [89.73430555555557, 24.06375], [89.7401388888889, 24.05847222222222]], [[89.73347222222222, 24.25069444444444], [89.73013888888889, 24.248194444444444], [89.7376388888889, 24.251527777777778], [89.73347222222222, 24.25069444444444]], [[89.72347222222223, 24.21486111111111], [89.73013888888889, 24.219027777777775], [89.71958333333333, 24.21708333333333], [89.71375, 24.205138888888886], [89.72347222222223, 24.21486111111111]], [[89.70347222222223, 24.11875], [89.70875000000001, 24.11208333333333], [89.71236111111111, 24.119305555555552], [89.70930555555556, 24.11208333333333], [89.72486111111111, 24.130694444444444], [89.71347222222222, 24.141527777777778], [89.70930555555556, 24.159027777777776], [89.70013888888889, 24.140416666666667], [89.70347222222223, 24.11875]], [[89.69597222222222, 24.091805555555553], [89.70708333333333, 24.087638888888886], [89.70486111111111, 24.101805555555554], [89.69569444444444, 24.102916666666665], [89.69597222222222, 24.091805555555553]], [[89.67625, 24.116805555555555], [89.67986111111111, 24.129305555555554], [89.68486111111112, 24.104027777777777], [89.69875, 24.11208333333333], [89.69763888888889, 24.10597222222222], [89.70569444444445, 24.105138888888888], [89.69819444444445, 24.12013888888889], [89.69352777777776, 24.11713888888887], [89.69763888888889, 24.12125], [89.6973611111111, 24.149027777777775], [89.67458333333333, 24.129305555555554], [89.67625, 24.116805555555555]], [[89.69930555555555, 24.152083333333334], [89.69902777777779, 24.146805555555556], [89.70569444444445, 24.158194444444444], [89.69930555555555, 24.152083333333334]], [[89.69680555555556, 24.05097222222222], [89.70263888888888, 24.05097222222222], [89.70152777777778, 24.056805555555552], [89.69680555555556, 24.05097222222222]], [[89.69319444444444, 24.18986111111111], [89.69541666666667, 24.184027777777775], [89.69680555555556, 24.194305555555555], [89.69319444444444, 24.18986111111111]], [[89.68291666666667, 24.14625], [89.69291666666668, 24.16263888888889], [89.67680555555556, 24.14236111111111], [89.68291666666667, 24.14625]]], [[[89.70587038717484, 24.270818965517247], [89.70486111111111, 24.278194444444445], [89.71986111111111, 24.301805555555553], [89.71513888888889, 24.33347222222222], [89.72708333333334, 24.344027777777775], [89.72097222222223, 24.374305555555555], [89.72377968617474, 24.376586620016965], [89.72819444444444, 24.344027777777775], [89.71541666666667, 24.33236111111111], [89.72041666666667, 24.301527777777775], [89.70587038717484, 24.270818965517247]]], [[[89.7240842650827, 24.376834090379685], [89.72986111111112, 24.381527777777777], [89.74541666666667, 24.379305555555554], [89.75402777777778, 24.398194444444442], [89.74763888888889, 24.41208333333333], [89.74291666666667, 24.407083333333333], [89.7226388888889, 24.421249999999997], [89.71597222222222, 24.44013888888889], [89.72180555555556, 24.46013888888889], [89.71347222222222, 24.47986111111111], [89.69847222222222, 24.48097222222222], [89.6876388888889, 24.494027777777777], [89.70458333333333, 24.481805555555553], [89.68625, 24.527916666666666], [89.69347222222223, 24.52236111111111], [89.66791666666667, 24.558194444444442], [89.66319444444444, 24.58513888888889], [89.66057061579652, 24.588418674698797], [89.66430555555556, 24.58625], [89.66597222222222, 24.590138888888887], [89.66180555555556, 24.608472222222222], [89.65997777777778, 24.60821111111111], [89.66180555555556, 24.609027777777776], [89.66291666666667, 24.650972222222222], [89.65125, 24.669305555555553], [89.64041666666667, 24.67458333333333], [89.64652777777778, 24.672083333333333], [89.64180555555556, 24.678749999999997], [89.65291666666667, 24.68236111111111], [89.6601388888889, 24.678194444444443], [89.66458333333334, 24.685972222222222], [89.66152777777778, 24.677638888888886], [89.66819444444445, 24.672083333333333], [89.66763888888889, 24.687083333333334], [89.67625, 24.68958333333333], [89.68375, 24.67986111111111], [89.67819444444444, 24.690416666666664], [89.69236111111111, 24.69486111111111], [89.69402777777778, 24.685416666666665], [89.69819444444445, 24.696805555555553], [89.70902777777778, 24.700138888888887], [89.69819444444445, 24.681805555555552], [89.70180555555555, 24.674027777777777], [89.70708333333333, 24.69347222222222], [89.70430555555556, 24.67458333333333], [89.71486111111112, 24.624583333333334], [89.75208333333333, 24.59708333333333], [89.73819444444445, 24.57986111111111], [89.75958333333334, 24.560416666666665], [89.76569444444445, 24.540138888888887], [89.76013888888889, 24.549027777777777], [89.75902777777777, 24.538194444444443], [89.75208333333333, 24.53736111111111], [89.75763888888889, 24.54847222222222], [89.75402777777778, 24.55875], [89.74458333333334, 24.568194444444444], [89.73625, 24.566805555555554], [89.74680555555555, 24.54375], [89.71902777777778, 24.494305555555552], [89.72791666666667, 24.477361111111108], [89.74263888888889, 24.46763888888889], [89.74236111111111, 24.455694444444443], [89.7551388888889, 24.455416666666665], [89.74736111111112, 24.435138888888886], [89.73652777777778, 24.44125], [89.73125, 24.43347222222222], [89.73986111111111, 24.41736111111111], [89.74319444444444, 24.424027777777777], [89.74736111111112, 24.41708333333333], [89.74347222222222, 24.42625], [89.74930555555555, 24.424305555555556], [89.76597222222223, 24.37569444444444], [89.76125, 24.385694444444443], [89.75736111111111, 24.366249999999997], [89.7551388888889, 24.395694444444445], [89.74652777777779, 24.37875], [89.7240842650827, 24.376834090379685]], [[89.71013888888889, 24.60458333333333], [89.73060356652951, 24.590060013717416], [89.71680555555555, 24.594305555555554], [89.72652777777778, 24.574305555555554], [89.7311850974197, 24.589647314375988], [89.73597222222223, 24.58625], [89.74625, 24.59708333333333], [89.71263888888889, 24.623194444444444], [89.71152777777777, 24.614583333333332], [89.71013888888889, 24.625138888888888], [89.70319444444445, 24.625416666666666], [89.70069444444445, 24.615972222222222], [89.71013888888889, 24.60458333333333]], [[89.74180555555556, 24.567916666666665], [89.7351388888889, 24.58597222222222], [89.72875, 24.57208333333333], [89.74180555555556, 24.567916666666665]], [[89.70013888888889, 24.551805555555553], [89.704034992785, 24.556134559884555], [89.70236111111112, 24.550694444444442], [89.70902777777778, 24.54513888888889], [89.71510562208915, 24.553821523619437], [89.71069444444444, 24.54347222222222], [89.72097222222223, 24.545972222222222], [89.72319444444445, 24.554305555555555], [89.73041666666667, 24.54986111111111], [89.72986111111112, 24.554583333333333], [89.71791666666667, 24.560416666666665], [89.71641543519681, 24.556894546679676], [89.71041666666667, 24.566805555555554], [89.71819444444445, 24.56319444444444], [89.70791666666666, 24.568749999999998], [89.70497989150768, 24.559205480733272], [89.70375, 24.57347222222222], [89.69819444444445, 24.565416666666664], [89.70013888888889, 24.551805555555553]], [[89.71875, 24.520416666666666], [89.71875, 24.506249999999998], [89.72958333333334, 24.531805555555554], [89.72097222222223, 24.52958333333333], [89.71875, 24.520416666666666]], [[89.70430555555556, 24.59664426523297], [89.70152777777778, 24.59875], [89.69930555555555, 24.635694444444443], [89.69486111111111, 24.637638888888887], [89.69208333333333, 24.606527777777778], [89.71736111111112, 24.579583333333332], [89.71875, 24.585694444444442], [89.7049384767903, 24.59616447010341], [89.71458333333334, 24.59486111111111], [89.70430555555556, 24.60763888888889], [89.70430555555556, 24.59664426523297]], [[89.70875000000001, 24.636805555555554], [89.70263888888888, 24.626527777777778], [89.71041666666667, 24.629583333333333], [89.70875000000001, 24.636805555555554]], [[89.70263888888888, 24.53013888888889], [89.69708333333334, 24.542916666666667], [89.6901388888889, 24.541527777777777], [89.70069444444445, 24.52236111111111], [89.70263888888888, 24.53013888888889]], [[89.70180555555555, 24.640416666666667], [89.69763888888889, 24.664583333333333], [89.68986111111111, 24.64486111111111], [89.69319444444444, 24.639305555555556], [89.70180555555555, 24.640416666666667]], [[89.6901388888889, 24.552916666666665], [89.68097222222222, 24.560416666666665], [89.68375, 24.547638888888887], [89.6901388888889, 24.552916666666665]], [[89.68847222222223, 24.582916666666666], [89.68958333333333, 24.573194444444443], [89.68902777777778, 24.59236111111111], [89.67708333333334, 24.596527777777776], [89.68041666666667, 24.584027777777777], [89.68847222222223, 24.582916666666666]], [[89.68402777777779, 24.671527777777776], [89.67875000000001, 24.66097222222222], [89.68708333333333, 24.66347222222222], [89.68402777777779, 24.671527777777776]], [[89.68680555555555, 24.615972222222222], [89.68263888888889, 24.646805555555556], [89.67680555555556, 24.622638888888886], [89.68680555555555, 24.615972222222222]], [[89.68597222222222, 24.56486111111111], [89.68180555555556, 24.574305555555554], [89.67875000000001, 24.56375], [89.68486111111112, 24.56375], [89.68180555555556, 24.57097222222222], [89.68597222222222, 24.56486111111111]]], [[[89.63136304909561, 24.24980620155038], [89.62708333333333, 24.25819444444444], [89.66661152001232, 24.29606410580823], [89.66736111111112, 24.295694444444443], [89.62791666666666, 24.257638888888888], [89.63136304909561, 24.24980620155038]]], [[[89.79013888888889, 24.674305555555556], [89.78236111111111, 24.671527777777776], [89.78486111111111, 24.626805555555553], [89.76375, 24.645138888888887], [89.74069444444444, 24.684027777777775], [89.74875, 24.691805555555554], [89.79430555555555, 24.67513888888889], [89.78708333333334, 24.677638888888886], [89.79013888888889, 24.674305555555556]], [[89.77958333333333, 24.661527777777778], [89.76263888888889, 24.664583333333333], [89.7826388888889, 24.63847222222222], [89.77958333333333, 24.661527777777778]], [[89.77513888888889, 24.67375], [89.7551388888889, 24.678749999999997], [89.76958333333333, 24.665416666666665], [89.77791666666667, 24.665138888888887], [89.77513888888889, 24.67375]]], [[[89.72162982177355, 24.176671729918368], [89.72358274499916, 24.179292107917295], [89.73319444444445, 24.172083333333333], [89.73569444444445, 24.157638888888886], [89.73242787488873, 24.15177581532735], [89.73291666666667, 24.16986111111111], [89.72291666666666, 24.17736111111111], [89.72162982177355, 24.176671729918368]]], [[[89.75569444444444, 24.495416666666664], [89.74430555555556, 24.499305555555555], [89.74319444444444, 24.49513888888889], [89.74152777777778, 24.511527777777776], [89.75569444444444, 24.495416666666664]]], [[[89.69184032451024, 24.116054097502612], [89.68652777777778, 24.11263888888889], [89.68513888888889, 24.12597222222222], [89.69184032451024, 24.116054097502612]]], [[[89.64902777777777, 24.089583333333334], [89.65430555555555, 24.077916666666667], [89.64402777777778, 24.096805555555555], [89.62680555555556, 24.106805555555553], [89.64180555555556, 24.100694444444443], [89.64902777777777, 24.089583333333334]]], [[[89.60902777777778, 24.24736111111111], [89.5976388888889, 24.25125], [89.61875, 24.250138888888888], [89.62569444444445, 24.23986111111111], [89.60902777777778, 24.24736111111111]]], [[[89.60618764172337, 24.345174319727896], [89.61402777777778, 24.352361111111108], [89.60859027777778, 24.35940972222222], [89.6151388888889, 24.355416666666667], [89.61430555555556, 24.34847222222222], [89.60618764172337, 24.345174319727896]]], [[[89.60347222222222, 24.185972222222222], [89.60263888888889, 24.195138888888888], [89.60847222222222, 24.18819444444444], [89.60347222222222, 24.185972222222222]]], [[[89.56291666666667, 24.18875], [89.55430555555556, 24.184305555555554], [89.55180555555556, 24.189305555555553], [89.56430555555556, 24.19736111111111], [89.56291666666667, 24.18875]]], [[[89.53291666666667, 24.214305555555555], [89.52486111111111, 24.216527777777777], [89.53236111111111, 24.21597222222222], [89.52902777777778, 24.22458333333333], [89.53541666666666, 24.22458333333333], [89.53291666666667, 24.214305555555555]]], [[[89.52375, 24.212083333333332], [89.5351388888889, 24.213194444444444], [89.53541666666666, 24.207638888888887], [89.52625, 24.20875], [89.52708333333334, 24.200416666666666], [89.51986111111111, 24.20347222222222], [89.51597222222223, 24.19736111111111], [89.51569444444445, 24.20986111111111], [89.52319444444444, 24.206249999999997], [89.52375, 24.212083333333332]]], [[[89.49058276059564, 24.261135452462774], [89.48791666666666, 24.24513888888889], [89.49625, 24.24236111111111], [89.49708333333334, 24.22319444444444], [89.50347222222223, 24.215694444444445], [89.49652777777779, 24.222638888888888], [89.49569444444445, 24.241805555555555], [89.48736111111111, 24.242638888888887], [89.48791666666666, 24.25875], [89.49058276059564, 24.261135452462774]]], [[[89.4935809178744, 24.27912439613526], [89.49375, 24.28597222222222], [89.50541666666668, 24.290694444444444], [89.50541666666668, 24.310972222222222], [89.51236111111112, 24.315694444444443], [89.50597222222223, 24.310694444444444], [89.50819444444444, 24.295972222222222], [89.50763888888889, 24.290416666666665], [89.49458333333334, 24.285138888888888], [89.4935809178744, 24.27912439613526]]], [[[89.48119444444444, 24.23108333333332], [89.47902777777779, 24.228749999999998], [89.45708333333333, 24.235138888888887], [89.45791666666666, 24.230416666666667], [89.45597222222223, 24.23736111111111], [89.46763888888889, 24.234027777777776], [89.46208333333334, 24.243194444444445], [89.47958333333334, 24.22986111111111], [89.48119444444444, 24.23108333333332]]], [[[89.48292418362352, 24.232395549262286], [89.4876388888889, 24.23597222222222], [89.49180555555556, 24.228194444444444], [89.48986111111111, 24.236527777777777], [89.49625, 24.225416666666664], [89.49569444444445, 24.215416666666666], [89.48652777777778, 24.222638888888888], [89.48375, 24.211805555555554], [89.46875, 24.206249999999997], [89.48375, 24.212638888888886], [89.47708333333334, 24.220694444444444], [89.48458333333333, 24.221527777777776], [89.47791666666667, 24.227083333333333], [89.4851388888889, 24.224027777777778], [89.48668650793651, 24.229186507936504], [89.48292418362352, 24.232395549262286]]], [[[89.43513888888889, 24.30486111111111], [89.43680555555555, 24.312083333333334], [89.43680555555555, 24.29986111111111], [89.44652777777777, 24.30236111111111], [89.44625, 24.289861111111108], [89.45791666666666, 24.284027777777776], [89.45930555555556, 24.289305555555554], [89.45930555555556, 24.282916666666665], [89.46819444444445, 24.280694444444443], [89.46180555555556, 24.280694444444443], [89.46222649067508, 24.2771866517818], [89.45625, 24.282638888888886], [89.45263888888888, 24.265694444444442], [89.44847222222222, 24.272916666666664], [89.45597222222223, 24.283472222222223], [89.44347222222223, 24.289305555555554], [89.44375000000001, 24.29486111111111], [89.43847222222223, 24.290694444444444], [89.43513888888889, 24.30486111111111]]], [[[89.45986111111111, 24.244305555555552], [89.47069444444445, 24.249027777777776], [89.46791666666667, 24.242916666666666], [89.45986111111111, 24.244305555555552]]], [[[89.46458333333334, 24.251805555555553], [89.4701388888889, 24.249583333333334], [89.46013888888889, 24.24513888888889], [89.46458333333334, 24.251805555555553]]], [[[89.33819444444444, 24.378194444444443], [89.33236111111111, 24.36847222222222], [89.33736111111111, 24.36847222222222], [89.33986111111112, 24.380694444444444], [89.30208333333334, 24.418194444444442], [89.33930555555555, 24.381527777777777], [89.34069444444445, 24.38625], [89.33736111111111, 24.362916666666667], [89.34208333333333, 24.36236111111111], [89.33486111111111, 24.34958333333333], [89.33708333333334, 24.368194444444445], [89.33041666666666, 24.35347222222222], [89.32597222222222, 24.357916666666664], [89.33097222222223, 24.376805555555553], [89.33819444444444, 24.378194444444443]]], [[[89.31291666666667, 24.358194444444443], [89.31347222222223, 24.35097222222222], [89.30791666666667, 24.374583333333334], [89.28986111111111, 24.376527777777778], [89.30875, 24.37486111111111], [89.31291666666667, 24.358194444444443]]]]}}