{"type": "Feature", "properties": {}, "geometry": {"type": "MultiPolygon", "coordinates": [[[[89.31013888888889, 24.483472222222222], [89.31430555555556, 24.483749999999997], [89.31291666666667, 24.47319444444444], [89.31875000000001, 24.481527777777778], [89.31819444444444, 24.476805555555554], [89.32486111111112, 24.476527777777775], [89.31986111111111, 24.456527777777776], [89.3301388888889, 24.460416666666664], [89.33430555555556, 24.47375], [89.33902777777779, 24.471249999999998], [89.33569444444444, 24.463472222222222], [89.34180555555555, 24.465416666666666], [89.34153873239437, 24.45634467918623], [89.33958333333334, 24.455972222222222], [89.34125, 24.44708333333333], [89.35236111111111, 24.45486111111111], [89.35069444444444, 24.44875], [89.36236111111111, 24.454027777777778], [89.37930555555556, 24.446805555555553], [89.37152777777779, 24.44236111111111], [89.38152777777778, 24.435972222222222], [89.36375, 24.434305555555554], [89.3651388888889, 24.41986111111111], [89.37736111111111, 24.42597222222222], [89.38569444444445, 24.443749999999998], [89.38625, 24.435972222222222], [89.39375, 24.441805555555554], [89.40513888888889, 24.43958333333333], [89.40652777777778, 24.42986111111111], [89.38180555555556, 24.431527777777777], [89.40902777777778, 24.428472222222222], [89.40097222222222, 24.423194444444444], [89.40819444444445, 24.415416666666665], [89.39458333333333, 24.416527777777777], [89.38958333333333, 24.425416666666667], [89.38986111111112, 24.415138888888887], [89.3776388888889, 24.41125], [89.3951388888889, 24.406527777777775], [89.38041666666668, 24.402083333333334], [89.38347222222222, 24.395694444444445], [89.3751388888889, 24.388749999999998], [89.38041666666668, 24.37847222222222], [89.3651388888889, 24.379027777777775], [89.36291666666666, 24.384305555555553], [89.35791666666667, 24.372083333333332], [89.38236111111111, 24.377916666666664], [89.37569444444445, 24.37013888888889], [89.41208333333334, 24.379027777777775], [89.41430555555556, 24.374305555555555], [89.40791666666667, 24.372083333333332], [89.41513888888889, 24.36986111111111], [89.40680555555556, 24.365416666666665], [89.41347222222223, 24.364027777777775], [89.40847222222223, 24.36097222222222], [89.41569444444444, 24.35347222222222], [89.40291666666667, 24.350694444444443], [89.39791666666667, 24.365138888888886], [89.39958333333334, 24.354305555555555], [89.39152777777778, 24.346249999999998], [89.38680555555555, 24.35458333333333], [89.39069444444445, 24.36236111111111], [89.38430555555556, 24.365138888888886], [89.38625, 24.355138888888888], [89.37930555555556, 24.344305555555554], [89.38118575207862, 24.34341673538102], [89.3751388888889, 24.338194444444444], [89.37791666666666, 24.349027777777778], [89.37650938189846, 24.349276122148638], [89.37597222222223, 24.356527777777778], [89.37180555555555, 24.352916666666665], [89.376148989899, 24.34933972073678], [89.35902777777778, 24.352361111111108], [89.36208333333333, 24.366527777777776], [89.37180555555555, 24.37125], [89.33791666666667, 24.363194444444442], [89.36152777777778, 24.366527777777776], [89.35347222222222, 24.34819444444444], [89.32152777777777, 24.350694444444443], [89.32902777777778, 24.35736111111111], [89.32041666666667, 24.351527777777775], [89.32625, 24.360416666666666], [89.32541666666667, 24.381527777777777], [89.28958333333334, 24.39736111111111], [89.30069444444445, 24.38625], [89.28402777777778, 24.37847222222222], [89.29402777777779, 24.387361111111108], [89.28680555555556, 24.38847222222222], [89.2851388888889, 24.420416666666664], [89.27180555555556, 24.42736111111111], [89.2598611111111, 24.423194444444444], [89.24708333333334, 24.42736111111111], [89.25125, 24.436249999999998], [89.27541666666667, 24.44847222222222], [89.28375, 24.462083333333332], [89.28069444444445, 24.469583333333333], [89.28680555555556, 24.470694444444444], [89.28819444444444, 24.464583333333334], [89.30208333333334, 24.476805555555554], [89.29958333333333, 24.485694444444444], [89.31013888888889, 24.483472222222222]], [[89.36847222222222, 24.396527777777777], [89.36486111111111, 24.404305555555553], [89.36291666666666, 24.38458333333333], [89.37486111111112, 24.388194444444444], [89.36847222222222, 24.396527777777777]], [[89.3476388888889, 24.356805555555553], [89.34208333333333, 24.36263888888889], [89.34236111111112, 24.357083333333332], [89.35569444444445, 24.353749999999998], [89.3476388888889, 24.356805555555553]], [[89.34291666666667, 24.436249999999998], [89.35347222222222, 24.437083333333334], [89.35041666666667, 24.442638888888887], [89.34708333333333, 24.439027777777778], [89.35041666666667, 24.44486111111111], [89.33930555555555, 24.443749999999998], [89.3451388888889, 24.441805555555554], [89.34291666666667, 24.436249999999998]], [[89.3451388888889, 24.41069444444444], [89.35013888888889, 24.408194444444444], [89.34791666666666, 24.414583333333333], [89.34069444444445, 24.411527777777778], [89.3451388888889, 24.41069444444444]], [[89.33625, 24.416527777777777], [89.34291666666667, 24.42486111111111], [89.33402777777778, 24.422916666666666], [89.33625, 24.416527777777777]], [[89.33236111111111, 24.44597222222222], [89.33819444444444, 24.445138888888888], [89.32902777777778, 24.450416666666666], [89.33236111111111, 24.44597222222222]], [[89.32375, 24.429305555555555], [89.32902777777778, 24.43375], [89.31986111111111, 24.43208333333333], [89.32375, 24.429305555555555]], [[89.32347222222222, 24.449027777777776], [89.3176388888889, 24.453194444444442], [89.31652777777778, 24.449027777777776], [89.32347222222222, 24.449027777777776]]], [[[89.39819444444444, 24.33736111111111], [89.40875, 24.344305555555554], [89.41402777777778, 24.332638888888887], [89.42986111111111, 24.340138888888887], [89.42291666666667, 24.345138888888886], [89.42902777777778, 24.351805555555554], [89.42236111111112, 24.35458333333333], [89.43569444444445, 24.360138888888887], [89.43125, 24.367638888888887], [89.43736111111112, 24.372638888888886], [89.42875000000001, 24.376527777777778], [89.43736111111112, 24.373194444444444], [89.43597222222222, 24.38208333333333], [89.45208333333333, 24.388194444444444], [89.45208333333333, 24.359305555555554], [89.45847222222223, 24.357916666666664], [89.45236111111112, 24.353749999999998], [89.46291666666667, 24.353194444444444], [89.46875, 24.345138888888886], [89.46013888888889, 24.326249999999998], [89.47236111111111, 24.338194444444444], [89.48208333333334, 24.33486111111111], [89.48041666666667, 24.32708333333333], [89.48347222222222, 24.33625], [89.46763888888889, 24.356527777777778], [89.47125, 24.364583333333332], [89.46152777777777, 24.370416666666664], [89.46875, 24.382638888888888], [89.48291666666667, 24.38847222222222], [89.47819444444444, 24.37875], [89.48569444444445, 24.379583333333333], [89.48875, 24.37125], [89.49569444444445, 24.37569444444444], [89.49125000000001, 24.36847222222222], [89.49513888888889, 24.365138888888886], [89.4876388888889, 24.364027777777775], [89.50291666666666, 24.35763888888889], [89.5026217948718, 24.353805555555542], [89.50402777777778, 24.359027777777776], [89.51513888888888, 24.354027777777777], [89.50486111111111, 24.35347222222222], [89.5098611111111, 24.345138888888886], [89.51569444444445, 24.34819444444444], [89.50875, 24.325694444444444], [89.51402777777778, 24.327916666666667], [89.5176388888889, 24.355138888888888], [89.53087414089347, 24.351357388316153], [89.53125, 24.355416666666667], [89.51902777777778, 24.358472222222222], [89.51402777777778, 24.373472222222222], [89.5176388888889, 24.38097222222222], [89.52263888888889, 24.37763888888889], [89.51819444444445, 24.372083333333332], [89.51791666666666, 24.366527777777776], [89.52680555555555, 24.36986111111111], [89.52347222222222, 24.358472222222222], [89.53180555555556, 24.37097222222222], [89.54347222222222, 24.373749999999998], [89.54208333333334, 24.356805555555553], [89.54930555555556, 24.366527777777776], [89.55569444444444, 24.35013888888889], [89.53819444444444, 24.350416666666664], [89.53736111111111, 24.34263888888889], [89.52986111111112, 24.340416666666666], [89.53081415620642, 24.350709553695957], [89.52430555555556, 24.34263888888889], [89.53162494719054, 24.336132762991127], [89.52097222222223, 24.330416666666665], [89.51932705770578, 24.319723097309733], [89.53486111111111, 24.32986111111111], [89.53319444444445, 24.32236111111111], [89.53791666666667, 24.324583333333333], [89.54152777777779, 24.31847222222222], [89.52902777777778, 24.314027777777778], [89.54041666666667, 24.31736111111111], [89.54097222222222, 24.310972222222222], [89.54708333333333, 24.315416666666664], [89.54206987075929, 24.308556138933763], [89.53652777777778, 24.307916666666664], [89.54402777777779, 24.305138888888887], [89.52819444444445, 24.309027777777775], [89.53236111111111, 24.306805555555552], [89.52458333333334, 24.29513888888889], [89.52652777777779, 24.300416666666667], [89.51625, 24.292638888888888], [89.52069444444444, 24.290138888888887], [89.5026388888889, 24.289583333333333], [89.51347222222222, 24.28736111111111], [89.49763888888889, 24.281805555555554], [89.49375, 24.263749999999998], [89.49597222222222, 24.25736111111111], [89.50402777777778, 24.25986111111111], [89.49736111111112, 24.26486111111111], [89.49930555555555, 24.276527777777776], [89.50486111111111, 24.28013888888889], [89.5001388888889, 24.26736111111111], [89.5201388888889, 24.28708333333333], [89.52152777777778, 24.275972222222222], [89.52291666666667, 24.283472222222223], [89.53458333333333, 24.28875], [89.53152777777778, 24.300416666666667], [89.54791666666667, 24.301527777777775], [89.53736111111111, 24.279305555555553], [89.5476388888889, 24.277638888888887], [89.55152777777778, 24.292916666666667], [89.55125, 24.284027777777776], [89.56069444444445, 24.289305555555554], [89.55402777777778, 24.277083333333334], [89.56486111111111, 24.275416666666665], [89.56319444444445, 24.270694444444445], [89.55763888888889, 24.27347222222222], [89.55763888888889, 24.269027777777776], [89.55208333333334, 24.276527777777776], [89.54208333333334, 24.269305555555555], [89.55236111111111, 24.271527777777777], [89.54208333333334, 24.25875], [89.51819444444445, 24.259305555555553], [89.54069444444444, 24.25486111111111], [89.51347222222222, 24.234027777777776], [89.53458333333333, 24.247638888888886], [89.53652777777778, 24.240694444444443], [89.55347222222223, 24.268472222222222], [89.55847222222222, 24.26486111111111], [89.55503072763028, 24.26159169124877], [89.56236111111112, 24.262638888888887], [89.56097222222222, 24.267083333333332], [89.56347222222223, 24.262916666666666], [89.55430555555556, 24.259305555555553], [89.56736111111111, 24.260416666666664], [89.56486111111111, 24.24986111111111], [89.56958333333334, 24.25486111111111], [89.57069444444444, 24.249027777777776], [89.55125, 24.250416666666666], [89.56180555555555, 24.247083333333332], [89.5526388888889, 24.233472222222222], [89.54875, 24.236527777777777], [89.54347222222222, 24.220972222222223], [89.55430555555556, 24.227916666666665], [89.55180555555556, 24.23263888888889], [89.56097222222222, 24.232083333333332], [89.55708333333334, 24.235138888888887], [89.56319444444445, 24.24347222222222], [89.57208333333334, 24.23708333333333], [89.56486111111111, 24.23486111111111], [89.57319444444445, 24.231527777777778], [89.56319444444445, 24.227083333333333], [89.56958333333334, 24.219305555555554], [89.55986111111112, 24.21486111111111], [89.56736111111111, 24.211805555555554], [89.57291666666667, 24.218194444444443], [89.5826388888889, 24.208194444444445], [89.56986111111111, 24.195416666666667], [89.5723611111111, 24.18736111111111], [89.55791666666667, 24.18263888888889], [89.57986111111111, 24.18125], [89.57986111111111, 24.185972222222222], [89.5826388888889, 24.179861111111112], [89.5826388888889, 24.192916666666665], [89.57319444444445, 24.185416666666665], [89.57486111111112, 24.196805555555553], [89.59180555555555, 24.196805555555553], [89.59569444444445, 24.18986111111111], [89.58902777777779, 24.189305555555553], [89.59263888888889, 24.180694444444445], [89.58763888888889, 24.177916666666665], [89.58341609096144, 24.178151266551524], [89.58541666666667, 24.17375], [89.57319444444445, 24.168194444444442], [89.58319444444444, 24.169583333333332], [89.58069444444445, 24.160416666666666], [89.59263888888889, 24.163194444444443], [89.58625, 24.164861111111108], [89.58958333333334, 24.171527777777776], [89.59347222222223, 24.16375], [89.59736111111111, 24.172638888888887], [89.60208333333334, 24.16708333333333], [89.60625, 24.178194444444443], [89.59902777777778, 24.201527777777777], [89.60736111111112, 24.201805555555556], [89.61125, 24.194305555555555], [89.61236111111111, 24.200694444444444], [89.61180555555556, 24.18736111111111], [89.61708333333334, 24.189027777777778], [89.61708333333334, 24.199843749999992], [89.61569444444444, 24.20097222222222], [89.61569444444444, 24.19347222222222], [89.61402777777778, 24.20097222222222], [89.60180555555556, 24.20486111111111], [89.59902777777778, 24.224027777777778], [89.57680555555555, 24.23097222222222], [89.57375, 24.25486111111111], [89.58001406720558, 24.264916587414803], [89.57513888888889, 24.267083333333332], [89.57958333333333, 24.27236111111111], [89.58012195121952, 24.2650897696477], [89.58430555555556, 24.271805555555556], [89.5801388888889, 24.28486111111111], [89.59347222222223, 24.29347222222222], [89.59291666666667, 24.29986111111111], [89.58680555555556, 24.296805555555554], [89.59180555555555, 24.30013888888889], [89.57513888888889, 24.30847222222222], [89.58375000000001, 24.305416666666666], [89.57847222222223, 24.31625], [89.57208333333334, 24.311527777777776], [89.57736111111112, 24.32125], [89.58458333333334, 24.31625], [89.57541666666667, 24.334027777777777], [89.57736111111112, 24.34708333333333], [89.58930555555555, 24.341805555555553], [89.58125, 24.337916666666665], [89.59791666666666, 24.339583333333334], [89.58097222222223, 24.350694444444443], [89.57958333333333, 24.358749999999997], [89.59152777777778, 24.37236111111111], [89.59097222222222, 24.382916666666667], [89.59791666666666, 24.379305555555554], [89.58625, 24.365138888888886], [89.60180555555556, 24.379583333333333], [89.5976388888889, 24.36847222222222], [89.59981196581195, 24.369438034188025], [89.58180555555556, 24.356527777777778], [89.59402777777778, 24.34819444444444], [89.58597222222222, 24.357916666666664], [89.59680555555556, 24.35625], [89.60763888888889, 24.366527777777776], [89.61736111111111, 24.352361111111108], [89.60569444444445, 24.344305555555554], [89.61569444444444, 24.34486111111111], [89.62319444444445, 24.35763888888889], [89.61486111111111, 24.379027777777775], [89.62541666666667, 24.35597222222222], [89.62041666666667, 24.345416666666665], [89.60791666666667, 24.340416666666666], [89.60402777777779, 24.34486111111111], [89.61291666666666, 24.355138888888888], [89.60486111111112, 24.361805555555556], [89.60847222222222, 24.355138888888888], [89.59652777777778, 24.354027777777777], [89.60513888888889, 24.35013888888889], [89.59625, 24.349305555555553], [89.59847222222223, 24.337083333333332], [89.57708333333333, 24.335694444444442], [89.59013888888889, 24.32097222222222], [89.58736111111111, 24.326527777777777], [89.59236111111112, 24.325416666666666], [89.59236111111112, 24.308194444444442], [89.59569444444445, 24.31958333333333], [89.60041666666667, 24.319027777777777], [89.59347222222223, 24.30486111111111], [89.59875000000001, 24.30236111111111], [89.59597222222223, 24.291249999999998], [89.5826388888889, 24.28236111111111], [89.58791666666667, 24.273194444444442], [89.58379009163804, 24.25656309660175], [89.58717592592593, 24.259545855379187], [89.59875000000001, 24.25486111111111], [89.59486111111111, 24.25875], [89.58720381526105, 24.259570424555363], [89.59541666666667, 24.266805555555553], [89.59486111111111, 24.274305555555554], [89.59902777777778, 24.275972222222222], [89.60597222222222, 24.262361111111108], [89.60930555555557, 24.270694444444445], [89.60180555555556, 24.27958333333333], [89.61791666666667, 24.27236111111111], [89.61375, 24.282638888888886], [89.62125, 24.286527777777778], [89.61791666666667, 24.300416666666667], [89.62152777777779, 24.297083333333333], [89.62347222222222, 24.30625], [89.63041666666668, 24.28625], [89.62958333333333, 24.31319444444444], [89.63694783197832, 24.30092028003613], [89.63152777777778, 24.29513888888889], [89.63680555555555, 24.291805555555555], [89.62958333333333, 24.28013888888889], [89.63152777777778, 24.271527777777777], [89.61847222222222, 24.255138888888887], [89.62430555555555, 24.255694444444444], [89.62263888888889, 24.24625], [89.62708333333333, 24.252916666666664], [89.63405303030304, 24.245946969696963], [89.62597222222223, 24.23625], [89.63125000000001, 24.239583333333332], [89.6301388888889, 24.234027777777776], [89.60375, 24.21597222222222], [89.60902777777778, 24.211805555555554], [89.61097222222223, 24.21708333333333], [89.60958333333333, 24.20986111111111], [89.61625000000001, 24.205972222222222], [89.62291666666667, 24.220416666666665], [89.63291666666667, 24.213749999999997], [89.63347222222222, 24.205416666666665], [89.63708333333334, 24.213749999999997], [89.64486111111111, 24.214027777777776], [89.64319444444445, 24.205416666666665], [89.65125, 24.20986111111111], [89.64958333333334, 24.200694444444444], [89.65791666666667, 24.189027777777778], [89.66819444444445, 24.186249999999998], [89.66375000000001, 24.192638888888887], [89.66875, 24.193749999999998], [89.65902777777778, 24.193194444444444], [89.65236111111112, 24.210416666666664], [89.65680555555556, 24.21597222222222], [89.65618968253969, 24.21812777777778], [89.65097222222222, 24.21236111111111], [89.64430555555556, 24.214583333333334], [89.65180555555555, 24.220694444444444], [89.65615543735225, 24.2182476359338], [89.65180555555555, 24.233472222222222], [89.66041666666666, 24.239027777777775], [89.66708333333334, 24.22847222222222], [89.65930555555556, 24.226527777777775], [89.66597222222222, 24.222638888888888], [89.66097222222223, 24.220138888888886], [89.66708333333334, 24.213749999999997], [89.6656216931217, 24.207003968253968], [89.66708333333334, 24.209027777777777], [89.67347222222223, 24.205416666666665], [89.6726388888889, 24.21236111111111], [89.68652777777778, 24.216805555555553], [89.68402777777779, 24.20958333333333], [89.67625, 24.20986111111111], [89.68069444444444, 24.20847222222222], [89.67680555555556, 24.20236111111111], [89.68541666666667, 24.207083333333333], [89.68125, 24.19763888888889], [89.69986111111112, 24.21597222222222], [89.70125, 24.207916666666666], [89.68541666666667, 24.19736111111111], [89.68819444444445, 24.19347222222222], [89.69125, 24.198194444444443], [89.6926388888889, 24.191527777777775], [89.70069444444445, 24.20208333333333], [89.70680555555556, 24.229027777777777], [89.71180555555556, 24.229305555555555], [89.70625, 24.22958333333333], [89.70097222222222, 24.24347222222222], [89.70097222222222, 24.25125], [89.70791666666666, 24.25208333333333], [89.70236111111112, 24.252916666666664], [89.70347222222223, 24.276805555555555], [89.70930555555556, 24.30763888888889], [89.70902777777778, 24.293194444444442], [89.71430555555555, 24.303472222222222], [89.70791666666666, 24.28597222222222], [89.71902777777778, 24.300416666666667], [89.71763888888889, 24.31958333333333], [89.71375, 24.316805555555554], [89.71763888888889, 24.34486111111111], [89.72180555555556, 24.343194444444443], [89.71652777777778, 24.33513888888889], [89.72708333333334, 24.344583333333333], [89.71986111111111, 24.354027777777777], [89.72513888888889, 24.35347222222222], [89.72284790083243, 24.373518367716255], [89.72847222222222, 24.34486111111111], [89.71652777777778, 24.332638888888887], [89.72041666666667, 24.300694444444442], [89.71194623655914, 24.285594982078862], [89.70958333333334, 24.274305555555554], [89.71736111111112, 24.281805555555554], [89.71930555555556, 24.29486111111111], [89.72152777777778, 24.28125], [89.72680555555556, 24.303472222222222], [89.73652777777778, 24.315694444444443], [89.74041666666668, 24.31347222222222], [89.73625, 24.33486111111111], [89.74125000000001, 24.34236111111111], [89.73236111111112, 24.346527777777776], [89.73847222222223, 24.346249999999998], [89.74208333333334, 24.355694444444442], [89.74319444444444, 24.314305555555553], [89.75236111111111, 24.32208333333333], [89.7501388888889, 24.315694444444443], [89.75597222222223, 24.316527777777775], [89.7551388888889, 24.34708333333333], [89.77069444444444, 24.331805555555555], [89.77402777777777, 24.301805555555553], [89.78819444444444, 24.284305555555555], [89.78360960689932, 24.280357501002804], [89.78196616871705, 24.26990992970122], [89.78625000000001, 24.276249999999997], [89.78875000000001, 24.27958333333333], [89.79041666666667, 24.266805555555553], [89.78486111111111, 24.266805555555553], [89.78930555555556, 24.262916666666666], [89.78041666666667, 24.25069444444444], [89.77995090783502, 24.257098628379712], [89.77597222222222, 24.231805555555553], [89.77763888888889, 24.22347222222222], [89.78375, 24.227083333333333], [89.77847222222222, 24.217916666666664], [89.78291666666667, 24.219027777777775], [89.78180555555556, 24.20958333333333], [89.78597222222223, 24.218194444444443], [89.7851388888889, 24.200138888888887], [89.78847222222223, 24.19125], [89.79125, 24.19847222222222], [89.78958333333334, 24.18819444444444], [89.79847222222223, 24.175694444444442], [89.78013888888889, 24.166249999999998], [89.78763888888889, 24.157916666666665], [89.7976388888889, 24.159305555555555], [89.79847222222223, 24.15236111111111], [89.78847222222223, 24.136805555555554], [89.78791666666667, 24.12236111111111], [89.79263888888889, 24.128194444444443], [89.79180555555556, 24.12013888888889], [89.79652777777778, 24.121527777777775], [89.78736111111111, 24.117916666666666], [89.78708333333334, 24.110694444444444], [89.79347222222222, 24.108472222222222], [89.78708333333334, 24.10347222222222], [89.79261644219977, 24.087445286195287], [89.7976388888889, 24.09347222222222], [89.79013888888889, 24.10013888888889], [89.79958333333333, 24.10125], [89.79263888888889, 24.10486111111111], [89.79597222222222, 24.108194444444443], [89.80430906679152, 24.10230961298377], [89.80180555555556, 24.100694444444443], [89.80486111111111, 24.096527777777776], [89.80597222222222, 24.100694444444443], [89.81041666666667, 24.10625], [89.80443917653355, 24.102393554752826], [89.79569444444445, 24.110138888888887], [89.79819444444445, 24.11486111111111], [89.80569444444444, 24.108194444444443], [89.80208333333334, 24.117916666666666], [89.81041666666667, 24.106805555555553], [89.80458333333334, 24.117083333333333], [89.81652777777778, 24.116805555555555], [89.81819444444444, 24.10458333333333], [89.80791666666667, 24.101805555555554], [89.80958333333334, 24.087916666666665], [89.8151388888889, 24.092916666666664], [89.82486111111112, 24.088749999999997], [89.81708333333333, 24.06347222222222], [89.80402777777778, 24.069305555555555], [89.81041666666667, 24.065416666666664], [89.80597222222222, 24.062638888888888], [89.80958333333334, 24.057916666666664], [89.7990019379845, 24.050823643410848], [89.79736111111112, 24.059027777777775], [89.79291666666667, 24.056805555555552], [89.80347222222223, 24.06847222222222], [89.79569444444445, 24.07708333333333], [89.80319444444444, 24.082083333333333], [89.80875, 24.077916666666667], [89.80652777777777, 24.08736111111111], [89.79328707392652, 24.085502766710935], [89.79513888888889, 24.080138888888886], [89.78791666666667, 24.062083333333334], [89.79680555555557, 24.06597222222222], [89.78569444444445, 24.056805555555552], [89.78486111111111, 24.047638888888887], [89.79097222222222, 24.054583333333333], [89.79890071019098, 24.050755787417383], [89.78430555555556, 24.04097222222222], [89.77708333333334, 24.029027777777777], [89.72180555555556, 24.01347222222222], [89.70652777777778, 24.028194444444445], [89.70291666666667, 24.02375], [89.69875, 24.03847222222222], [89.68291666666667, 24.034305555555555], [89.68458333333334, 24.05847222222222], [89.66236111111111, 24.072916666666664], [89.67291666666667, 24.08486111111111], [89.6722493033786, 24.08894871125043], [89.66569444444444, 24.080694444444443], [89.66319444444444, 24.08986111111111], [89.66180555555556, 24.07347222222222], [89.60180555555556, 24.09986111111111], [89.5826388888889, 24.130416666666665], [89.55847222222222, 24.135694444444443], [89.53291666666667, 24.130694444444444], [89.52180555555556, 24.154305555555553], [89.52930555555555, 24.158749999999998], [89.52319444444444, 24.16847222222222], [89.53347222222223, 24.166527777777777], [89.5351388888889, 24.172916666666666], [89.5176388888889, 24.179027777777776], [89.51708333333333, 24.18875], [89.52513888888889, 24.19125], [89.52236111111111, 24.19736111111111], [89.51041666666667, 24.199583333333333], [89.50097222222223, 24.21736111111111], [89.48652777777778, 24.215138888888887], [89.48597222222223, 24.20375], [89.46902777777778, 24.201249999999998], [89.47125, 24.213194444444444], [89.46152777777777, 24.22458333333333], [89.47375000000001, 24.219305555555554], [89.47819444444444, 24.22958333333333], [89.47125, 24.234583333333333], [89.45375, 24.227638888888887], [89.44597222222222, 24.232916666666664], [89.45652777777778, 24.233749999999997], [89.46263888888889, 24.261527777777776], [89.44791666666667, 24.268194444444443], [89.43930555555556, 24.25236111111111], [89.4251388888889, 24.24986111111111], [89.42930555555556, 24.26736111111111], [89.41763888888889, 24.29347222222222], [89.42319444444445, 24.29958333333333], [89.41902777777779, 24.304583333333333], [89.42541666666666, 24.306805555555552], [89.42236111111112, 24.317916666666665], [89.41736111111112, 24.31736111111111], [89.41819444444445, 24.32847222222222], [89.40486111111112, 24.31986111111111], [89.39847222222222, 24.32347222222222], [89.40263888888889, 24.33458333333333], [89.39819444444444, 24.33736111111111]], [[89.78322044097824, 24.280022385904093], [89.77819444444445, 24.275694444444444], [89.77763888888889, 24.267083333333332], [89.78322044097824, 24.280022385904093]], [[89.66454909432295, 24.202053512259774], [89.66347222222223, 24.19708333333333], [89.66847222222222, 24.19486111111111], [89.66454909432295, 24.202053512259774]], [[89.58376933488013, 24.256479440577476], [89.5811587211502, 24.24595787615084], [89.58804804804805, 24.245427927927924], [89.58652777777777, 24.24458333333333], [89.59263888888889, 24.241249999999997], [89.59402777777778, 24.248749999999998], [89.58816414141414, 24.24549242424242], [89.58376933488013, 24.256479440577476]], [[89.5810689484127, 24.245596064814826], [89.57875, 24.23625], [89.5826388888889, 24.23097222222222], [89.58041666666666, 24.235138888888887], [89.59180555555555, 24.235694444444444], [89.58347222222223, 24.23625], [89.5810689484127, 24.245596064814826]], [[89.55319311536417, 24.25984595959596], [89.54736111111112, 24.254305555555554], [89.55680555555556, 24.25069444444444], [89.55319311536417, 24.25984595959596]], [[89.50177807646357, 24.350671744324966], [89.48902777777778, 24.35625], [89.48013888888889, 24.345694444444444], [89.48263888888889, 24.338749999999997], [89.48652777777778, 24.34819444444444], [89.49347222222222, 24.34847222222222], [89.48986111111111, 24.340138888888887], [89.49486111111112, 24.34125], [89.49708333333334, 24.334027777777777], [89.49041666666668, 24.329305555555553], [89.49569444444445, 24.32347222222222], [89.48736111111111, 24.320138888888888], [89.48652777777778, 24.309583333333332], [89.49736111111112, 24.31236111111111], [89.48847222222223, 24.31458333333333], [89.49458333333334, 24.32069444444444], [89.50486111111111, 24.30986111111111], [89.50847222222222, 24.317083333333333], [89.50125, 24.319305555555555], [89.50652777777778, 24.32986111111111], [89.49819444444445, 24.33736111111111], [89.50177807646357, 24.350671744324966]], [[89.6720910188845, 24.089918203776897], [89.66847222222222, 24.11208333333333], [89.65680555555556, 24.10736111111111], [89.66319444444444, 24.103194444444444], [89.66069444444445, 24.09819444444444], [89.67013888888889, 24.096805555555555], [89.66763888888889, 24.089027777777776], [89.6720910188845, 24.089918203776897]], [[89.76708333333333, 24.170972222222222], [89.76486111111112, 24.18263888888889], [89.76152777777779, 24.177638888888886], [89.76708333333333, 24.170972222222222]], [[89.7471482346833, 24.150465991692624], [89.74625, 24.16708333333333], [89.75652777777778, 24.15458333333333], [89.75430555555556, 24.14125], [89.75791666666667, 24.15486111111111], [89.75063211986132, 24.173553533102197], [89.75291666666666, 24.17736111111111], [89.75402777777778, 24.169305555555553], [89.76291666666667, 24.166527777777777], [89.76125, 24.144583333333333], [89.76652777777778, 24.164861111111108], [89.7551388888889, 24.181805555555552], [89.74847222222222, 24.18208333333333], [89.74854797979798, 24.17890151515152], [89.74319444444444, 24.192638888888887], [89.7351388888889, 24.193194444444444], [89.73680555555556, 24.17597222222222], [89.74319444444444, 24.171527777777776], [89.73736111111111, 24.181805555555552], [89.74375, 24.186527777777776], [89.74569444444445, 24.180694444444445], [89.74402777777777, 24.14875], [89.74569444444445, 24.15513888888889], [89.7471482346833, 24.150465991692624]], [[89.76180555555555, 24.185694444444444], [89.75958333333334, 24.178749999999997], [89.76513888888888, 24.187916666666666], [89.75708333333334, 24.185416666666665], [89.76180555555555, 24.185694444444444]], [[89.74180555555556, 24.201249999999998], [89.73569444444445, 24.19458333333333], [89.74486111111112, 24.19236111111111], [89.74930555555555, 24.182916666666664], [89.75486111111111, 24.18263888888889], [89.7501388888889, 24.19708333333333], [89.75597222222223, 24.195416666666667], [89.75543501835169, 24.203474724724742], [89.75375, 24.200694444444444], [89.74180555555556, 24.201249999999998]], [[89.75551068376069, 24.20359957264958], [89.75819444444444, 24.199305555555554], [89.76236111111112, 24.204583333333332], [89.76402777777778, 24.191805555555554], [89.75958333333334, 24.192916666666665], [89.76458333333333, 24.18986111111111], [89.76069444444445, 24.21708333333333], [89.74986111111112, 24.209027777777777], [89.75930555555556, 24.20986111111111], [89.75551068376069, 24.20359957264958]], [[89.74486111111112, 24.290138888888887], [89.74458333333334, 24.28013888888889], [89.75652777777778, 24.291805555555555], [89.74652777777779, 24.256805555555555], [89.75319444444445, 24.260694444444443], [89.76125, 24.29208333333333], [89.75763888888889, 24.312916666666666], [89.72930555555556, 24.304027777777776], [89.72625000000001, 24.28708333333333], [89.73597222222223, 24.28097222222222], [89.73152777777779, 24.299305555555556], [89.73430555555557, 24.291249999999998], [89.74708333333334, 24.29875], [89.73736111111111, 24.290694444444444], [89.74236111111111, 24.285138888888888], [89.74486111111112, 24.290138888888887]], [[89.75486111111111, 24.217916666666664], [89.75902777777777, 24.21847222222222], [89.75458333333333, 24.22486111111111], [89.74930555555555, 24.21875], [89.75486111111111, 24.217916666666664]], [[89.74958333333333, 24.045416666666664], [89.74930555555555, 24.040138888888887], [89.75291666666666, 24.053194444444443], [89.74958333333333, 24.045416666666664]], [[89.74097222222223, 24.134027777777778], [89.74569444444445, 24.14236111111111], [89.75125, 24.137638888888887], [89.74319444444444, 24.149305555555554], [89.74097222222223, 24.134027777777778]], [[89.74402777777777, 24.27375], [89.74180555555556, 24.269027777777776], [89.7501388888889, 24.27375], [89.74402777777777, 24.27375]], [[89.73958333333334, 24.230416666666667], [89.74680555555555, 24.235416666666666], [89.73458333333333, 24.234027777777776], [89.74347222222222, 24.234027777777776], [89.73958333333334, 24.230416666666667]], [[89.74263888888889, 24.26347222222222], [89.74652777777779, 24.268749999999997], [89.73875, 24.26458333333333], [89.74263888888889, 24.26347222222222]], [[89.73180555555555, 24.201249999999998], [89.74458333333334, 24.214583333333334], [89.73708333333333, 24.214027777777776], [89.73180555555555, 24.201249999999998]], [[89.7376388888889, 24.25375], [89.74402777777777, 24.262361111111108], [89.74103114478115, 24.262361111111108], [89.7376388888889, 24.25375]], [[89.73021508887865, 24.144581156190768], [89.72541666666667, 24.13597222222222], [89.72902777777779, 24.139305555555556], [89.72958333333334, 24.130694444444444], [89.73097222222222, 24.14097222222222], [89.73236111111112, 24.134027777777778], [89.73902777777778, 24.142916666666665], [89.73208333333334, 24.126805555555553], [89.73986111111111, 24.144305555555555], [89.73021508887865, 24.144581156190768]], [[89.73025359874045, 24.144650247413413], [89.73680555555556, 24.14847222222222], [89.73986111111111, 24.145416666666666], [89.73541666666667, 24.151805555555555], [89.74180555555556, 24.152083333333334], [89.74347222222222, 24.168194444444442], [89.73597222222223, 24.175416666666667], [89.73486111111112, 24.152916666666666], [89.73025359874045, 24.144650247413413]], [[89.71319444444444, 24.268472222222222], [89.7076388888889, 24.255416666666665], [89.71513888888889, 24.240138888888886], [89.71652777777778, 24.24597222222222], [89.72402777777778, 24.24458333333333], [89.72041666666667, 24.263194444444444], [89.72680555555556, 24.24625], [89.73541666666667, 24.27263888888889], [89.7376388888889, 24.267638888888886], [89.73597222222223, 24.276527777777776], [89.73902777777778, 24.268472222222222], [89.74319444444444, 24.274583333333332], [89.72486111111111, 24.28625], [89.71319444444444, 24.268472222222222]], [[89.7376388888889, 24.33486111111111], [89.74208333333334, 24.31375], [89.74180555555556, 24.34208333333333], [89.7376388888889, 24.33486111111111]], [[89.73597222222223, 24.181527777777777], [89.73375, 24.19013888888889], [89.72597222222223, 24.179305555555555], [89.73291666666667, 24.172916666666666], [89.73597222222223, 24.181527777777777]], [[89.72902777777779, 24.239305555555553], [89.73069444444445, 24.234305555555554], [89.73541666666667, 24.237916666666667], [89.72902777777779, 24.239305555555553]], [[89.72430555555556, 24.17458333333333], [89.71763888888889, 24.174305555555556], [89.73208333333334, 24.16708333333333], [89.72430555555556, 24.17458333333333]], [[89.71986111111111, 24.19569444444444], [89.71180555555556, 24.184583333333332], [89.72430555555556, 24.195416666666667], [89.73180555555555, 24.190694444444443], [89.72597222222223, 24.19569444444444], [89.72958333333334, 24.202638888888888], [89.71986111111111, 24.19569444444444]], [[89.71875, 24.106527777777778], [89.72958333333334, 24.12486111111111], [89.72680555555556, 24.13236111111111], [89.72875, 24.125138888888888], [89.71875, 24.106527777777778]], [[89.71847222222223, 24.16736111111111], [89.71347222222222, 24.163194444444443], [89.71763888888889, 24.142638888888886], [89.71458333333334, 24.16347222222222], [89.72041666666667, 24.15986111111111], [89.72152777777778, 24.17013888888889], [89.72541666666667, 24.15625], [89.72569444444444, 24.162916666666664], [89.72069444444445, 24.172083333333333], [89.71847222222223, 24.16736111111111]], [[89.71430555555555, 24.127916666666664], [89.7201388888889, 24.123472222222222], [89.71902777777778, 24.136805555555554], [89.71430555555555, 24.127916666666664]], [[89.71513888888889, 24.138749999999998], [89.71152777777777, 24.146527777777777], [89.70930555555556, 24.13958333333333], [89.71513888888889, 24.138749999999998]], [[89.70680555555556, 24.053749999999997], [89.70458333333333, 24.04347222222222], [89.70902777777778, 24.04875], [89.71069444444444, 24.042638888888888], [89.71069444444444, 24.055416666666666], [89.70680555555556, 24.053749999999997]], [[89.70652777777778, 24.24736111111111], [89.70652777777778, 24.23708333333333], [89.71041666666667, 24.248749999999998], [89.70652777777778, 24.24736111111111]], [[89.70236111111112, 24.146805555555556], [89.70069444444445, 24.136805555555554], [89.70569444444445, 24.150972222222222], [89.70958333333334, 24.143749999999997], [89.71041666666667, 24.158472222222223], [89.70236111111112, 24.146805555555556]], [[89.70402777777778, 24.041249999999998], [89.70902777777778, 24.033194444444444], [89.70902777777778, 24.04347222222222], [89.70402777777778, 24.041249999999998]], [[89.6726388888889, 24.18819444444444], [89.66875, 24.185138888888886], [89.67875000000001, 24.190416666666664], [89.69041666666666, 24.169027777777778], [89.69402777777778, 24.17458333333333], [89.69175901687028, 24.178213350785338], [89.69569444444444, 24.178749999999997], [89.69440992292871, 24.18247511239563], [89.69106804949054, 24.179318898592914], [89.68708333333333, 24.185694444444444], [89.69431587419515, 24.18274785372297], [89.69291666666668, 24.186805555555555], [89.67652777777778, 24.196527777777778], [89.6726388888889, 24.18819444444444]], [[89.6876388888889, 24.169027777777778], [89.68569444444445, 24.176805555555553], [89.68236111111112, 24.161805555555553], [89.6876388888889, 24.169027777777778]], [[89.67902777777778, 24.172638888888887], [89.68236111111112, 24.178472222222222], [89.67597222222223, 24.178472222222222], [89.67902777777778, 24.172638888888887]], [[89.6451388888889, 24.150416666666665], [89.65291666666667, 24.158194444444444], [89.64458333333333, 24.15486111111111], [89.63736111111112, 24.164305555555554], [89.64736111111111, 24.166249999999998], [89.64458333333333, 24.16236111111111], [89.65069444444444, 24.15958333333333], [89.65597222222223, 24.16847222222222], [89.66097222222223, 24.160416666666666], [89.66458333333334, 24.170972222222222], [89.67986111111111, 24.167638888888888], [89.68180555555556, 24.161527777777778], [89.68069444444444, 24.168194444444442], [89.66097222222223, 24.172916666666666], [89.63402777777777, 24.164861111111108], [89.60847222222222, 24.17236111111111], [89.60513888888889, 24.164305555555554], [89.60958333333333, 24.16736111111111], [89.61236111111111, 24.158472222222223], [89.61236111111111, 24.16597222222222], [89.61541666666668, 24.15986111111111], [89.61736111111111, 24.164861111111108], [89.62375, 24.15958333333333], [89.63541666666667, 24.164305555555554], [89.63236111111111, 24.157916666666665], [89.6451388888889, 24.150416666666665]], [[89.67402777777778, 24.15986111111111], [89.66402777777778, 24.154027777777777], [89.6776388888889, 24.15347222222222], [89.68180555555556, 24.159305555555555], [89.67680555555556, 24.155416666666664], [89.67402777777778, 24.15986111111111]], [[89.66458333333334, 24.11847222222222], [89.66819444444445, 24.11263888888889], [89.67680555555556, 24.15236111111111], [89.64791666666667, 24.12875], [89.66375000000001, 24.140694444444442], [89.65958333333333, 24.119305555555552], [89.66458333333334, 24.11847222222222]], [[89.64808045701503, 24.147888702460843], [89.65430555555555, 24.152916666666666], [89.66074818963567, 24.148704175152748], [89.66347222222223, 24.152638888888887], [89.64958333333334, 24.15458333333333], [89.64808045701503, 24.147888702460843]], [[89.65402777777778, 24.09375], [89.65041666666667, 24.09958333333333], [89.65125, 24.09347222222222], [89.65847222222223, 24.092916666666664], [89.65402777777778, 24.09375]], [[89.64847222222222, 24.11375], [89.65180555555555, 24.110138888888887], [89.64680555555556, 24.117638888888887], [89.64847222222222, 24.11375]], [[89.63875, 24.18819444444444], [89.64208333333333, 24.19486111111111], [89.63263888888889, 24.185138888888886], [89.64041666666667, 24.177083333333332], [89.65013888888889, 24.17736111111111], [89.64236111111111, 24.178472222222222], [89.63875, 24.18819444444444]], [[89.63847222222222, 24.14597222222222], [89.63152777777778, 24.146805555555556], [89.64402777777778, 24.136527777777776], [89.64569444444444, 24.150138888888886], [89.63847222222222, 24.14597222222222]], [[89.64402777777778, 24.122638888888886], [89.64041666666667, 24.125416666666666], [89.63819444444445, 24.116805555555555], [89.64402777777778, 24.122638888888886]], [[89.6301388888889, 24.199861111111108], [89.63319444444444, 24.19597222222222], [89.63958333333333, 24.20347222222222], [89.62708333333333, 24.201249999999998], [89.62958333333333, 24.194305555555555], [89.6301388888889, 24.199861111111108]], [[89.62680555555556, 24.145694444444445], [89.62930555555556, 24.13986111111111], [89.62847222222223, 24.154027777777777], [89.62680555555556, 24.145694444444445]], [[89.61402777777778, 24.181805555555552], [89.62097222222222, 24.178749999999997], [89.6276388888889, 24.185138888888886], [89.61402777777778, 24.181805555555552]], [[89.62375, 24.279305555555553], [89.61986111111112, 24.283749999999998], [89.62625, 24.274583333333332], [89.62375, 24.279305555555553]], [[89.59430555555556, 24.233472222222222], [89.59097222222222, 24.23097222222222], [89.59958333333334, 24.228194444444444], [89.59625, 24.234583333333333], [89.60486111111112, 24.241527777777776], [89.60847222222222, 24.23736111111111], [89.61041666666667, 24.24625], [89.62375, 24.240138888888886], [89.61763888888889, 24.246805555555554], [89.60375, 24.247638888888886], [89.60819444444445, 24.246527777777775], [89.5976388888889, 24.239583333333332], [89.60236111111111, 24.249305555555555], [89.59430555555556, 24.233472222222222]], [[89.61875, 24.114583333333332], [89.61736111111111, 24.10625], [89.62263888888889, 24.110694444444444], [89.61875, 24.114583333333332]], [[89.61347222222223, 24.149305555555554], [89.61819444444444, 24.150138888888886], [89.61180555555556, 24.158472222222223], [89.61347222222223, 24.149305555555554]], [[89.61152777777778, 24.22513888888889], [89.61652777777778, 24.230416666666667], [89.60486111111112, 24.220972222222223], [89.61152777777778, 24.22513888888889]], [[89.60263888888889, 24.255138888888887], [89.60986111111112, 24.25375], [89.60819444444445, 24.262361111111108], [89.60041666666667, 24.259305555555553], [89.60263888888889, 24.255138888888887]], [[89.60902777777778, 24.231805555555553], [89.60013888888889, 24.229027777777777], [89.60375, 24.225416666666664], [89.60902777777778, 24.231805555555553]], [[89.60680555555555, 24.162916666666664], [89.60069444444444, 24.160416666666666], [89.60180555555556, 24.153194444444445], [89.60875, 24.15597222222222], [89.60680555555555, 24.162916666666664]], [[89.60597222222222, 24.142638888888886], [89.60625, 24.154305555555553], [89.60152777777778, 24.149027777777775], [89.60597222222222, 24.142638888888886]], [[89.58736111111111, 24.13958333333333], [89.59152777777778, 24.13847222222222], [89.58597222222222, 24.160416666666666], [89.57930555555556, 24.14625], [89.58930555555555, 24.143472222222222], [89.58125, 24.13513888888889], [89.59097222222222, 24.131249999999998], [89.58736111111111, 24.13958333333333]], [[89.56569444444445, 24.15347222222222], [89.57513888888889, 24.15736111111111], [89.56291666666667, 24.15986111111111], [89.56569444444445, 24.15347222222222]], [[89.56180555555555, 24.203194444444442], [89.56458333333333, 24.208194444444445], [89.55819444444445, 24.200138888888887], [89.56180555555555, 24.203194444444442]], [[89.53986111111111, 24.20208333333333], [89.54791666666667, 24.207083333333333], [89.54125, 24.20208333333333], [89.54875, 24.19847222222222], [89.55402777777778, 24.212638888888886], [89.53097222222223, 24.19708333333333], [89.53986111111111, 24.20208333333333]], [[89.53732531500573, 24.229188144329893], [89.53597222222223, 24.227083333333333], [89.54430555555555, 24.22847222222222], [89.53732531500573, 24.229188144329893]], [[89.53930555555556, 24.213194444444444], [89.54097222222222, 24.222638888888888], [89.53597222222223, 24.21986111111111], [89.53930555555556, 24.213194444444444]], [[89.53763888888889, 24.351805555555554], [89.53875000000001, 24.35597222222222], [89.53208333333333, 24.35458333333333], [89.53763888888889, 24.351805555555554]], [[89.53125, 24.230416666666667], [89.52708333333334, 24.23097222222222], [89.53013888888889, 24.225416666666664], [89.53125, 24.230416666666667]], [[89.52314733593242, 24.269766081871346], [89.52958333333333, 24.275972222222222], [89.51902777777778, 24.27208333333333], [89.52314733593242, 24.269766081871346]], [[89.52847222222222, 24.31458333333333], [89.51486111111112, 24.30847222222222], [89.52319444444444, 24.30986111111111], [89.52347222222222, 24.302638888888886], [89.52847222222222, 24.31458333333333]], [[89.51680555555556, 24.32597222222222], [89.5176388888889, 24.31958333333333], [89.52041666666666, 24.332083333333333], [89.51680555555556, 24.32597222222222]], [[89.51013888888889, 24.294583333333332], [89.51402777777778, 24.291249999999998], [89.51819444444445, 24.29736111111111], [89.51430555555555, 24.30597222222222], [89.51013888888889, 24.294583333333332]], [[89.50458333333333, 24.301527777777775], [89.50680555555556, 24.295972222222222], [89.50291666666666, 24.309305555555554], [89.50458333333333, 24.301527777777775]], [[89.47513888888889, 24.298194444444444], [89.48430555555557, 24.29513888888889], [89.5001388888889, 24.31347222222222], [89.48559760448522, 24.30458588175331], [89.48097222222222, 24.30736111111111], [89.48013888888889, 24.30236111111111], [89.483311302682, 24.30318869731801], [89.47513888888889, 24.298194444444444]], [[89.47902777777779, 24.274305555555554], [89.47736111111111, 24.26986111111111], [89.48597222222223, 24.282638888888886], [89.47902777777779, 24.274305555555554]], [[89.46152777777777, 24.289305555555554], [89.46708333333333, 24.284305555555555], [89.46875, 24.294583333333332], [89.46152777777777, 24.289305555555554]], [[89.44930555555555, 24.27986111111111], [89.44375000000001, 24.285138888888888], [89.44402777777778, 24.279305555555553], [89.44930555555555, 24.27986111111111]], [[89.44597222222222, 24.350694444444443], [89.44680555555556, 24.355694444444442], [89.44180555555556, 24.354305555555555], [89.44597222222222, 24.350694444444443]], [[89.40819444444445, 24.327916666666667], [89.40319444444445, 24.33236111111111], [89.40013888888889, 24.32736111111111], [89.40819444444445, 24.327916666666667]]], [[[89.63411599591718, 24.246022528433937], [89.62708333333333, 24.25819444444444], [89.63008021390375, 24.261124727668847], [89.62930555555556, 24.266805555555553], [89.65152777777779, 24.294305555555553], [89.65680555555556, 24.292638888888888], [89.64347222222223, 24.28236111111111], [89.64859223770809, 24.279033101045293], [89.65918273645546, 24.28903523875114], [89.65069444444444, 24.274305555555554], [89.62791666666666, 24.25736111111111], [89.63569444444445, 24.247916666666665], [89.63411599591718, 24.246022528433937]]], [[[89.66490277777781, 24.29443750000002], [89.66652777777779, 24.295972222222222], [89.65803571428572, 24.300665204678364], [89.66263888888889, 24.30236111111111], [89.65458333333333, 24.304027777777776], [89.65486111111112, 24.312916666666666], [89.66513888888889, 24.311527777777776], [89.66263888888889, 24.301527777777775], [89.66986111111112, 24.298194444444444], [89.66930555555555, 24.315694444444443], [89.67430555555556, 24.319305555555555], [89.67958333333334, 24.303194444444443], [89.67180555555557, 24.29875], [89.67875000000001, 24.290416666666665], [89.67125, 24.290138888888887], [89.66791666666667, 24.296805555555554], [89.66490277777781, 24.29443750000002]]], [[[89.65228345280767, 24.303844086021492], [89.64541666666666, 24.30763888888889], [89.65291666666667, 24.325416666666666], [89.66208333333334, 24.329027777777778], [89.66513888888889, 24.32597222222222], [89.6576388888889, 24.324305555555554], [89.66480540250996, 24.319068487909394], [89.66430555555556, 24.317916666666665], [89.65430555555555, 24.325416666666666], [89.64625000000001, 24.307916666666664], [89.65228345280767, 24.303844086021492]]], [[[89.66598684210516, 24.32179093567227], [89.67097222222222, 24.334027777777777], [89.69115043644298, 24.34397867794144], [89.69125, 24.342916666666664], [89.67069444444445, 24.332638888888887], [89.66598684210516, 24.32179093567227]]], [[[89.69113358886996, 24.34415838538709], [89.68518169776549, 24.35083611687015], [89.69041666666666, 24.351805555555554], [89.69113358886996, 24.34415838538709]]], [[[89.68122777777778, 24.35527222222222], [89.67986111111111, 24.356805555555553], [89.69236111111111, 24.35763888888889], [89.70199948749487, 24.367009532595326], [89.68875, 24.364305555555553], [89.68513888888889, 24.36875], [89.69597222222222, 24.37097222222222], [89.70218540446481, 24.367190285204995], [89.71236111111111, 24.37708333333333], [89.69430555555556, 24.35763888888889], [89.68069444444444, 24.356805555555553], [89.68122777777778, 24.35527222222222]]], [[[89.60535519857207, 24.37341242748773], [89.60708333333334, 24.38625], [89.57958333333333, 24.39736111111111], [89.58958333333334, 24.43236111111111], [89.57263888888889, 24.435972222222222], [89.56736111111111, 24.447916666666664], [89.56180555555555, 24.43986111111111], [89.56041666666667, 24.454305555555553], [89.54652777777778, 24.449027777777776], [89.54236111111112, 24.471249999999998], [89.52569444444444, 24.47847222222222], [89.53319444444445, 24.485416666666666], [89.53097222222223, 24.494305555555552], [89.51402777777778, 24.48763888888889], [89.51375, 24.50236111111111], [89.52513888888889, 24.51097222222222], [89.51597222222223, 24.520138888888887], [89.53152777777778, 24.52597222222222], [89.52097222222223, 24.51986111111111], [89.52708333333334, 24.510694444444443], [89.51486111111112, 24.501527777777778], [89.51486111111112, 24.48847222222222], [89.53152777777778, 24.49513888888889], [89.53430555555556, 24.485694444444444], [89.52680555555555, 24.478749999999998], [89.54236111111112, 24.47319444444444], [89.5476388888889, 24.449583333333333], [89.56097222222222, 24.455694444444443], [89.5626388888889, 24.44125], [89.5676388888889, 24.44875], [89.57458333333334, 24.436249999999998], [89.58541666666667, 24.43736111111111], [89.57875, 24.439305555555553], [89.57680555555555, 24.448194444444443], [89.57319444444445, 24.445416666666667], [89.57152777777777, 24.451805555555556], [89.57597222222222, 24.451527777777777], [89.56736111111111, 24.46597222222222], [89.57402777777779, 24.465416666666666], [89.57708333333333, 24.47208333333333], [89.57625, 24.45875], [89.59208333333333, 24.43236111111111], [89.59125, 24.44597222222222], [89.59319444444445, 24.430138888888887], [89.59472411537931, 24.431981447060426], [89.58180555555556, 24.398194444444442], [89.59958333333334, 24.391527777777778], [89.59180555555555, 24.400694444444444], [89.60625, 24.391527777777778], [89.61125, 24.37763888888889], [89.60535519857207, 24.37341242748773]]], [[[89.59813835298321, 24.436094051446947], [89.60541666666667, 24.44486111111111], [89.60041666666667, 24.437083333333334], [89.61375, 24.43958333333333], [89.6126388888889, 24.47458333333333], [89.6169481664316, 24.4771182024761], [89.61744120497909, 24.47483789919396], [89.61375, 24.47458333333333], [89.61486111111111, 24.45236111111111], [89.63236111111111, 24.45875], [89.62736111111111, 24.453194444444442], [89.63476851851851, 24.451527777777777], [89.61763888888889, 24.451527777777777], [89.61347222222223, 24.437083333333334], [89.59813835298321, 24.436094051446947]]], [[[89.6390881642512, 24.451527777777777], [89.64319444444445, 24.457083333333333], [89.65263888888889, 24.452638888888888], [89.65597222222223, 24.46013888888889], [89.66708333333334, 24.461527777777775], [89.66763888888889, 24.457083333333333], [89.67463936919629, 24.460350224143447], [89.66791666666667, 24.452638888888888], [89.65819444444445, 24.45986111111111], [89.65180555555555, 24.451527777777777], [89.6390881642512, 24.451527777777777]]], [[[89.61667222222222, 24.478394444444433], [89.61180555555556, 24.485694444444444], [89.62208333333334, 24.48875], [89.61125, 24.49513888888889], [89.61597222222223, 24.514305555555556], [89.60236111111111, 24.518749999999997], [89.59986111111111, 24.54375], [89.59152777777778, 24.55236111111111], [89.59597222222223, 24.559027777777775], [89.59236111111112, 24.552916666666665], [89.60125000000001, 24.544027777777778], [89.60347222222222, 24.519027777777776], [89.61708333333334, 24.515694444444442], [89.61208333333333, 24.495416666666664], [89.62375, 24.48986111111111], [89.61569444444444, 24.482916666666664], [89.61667222222222, 24.478394444444433]]], [[[89.5350128321256, 24.5279898852657], [89.52458333333334, 24.531805555555554], [89.53004173290937, 24.544359874580447], [89.53097222222223, 24.54513888888889], [89.52597222222222, 24.532083333333333], [89.53680555555556, 24.529027777777777], [89.5350128321256, 24.5279898852657]]], [[[89.72242571059432, 24.37721253229974], [89.72180555555556, 24.382638888888888], [89.71541666666667, 24.39097222222222], [89.72763888888889, 24.387638888888887], [89.72242571059432, 24.37721253229974]]], [[[89.72903520318617, 24.38039034021871], [89.73180555555555, 24.38208333333333], [89.74375, 24.379305555555554], [89.75375, 24.399027777777775], [89.74569444444445, 24.41236111111111], [89.72986111111112, 24.396527777777777], [89.72902777777779, 24.41347222222222], [89.7201388888889, 24.400694444444444], [89.72791666666667, 24.414305555555554], [89.71597222222222, 24.43958333333333], [89.72097222222223, 24.464027777777776], [89.71347222222222, 24.47958333333333], [89.69652777777777, 24.481805555555553], [89.68652777777778, 24.495416666666664], [89.68541666666667, 24.50069444444444], [89.69486111111111, 24.485138888888887], [89.70347222222223, 24.48236111111111], [89.70013888888889, 24.501805555555553], [89.68430555555555, 24.529305555555553], [89.69347222222223, 24.52125], [89.66680555555556, 24.560138888888886], [89.66319444444444, 24.58513888888889], [89.64875, 24.603194444444444], [89.65875, 24.618194444444445], [89.65263888888889, 24.608194444444443], [89.66180555555556, 24.609305555555554], [89.66291666666667, 24.650972222222222], [89.65097222222222, 24.669583333333332], [89.63736111111112, 24.67625], [89.63208333333334, 24.691805555555554], [89.63736111111112, 24.69597222222222], [89.65986111111111, 24.678194444444443], [89.66513888888889, 24.686249999999998], [89.66180555555556, 24.67736111111111], [89.66847222222222, 24.67236111111111], [89.66708333333334, 24.68986111111111], [89.65692269076307, 24.692632195448457], [89.66652777777779, 24.692083333333333], [89.65541666666667, 24.746805555555554], [89.66652777777779, 24.74736111111111], [89.66680555555556, 24.75597222222222], [89.72319444444445, 24.734305555555554], [89.72375000000001, 24.761805555555554], [89.70652777777778, 24.77208333333333], [89.72041666666667, 24.767638888888886], [89.69541666666667, 24.77986111111111], [89.71986111111111, 24.775972222222222], [89.73097222222222, 24.76458333333333], [89.73875, 24.742638888888887], [89.73152777777779, 24.720694444444444], [89.74319444444444, 24.69763888888889], [89.79430555555555, 24.67486111111111], [89.78708333333334, 24.677638888888886], [89.79125, 24.67236111111111], [89.78236111111111, 24.671527777777776], [89.78458333333333, 24.626527777777778], [89.76375, 24.645138888888887], [89.74319444444444, 24.681805555555552], [89.71708333333333, 24.709027777777777], [89.69819444444445, 24.682916666666664], [89.70180555555555, 24.674027777777777], [89.70736111111111, 24.69347222222222], [89.70430555555556, 24.67458333333333], [89.71486111111112, 24.62486111111111], [89.75180555555556, 24.597638888888888], [89.74975041771096, 24.594813074352547], [89.74680555555555, 24.594027777777775], [89.74041666666668, 24.586805555555554], [89.74865948813984, 24.593313046192254], [89.73847222222223, 24.579305555555553], [89.75847222222222, 24.56319444444444], [89.76597222222223, 24.540138888888887], [89.76013888888889, 24.549027777777777], [89.75930555555556, 24.537916666666664], [89.75180555555556, 24.53736111111111], [89.75763888888889, 24.54847222222222], [89.75402777777778, 24.55875], [89.74458333333334, 24.568194444444444], [89.73569444444445, 24.56625], [89.74652777777779, 24.54236111111111], [89.71930555555556, 24.492916666666666], [89.73041666666667, 24.47458333333333], [89.74291666666667, 24.46763888888889], [89.74236111111111, 24.455694444444443], [89.7551388888889, 24.455416666666665], [89.74541666666667, 24.427916666666665], [89.76597222222223, 24.37569444444444], [89.75708333333334, 24.365972222222222], [89.75569444444444, 24.393194444444443], [89.74680555555555, 24.37875], [89.72903520318617, 24.38039034021871]], [[89.76708333333333, 24.664861111111108], [89.7826388888889, 24.63847222222222], [89.77958333333333, 24.661527777777778], [89.76708333333333, 24.664861111111108]], [[89.77569444444444, 24.67347222222222], [89.7551388888889, 24.678749999999997], [89.76986111111111, 24.665416666666665], [89.77791666666667, 24.665138888888887], [89.77569444444444, 24.67347222222222]], [[89.72152777777778, 24.59263888888889], [89.71680555555555, 24.594305555555554], [89.72652777777778, 24.574583333333333], [89.73136231993554, 24.588818374131158], [89.73597222222223, 24.58625], [89.74625, 24.59958333333333], [89.71041666666667, 24.622638888888886], [89.71041666666667, 24.604305555555555], [89.71652777777778, 24.59708333333333], [89.72893912529551, 24.59016843971631], [89.72152777777778, 24.59263888888889]], [[89.74291666666667, 24.424305555555556], [89.73652777777778, 24.44125], [89.73236111111112, 24.42736111111111], [89.74069444444444, 24.417638888888888], [89.74291666666667, 24.424305555555556]], [[89.73541666666667, 24.580972222222222], [89.73597222222223, 24.58597222222222], [89.72875, 24.57208333333333], [89.74180555555556, 24.567916666666665], [89.73541666666667, 24.580972222222222]], [[89.72958333333334, 24.742083333333333], [89.73152777777779, 24.733194444444443], [89.73347222222222, 24.75097222222222], [89.72958333333334, 24.742083333333333]], [[89.72875, 24.555694444444445], [89.72291666666666, 24.55847222222222], [89.72819444444444, 24.549305555555556], [89.72875, 24.555694444444445]], [[89.72791666666667, 24.52263888888889], [89.72625000000001, 24.52847222222222], [89.71902777777778, 24.520416666666666], [89.72791666666667, 24.52263888888889]], [[89.72208333333333, 24.72458333333333], [89.7201388888889, 24.71236111111111], [89.72680555555556, 24.708194444444445], [89.72208333333333, 24.72458333333333]], [[89.7201388888889, 24.507916666666667], [89.72513888888889, 24.519583333333333], [89.71958333333333, 24.517916666666665], [89.7201388888889, 24.507916666666667]], [[89.71097222222222, 24.548472222222216], [89.71652777777778, 24.542916666666667], [89.72236111111111, 24.55875], [89.71177469135803, 24.549675925925932], [89.71430555555555, 24.553472222222222], [89.71597222222222, 24.56236111111111], [89.7076388888889, 24.56847222222222], [89.70236111111112, 24.55125], [89.70875000000001, 24.54513888888889], [89.71097222222222, 24.548472222222216]], [[89.70432071536042, 24.597134169972183], [89.70125, 24.599027777777778], [89.69930555555555, 24.635694444444443], [89.69402777777778, 24.637638888888887], [89.69152777777778, 24.607916666666664], [89.71736111111112, 24.57986111111111], [89.71791666666667, 24.588749999999997], [89.70635204081633, 24.59588151927438], [89.71486111111112, 24.593194444444443], [89.70458333333333, 24.60763888888889], [89.70432071536042, 24.597134169972183]], [[89.68883746483826, 24.70285293600562], [89.68708333333333, 24.705416666666665], [89.68263888888889, 24.701805555555556], [89.68930555555556, 24.69347222222222], [89.69030227338547, 24.69825646780577], [89.69430555555556, 24.685694444444444], [89.69930555555555, 24.70375], [89.69625, 24.727361111111108], [89.70097222222222, 24.703194444444442], [89.70902777777778, 24.714583333333334], [89.70652777777778, 24.72958333333333], [89.71375, 24.72347222222222], [89.70375, 24.73486111111111], [89.67819444444444, 24.73625], [89.68883746483826, 24.70285293600562]], [[89.70569444444445, 24.63597222222222], [89.70263888888888, 24.626527777777778], [89.71041666666667, 24.629583333333333], [89.70569444444445, 24.63597222222222]], [[89.70069444444445, 24.616249999999997], [89.70902777777778, 24.606805555555553], [89.71013888888889, 24.625138888888888], [89.70319444444445, 24.62569444444444], [89.70069444444445, 24.616249999999997]], [[89.69236111111111, 24.541805555555555], [89.70041666666667, 24.52263888888889], [89.70125, 24.535138888888888], [89.69236111111111, 24.541805555555555]], [[89.69986111111112, 24.662916666666664], [89.6901388888889, 24.64486111111111], [89.69819444444445, 24.638194444444444], [89.69986111111112, 24.662916666666664]], [[89.68986111111111, 24.587916666666665], [89.6776388888889, 24.596527777777776], [89.68208333333334, 24.581805555555555], [89.69125, 24.58375], [89.68986111111111, 24.587916666666665]], [[89.68458333333334, 24.560972222222222], [89.68069444444444, 24.555694444444445], [89.6876388888889, 24.547638888888887], [89.68458333333334, 24.560972222222222]], [[89.68319444444445, 24.67013888888889], [89.67875000000001, 24.66097222222222], [89.68708333333333, 24.66347222222222], [89.68319444444445, 24.67013888888889]], [[89.68263888888889, 24.62986111111111], [89.68263888888889, 24.646805555555556], [89.67680555555556, 24.622916666666665], [89.68541666666667, 24.61347222222222], [89.68263888888889, 24.62986111111111]], [[89.67986111111111, 24.715694444444445], [89.67875000000001, 24.706249999999997], [89.68430555555555, 24.711527777777775], [89.67986111111111, 24.715694444444445]], [[89.67375, 24.57125], [89.66986111111112, 24.57236111111111], [89.67486111111111, 24.56347222222222], [89.67375, 24.57125]], [[89.66236111111111, 24.607916666666664], [89.64986111111111, 24.603749999999998], [89.66402777777778, 24.58625], [89.66236111111111, 24.607916666666664]]], [[[89.65680333924351, 24.69266474586288], [89.65486111111112, 24.693194444444444], [89.65402777777778, 24.71236111111111], [89.64708333333334, 24.71763888888889], [89.65513888888889, 24.712083333333332], [89.65680333924351, 24.69266474586288]]], [[[89.81236111111112, 24.13625], [89.80708333333334, 24.140694444444442], [89.81541666666666, 24.134305555555553], [89.82041666666667, 24.140138888888888], [89.81625, 24.11958333333333], [89.80791666666667, 24.13458333333333], [89.81236111111112, 24.13625]]], [[[89.80875, 24.129583333333333], [89.81180555555555, 24.126527777777778], [89.80375000000001, 24.118194444444445], [89.80541666666667, 24.13375], [89.80875, 24.129583333333333]]], [[[89.80236111111111, 24.151805555555555], [89.80652777777777, 24.14986111111111], [89.79958333333333, 24.149027777777775], [89.79930555555556, 24.159305555555555], [89.80236111111111, 24.151805555555555]]], [[[89.79736111111112, 24.136805555555554], [89.79652777777778, 24.123194444444444], [89.79152777777779, 24.131805555555555], [89.79736111111112, 24.136805555555554]]], [[[89.74419194107453, 24.496543423839782], [89.74152777777778, 24.513194444444444], [89.74513888888889, 24.50208333333333], [89.75625000000001, 24.496805555555554], [89.74419194107453, 24.496543423839782]]], [[[89.70847222222223, 24.38458333333333], [89.71208333333334, 24.37736111111111], [89.69347222222223, 24.39597222222222], [89.70847222222223, 24.38458333333333]]], [[[89.70652777777778, 24.32347222222222], [89.69791666666667, 24.31597222222222], [89.70486111111111, 24.332638888888887], [89.70652777777778, 24.32347222222222]]], [[[89.70097222222222, 24.271805555555556], [89.69652777777777, 24.269305555555555], [89.70152777777778, 24.282916666666665], [89.70097222222222, 24.271805555555556]]], [[[89.69541666666667, 24.312638888888888], [89.6973611111111, 24.306805555555552], [89.68847222222223, 24.307916666666664], [89.68875, 24.31347222222222], [89.69541666666667, 24.312638888888888]]], [[[89.68541666666667, 24.23486111111111], [89.69597222222222, 24.22986111111111], [89.6901388888889, 24.22847222222222], [89.68875, 24.219305555555554], [89.6726388888889, 24.212916666666665], [89.67819444444444, 24.22958333333333], [89.68680555555555, 24.22236111111111], [89.68013888888889, 24.234583333333333], [89.68347222222222, 24.229305555555555], [89.68541666666667, 24.23486111111111]]], [[[89.68847222222223, 24.25375], [89.68097222222222, 24.255416666666665], [89.68875, 24.259027777777778], [89.68263888888889, 24.265694444444442], [89.69069444444445, 24.269583333333333], [89.69458333333334, 24.267638888888886], [89.68847222222223, 24.25375]]], [[[89.68013888888889, 24.239583333333332], [89.68041666666667, 24.248194444444444], [89.68680555555555, 24.24986111111111], [89.68847222222223, 24.240138888888886], [89.68013888888889, 24.239583333333332]]], [[[89.66625, 24.27875], [89.67958333333334, 24.274305555555554], [89.6726388888889, 24.271805555555556], [89.6748852657005, 24.270307971014493], [89.67180555555557, 24.269583333333333], [89.66625, 24.27875]]], [[[89.67700800376649, 24.270807438794726], [89.68208333333334, 24.276805555555555], [89.68597222222222, 24.272916666666664], [89.67700800376649, 24.270807438794726]]], [[[89.66319444444444, 24.24486111111111], [89.67013888888889, 24.24513888888889], [89.67347222222223, 24.228194444444444], [89.66875, 24.227916666666665], [89.66319444444444, 24.24486111111111]]], [[[89.6353229492607, 24.230771596416957], [89.63180555555556, 24.23763888888889], [89.63936190193752, 24.24465549624357], [89.6353229492607, 24.230771596416957]]], [[[89.6353392094017, 24.230739850427348], [89.63819444444445, 24.239305555555553], [89.64236111111111, 24.241805555555555], [89.64680555555556, 24.234305555555554], [89.64930555555556, 24.240694444444443], [89.65097222222222, 24.222638888888888], [89.63875, 24.215416666666666], [89.63041666666668, 24.224305555555553], [89.63762753999136, 24.226272157371376], [89.6353392094017, 24.230739850427348]], [[89.63769656952033, 24.22629098360655], [89.6426388888889, 24.227638888888887], [89.64597222222223, 24.222638888888888], [89.64819444444444, 24.233749999999997], [89.63769656952033, 24.22629098360655]]], [[[89.64004814077026, 24.245292718016817], [89.64347222222223, 24.248472222222222], [89.63680555555555, 24.25208333333333], [89.63847222222222, 24.26013888888889], [89.65013888888889, 24.262083333333333], [89.64736111111111, 24.26986111111111], [89.65291666666667, 24.27263888888889], [89.65986111111111, 24.28013888888889], [89.66180555555556, 24.268472222222222], [89.67041666666667, 24.267083333333332], [89.65208333333334, 24.242083333333333], [89.64004814077026, 24.245292718016817]], [[89.64986111111111, 24.246805555555554], [89.65402777777778, 24.25125], [89.64208333333333, 24.26013888888889], [89.64986111111111, 24.246805555555554]]], [[[89.66736111111112, 24.341527777777777], [89.66069444444445, 24.33458333333333], [89.65819444444445, 24.340694444444445], [89.67013888888889, 24.345138888888886], [89.66736111111112, 24.341527777777777]]], [[[89.64902777777777, 24.35347222222222], [89.65208333333334, 24.35736111111111], [89.65458333333333, 24.351527777777775], [89.64486111111111, 24.350694444444443], [89.64375, 24.356527777777778], [89.64902777777777, 24.35347222222222]]], [[[89.65125, 24.330138888888886], [89.64763888888889, 24.32347222222222], [89.63930555555555, 24.325416666666666], [89.64347222222223, 24.33625], [89.65125, 24.330138888888886]]], [[[89.63430555555556, 24.329027777777778], [89.63930555555555, 24.330416666666665], [89.63680555555555, 24.315416666666664], [89.64125, 24.321527777777778], [89.64402777777778, 24.311527777777776], [89.63208333333334, 24.316527777777775], [89.62680555555556, 24.331249999999997], [89.63180555555556, 24.33513888888889], [89.63430555555556, 24.329027777777778]]], [[[89.63597222222222, 24.34875], [89.64013888888888, 24.34847222222222], [89.63652777777779, 24.336805555555554], [89.61180555555556, 24.332638888888887], [89.63430555555556, 24.339305555555555], [89.62680555555556, 24.345694444444444], [89.63125000000001, 24.353194444444444], [89.63597222222222, 24.34875]]], [[[89.62791666666666, 24.36986111111111], [89.63458333333334, 24.36125], [89.62791666666666, 24.361805555555556], [89.62791666666666, 24.36986111111111]]], [[[89.60847222222222, 24.30597222222222], [89.60819444444445, 24.311249999999998], [89.61388395748689, 24.302601940175478], [89.61402777777778, 24.291527777777777], [89.60847222222222, 24.30597222222222]]], [[[89.60875, 24.583194444444445], [89.60402777777779, 24.579305555555553], [89.60875, 24.588749999999997], [89.59958333333334, 24.594027777777775], [89.60902777777778, 24.59208333333333], [89.60875, 24.583194444444445]]], [[[89.60180555555556, 24.32597222222222], [89.59208333333333, 24.32875], [89.60763888888889, 24.333194444444445], [89.60180555555556, 24.32597222222222]]], [[[89.56069444444445, 24.132916666666667], [89.57597222222222, 24.122638888888886], [89.57513888888889, 24.12736111111111], [89.58458333333334, 24.126805555555553], [89.60208333333334, 24.099305555555553], [89.57847222222223, 24.112916666666667], [89.55930555555555, 24.11125], [89.55541666666667, 24.119027777777777], [89.5676388888889, 24.114583333333332], [89.56847222222223, 24.11958333333333], [89.56152777777778, 24.117638888888887], [89.56430555555556, 24.12236111111111], [89.55069444444445, 24.129583333333333], [89.54569444444445, 24.125416666666666], [89.54736111111112, 24.13236111111111], [89.56069444444445, 24.132916666666667]]], [[[89.58347222222223, 24.222638888888888], [89.58597222222222, 24.215694444444445], [89.59458333333333, 24.220694444444444], [89.59875000000001, 24.211527777777775], [89.59208333333333, 24.196527777777778], [89.5873886131614, 24.20311844263454], [89.58370202558636, 24.201499940772333], [89.58319444444444, 24.207083333333333], [89.58601576105886, 24.20504571577847], [89.57763888888888, 24.216805555555553], [89.58347222222223, 24.222638888888888]]], [[[89.58763888888889, 24.291805555555555], [89.5826388888889, 24.287916666666664], [89.57986111111111, 24.293194444444442], [89.58708333333334, 24.295972222222222], [89.58763888888889, 24.291805555555555]]], [[[89.56217299578059, 24.62440400843882], [89.58208333333333, 24.626527777777778], [89.58569444444444, 24.616805555555555], [89.58208333333333, 24.62597222222222], [89.56291666666667, 24.622916666666665], [89.56217299578059, 24.62440400843882]]], [[[89.57819444444445, 24.304583333333333], [89.57597222222222, 24.29875], [89.56708333333333, 24.30625], [89.57819444444445, 24.304583333333333]]], [[[89.57402777777779, 24.287916666666664], [89.56958333333334, 24.279305555555553], [89.56319444444445, 24.281527777777775], [89.57402777777779, 24.287916666666664]]], [[[89.55969738315142, 24.353020221102714], [89.56125, 24.349027777777778], [89.56958333333334, 24.358194444444443], [89.56930555555556, 24.33458333333333], [89.56125, 24.343194444444443], [89.56875000000001, 24.345694444444444], [89.56125, 24.345972222222223], [89.55652777777777, 24.343194444444443], [89.55969738315142, 24.353020221102714]]], [[[89.56056341719078, 24.35570492662474], [89.5676388888889, 24.37763888888889], [89.57180555555556, 24.370694444444442], [89.56056341719078, 24.35570492662474]]], [[[89.55652777777777, 24.335416666666664], [89.56319444444445, 24.333194444444445], [89.56291666666667, 24.339305555555555], [89.56680555555556, 24.334305555555556], [89.55402777777778, 24.32847222222222], [89.54430555555555, 24.332083333333333], [89.54541666666667, 24.336805555555554], [89.55652777777777, 24.335416666666664]]], [[[89.56486111111111, 24.405416666666664], [89.56569444444445, 24.387916666666666], [89.55875, 24.410138888888888], [89.56486111111111, 24.405416666666664]]], [[[89.56369252873553, 24.649717432949785], [89.56541666666666, 24.656805555555554], [89.55763888888889, 24.65347222222222], [89.55625, 24.658472222222223], [89.56569444444445, 24.65736111111111], [89.56369252873553, 24.649717432949785]]], [[[89.55569444444444, 24.479305555555555], [89.56347222222223, 24.46625], [89.55097222222223, 24.479027777777777], [89.55513888888889, 24.485694444444444], [89.55569444444444, 24.479305555555555]]], [[[89.56152777777778, 24.324027777777776], [89.55069444444445, 24.32263888888889], [89.5526388888889, 24.328194444444442], [89.56152777777778, 24.324027777777776]]], [[[89.55458333333334, 24.319027777777777], [89.55819444444445, 24.314027777777778], [89.54597222222222, 24.31736111111111], [89.55458333333334, 24.319027777777777]]], [[[89.54919444444444, 24.324749999999984], [89.54680555555557, 24.32236111111111], [89.54569444444445, 24.330416666666665], [89.55097222222223, 24.32875], [89.54919444444444, 24.324749999999984]]], [[[89.53708333333334, 24.406527777777775], [89.53708333333334, 24.388749999999998], [89.54375, 24.380694444444444], [89.53013888888889, 24.36986111111111], [89.5326388888889, 24.38458333333333], [89.53791666666667, 24.381527777777777], [89.52902777777778, 24.402083333333334], [89.53708333333334, 24.406527777777775]]], [[[89.52902777777778, 24.38208333333333], [89.53152777777778, 24.385416666666664], [89.53013888888889, 24.373749999999998], [89.51902777777778, 24.389305555555556], [89.52902777777778, 24.38208333333333]]], [[[89.50791666666667, 24.364027777777775], [89.51347222222222, 24.369027777777777], [89.50819444444444, 24.358472222222222], [89.49541666666667, 24.367083333333333], [89.50375, 24.37486111111111], [89.50208333333333, 24.36375], [89.50791666666667, 24.364027777777775]]], [[[89.50736111111111, 24.38208333333333], [89.51152777777779, 24.376805555555553], [89.50680555555556, 24.371527777777775], [89.49847222222222, 24.38236111111111], [89.50736111111111, 24.38208333333333]]], [[[89.50097222222223, 24.404027777777777], [89.49708333333334, 24.39097222222222], [89.50736111111111, 24.38958333333333], [89.50097222222223, 24.38458333333333], [89.49069444444444, 24.393749999999997], [89.49180555555556, 24.400972222222222], [89.50097222222223, 24.404027777777777]]], [[[89.50347222222223, 24.41736111111111], [89.48875, 24.416805555555555], [89.49291666666667, 24.42486111111111], [89.50347222222223, 24.41736111111111]]], [[[89.46208333333334, 24.431527777777777], [89.47097222222223, 24.430694444444445], [89.47541666666667, 24.425416666666667], [89.47152777777778, 24.423194444444444], [89.48180555555555, 24.421527777777776], [89.49375, 24.40736111111111], [89.5001388888889, 24.41263888888889], [89.50152777777778, 24.405694444444443], [89.48986111111111, 24.401249999999997], [89.48375, 24.415694444444444], [89.47958333333334, 24.413194444444443], [89.47847222222222, 24.420694444444443], [89.46930555555556, 24.420972222222222], [89.46208333333334, 24.431527777777777]]], [[[89.47097222222223, 24.390138888888888], [89.47930555555556, 24.394583333333333], [89.47763888888889, 24.387361111111108], [89.47097222222223, 24.390138888888888]]], [[[89.47597222222223, 24.400972222222222], [89.47819444444444, 24.39708333333333], [89.46986111111111, 24.394305555555555], [89.46791666666667, 24.400972222222222], [89.47208333333333, 24.405416666666664], [89.47597222222223, 24.400972222222222]]], [[[89.43541666666667, 24.39486111111111], [89.45319444444445, 24.389305555555556], [89.43541666666667, 24.382638888888888], [89.42819444444444, 24.395416666666666], [89.44152777777778, 24.39986111111111], [89.43541666666667, 24.39486111111111]]], [[[89.42013888888889, 24.34097222222222], [89.40347222222222, 24.34847222222222], [89.41263888888889, 24.350416666666664], [89.40958333333333, 24.347638888888888], [89.42013888888889, 24.34097222222222]]], [[[89.41513888888889, 24.40625], [89.41347222222223, 24.399583333333332], [89.40069444444444, 24.405694444444443], [89.41513888888889, 24.40625]]], [[[89.40375, 24.401527777777776], [89.40513888888889, 24.39597222222222], [89.39847222222222, 24.396527777777777], [89.40847222222223, 24.389027777777777], [89.40486111111112, 24.380694444444444], [89.41152777777778, 24.380416666666665], [89.38763888888889, 24.375138888888888], [89.38263888888889, 24.380694444444444], [89.38652777777779, 24.39236111111111], [89.39736111111111, 24.405416666666664], [89.40375, 24.401527777777776]]], [[[89.31791666666668, 24.372638888888886], [89.32291666666667, 24.36097222222222], [89.31541666666666, 24.351805555555554], [89.31791666666668, 24.372638888888886]]]]}}