{"type": "Feature", "properties": {}, "geometry": {"type": "MultiPolygon", "coordinates": [[[[89.4366, 24.364255555555555], [89.44402777777778, 24.363194444444442], [89.43736111111112, 24.382916666666667], [89.44902777777779, 24.387083333333333], [89.45125, 24.355138888888888], [89.46847222222223, 24.344027777777775], [89.46069444444444, 24.325694444444444], [89.47152777777778, 24.33625], [89.47986111111112, 24.326805555555556], [89.48375, 24.33486111111111], [89.46902777777778, 24.35458333333333], [89.47819444444444, 24.35736111111111], [89.46819444444445, 24.359027777777776], [89.46569444444445, 24.376805555555553], [89.47541666666667, 24.381527777777777], [89.49513888888889, 24.365416666666665], [89.48541666666667, 24.365972222222222], [89.49541666666667, 24.358194444444443], [89.47930555555556, 24.343194444444443], [89.4851388888889, 24.33736111111111], [89.48736111111111, 24.343194444444443], [89.48152777777779, 24.34236111111111], [89.4901388888889, 24.34819444444444], [89.49263888888889, 24.32097222222222], [89.48236111111112, 24.316805555555554], [89.49152777777778, 24.30763888888889], [89.48013888888889, 24.306805555555552], [89.47486111111111, 24.291805555555555], [89.48236111111112, 24.29097222222222], [89.49958333333333, 24.311249999999998], [89.50375, 24.29875], [89.49569444444445, 24.295694444444443], [89.50597222222223, 24.291527777777777], [89.50676760446021, 24.299945573129715], [89.51291666666667, 24.289861111111108], [89.50428992541407, 24.287604886475812], [89.50819444444444, 24.286527777777778], [89.49763888888889, 24.281805555555554], [89.491479244114, 24.257694946008144], [89.51013888888889, 24.259027777777778], [89.49847222222222, 24.26597222222222], [89.51208333333334, 24.281805555555554], [89.51875, 24.284027777777776], [89.51236111111112, 24.27958333333333], [89.5201388888889, 24.273194444444442], [89.51819444444445, 24.27875], [89.52625, 24.27875], [89.52375, 24.27263888888889], [89.53069444444445, 24.286805555555553], [89.53541666666666, 24.280416666666664], [89.53347222222223, 24.301527777777775], [89.54208333333334, 24.29847222222222], [89.53982073643411, 24.287159237726097], [89.53569444444445, 24.286805555555553], [89.53736111111111, 24.276527777777776], [89.5501388888889, 24.283472222222223], [89.55375000000001, 24.27875], [89.55597222222222, 24.285416666666666], [89.55405701754385, 24.2769350459482], [89.55125, 24.27847222222222], [89.51458333333333, 24.25819444444444], [89.52680555555555, 24.257638888888888], [89.52291666666667, 24.25125], [89.52708333333334, 24.25736111111111], [89.53625000000001, 24.25347222222222], [89.51708333333333, 24.240694444444443], [89.51406945871874, 24.234331820258074], [89.53430555555556, 24.247083333333332], [89.53541666666666, 24.239583333333332], [89.54263888888889, 24.255138888888887], [89.54958333333333, 24.24625], [89.54819444444445, 24.25236111111111], [89.56093210361068, 24.24765371533228], [89.55152777777778, 24.254305555555554], [89.56708333333333, 24.26013888888889], [89.56291666666667, 24.24625], [89.56096627590894, 24.247629544682297], [89.54930555555556, 24.229305555555555], [89.53347222222223, 24.22958333333333], [89.54541666666667, 24.227083333333333], [89.53541666666666, 24.21847222222222], [89.54208333333334, 24.20958333333333], [89.53986111111111, 24.219027777777775], [89.55513888888889, 24.227638888888887], [89.55180555555556, 24.23263888888889], [89.56013888888889, 24.230416666666667], [89.56152777777778, 24.243194444444445], [89.5723611111111, 24.234583333333333], [89.56236111111112, 24.227361111111108], [89.56958333333334, 24.220138888888886], [89.56013888888889, 24.21597222222222], [89.56680555555556, 24.211805555555554], [89.55736111111112, 24.199861111111108], [89.57152777777777, 24.216527777777777], [89.5826388888889, 24.20847222222222], [89.56791666666668, 24.19569444444444], [89.57097222222222, 24.185972222222222], [89.55763888888889, 24.18347222222222], [89.58069444444445, 24.185138888888886], [89.58290408805031, 24.179809748427672], [89.58569444444444, 24.196805555555553], [89.59263888888889, 24.180694444444445], [89.58348603437692, 24.17840623081645], [89.58541666666667, 24.17375], [89.57319444444445, 24.168194444444442], [89.58319444444444, 24.169583333333332], [89.57930555555556, 24.14625], [89.58942899663471, 24.141598689233902], [89.58625, 24.162916666666664], [89.59097222222222, 24.16125], [89.59708333333333, 24.171527777777776], [89.60152777777778, 24.166527777777777], [89.60652777777779, 24.176527777777775], [89.59791666666666, 24.199027777777776], [89.61375, 24.195416666666667], [89.61152777777778, 24.18736111111111], [89.61581718346254, 24.194867571059437], [89.6151388888889, 24.20097222222222], [89.60180555555556, 24.20486111111111], [89.60069444444444, 24.222638888888888], [89.57986111111111, 24.228194444444444], [89.57402777777779, 24.239305555555553], [89.58458333333334, 24.272916666666664], [89.5801388888889, 24.28486111111111], [89.59347222222223, 24.29347222222222], [89.57486111111112, 24.309027777777775], [89.58375000000001, 24.305138888888887], [89.58763888888889, 24.315416666666664], [89.58153446155492, 24.32961300930381], [89.58902777777779, 24.320416666666667], [89.59236111111112, 24.325416666666666], [89.59625, 24.294305555555553], [89.5826388888889, 24.282638888888886], [89.58791666666667, 24.273194444444442], [89.57763888888888, 24.24458333333333], [89.58152777777778, 24.23097222222222], [89.59319444444445, 24.235416666666666], [89.5951388888889, 24.248194444444444], [89.58958333333334, 24.24458333333333], [89.58486111111111, 24.254583333333333], [89.59875000000001, 24.25486111111111], [89.58902777777779, 24.260416666666664], [89.59486111111111, 24.271805555555556], [89.60458333333334, 24.267916666666665], [89.60041666666667, 24.259027777777778], [89.60474466278507, 24.25307678311499], [89.60986111111112, 24.25375], [89.60486111111112, 24.26347222222222], [89.61125, 24.275972222222222], [89.61819444444444, 24.271805555555556], [89.61458333333334, 24.285416666666666], [89.62430555555555, 24.27236111111111], [89.62180555555555, 24.281527777777775], [89.62625, 24.274583333333332], [89.63041666666668, 24.29486111111111], [89.62930555555556, 24.26986111111111], [89.61847222222222, 24.255138888888887], [89.62625, 24.23847222222222], [89.63041666666668, 24.248472222222222], [89.62958333333333, 24.241527777777776], [89.63375, 24.24458333333333], [89.62708333333333, 24.25819444444444], [89.63142420435513, 24.26235189838081], [89.6428227993325, 24.27992473230427], [89.64708333333334, 24.279027777777777], [89.63215476190483, 24.26305158730165], [89.65697098899115, 24.286819241412484], [89.65125, 24.275138888888886], [89.62791666666666, 24.25736111111111], [89.63569444444445, 24.246805555555554], [89.62680555555556, 24.230138888888888], [89.62486111111112, 24.235416666666666], [89.60791666666667, 24.21847222222222], [89.62319444444445, 24.227916666666665], [89.61597222222223, 24.220138888888886], [89.60347222222222, 24.215416666666666], [89.60569444444445, 24.206805555555555], [89.60430555555556, 24.215138888888887], [89.61763888888889, 24.20486111111111], [89.62263888888889, 24.21708333333333], [89.63291666666667, 24.213749999999997], [89.63097222222223, 24.204583333333332], [89.64458333333333, 24.214027777777776], [89.64473009677714, 24.205221971149452], [89.64986111111111, 24.20958333333333], [89.6576388888889, 24.189305555555553], [89.66819444444445, 24.186249999999998], [89.66375000000001, 24.192638888888887], [89.66902777777779, 24.19347222222222], [89.65902777777778, 24.193194444444444], [89.65347222222222, 24.204583333333332], [89.65263888888889, 24.226805555555554], [89.65819444444445, 24.227361111111108], [89.65402777777778, 24.234583333333333], [89.66347222222223, 24.234305555555554], [89.66319444444444, 24.19736111111111], [89.66847222222222, 24.19486111111111], [89.66708333333334, 24.209027777777777], [89.67152777777778, 24.199305555555554], [89.67208333333333, 24.212083333333332], [89.68736111111112, 24.216527777777777], [89.67486111111111, 24.21013888888889], [89.6815307486631, 24.194932115270344], [89.68263888888889, 24.200694444444444], [89.69819444444445, 24.20986111111111], [89.68375, 24.199027777777776], [89.69236111111111, 24.18847222222222], [89.70680555555556, 24.229027777777777], [89.71375, 24.225694444444443], [89.70625, 24.22958333333333], [89.70069444444445, 24.24597222222222], [89.70819444444444, 24.25208333333333], [89.70236111111112, 24.25375], [89.70930555555556, 24.30736111111111], [89.70791666666666, 24.28569444444444], [89.71958333333333, 24.301805555555553], [89.71513888888889, 24.33625], [89.72708333333334, 24.344305555555554], [89.7222450105546, 24.37599656975628], [89.73069444444445, 24.381805555555555], [89.74513888888889, 24.379305555555554], [89.75375, 24.399027777777775], [89.74569444444445, 24.41236111111111], [89.72930555555556, 24.39763888888889], [89.73069444444445, 24.411527777777778], [89.71597222222222, 24.43958333333333], [89.72041666666667, 24.46597222222222], [89.71347222222222, 24.47958333333333], [89.69708333333334, 24.481527777777778], [89.68708333333333, 24.494305555555552], [89.70430555555556, 24.482083333333332], [89.68541666666667, 24.52847222222222], [89.69319444444444, 24.52263888888889], [89.64875, 24.603194444444444], [89.65875, 24.618194444444445], [89.65263888888889, 24.608194444444443], [89.66180555555556, 24.609027777777776], [89.66291666666667, 24.650972222222222], [89.63763888888889, 24.67597222222222], [89.63208333333334, 24.691805555555554], [89.63736111111112, 24.69597222222222], [89.65986111111111, 24.678194444444443], [89.66513888888889, 24.686249999999998], [89.66180555555556, 24.67736111111111], [89.66819444444445, 24.672083333333333], [89.66708333333334, 24.68986111111111], [89.65486111111112, 24.693194444444444], [89.65402777777778, 24.71236111111111], [89.64708333333334, 24.71763888888889], [89.65513888888889, 24.712083333333332], [89.65652777777778, 24.692916666666665], [89.66652777777779, 24.692083333333333], [89.65541666666667, 24.746805555555554], [89.66652777777779, 24.74736111111111], [89.66680555555556, 24.75597222222222], [89.72319444444445, 24.734305555555554], [89.72375000000001, 24.761805555555554], [89.70652777777778, 24.77125], [89.72125, 24.765416666666667], [89.70847222222223, 24.77486111111111], [89.71430555555555, 24.774305555555554], [89.69541666666667, 24.77986111111111], [89.71986111111111, 24.775972222222222], [89.73875, 24.742638888888887], [89.73152777777779, 24.720694444444444], [89.74319444444444, 24.69763888888889], [89.79430555555555, 24.67486111111111], [89.78236111111111, 24.671527777777776], [89.78430555555556, 24.626805555555553], [89.71708333333333, 24.709027777777777], [89.69819444444445, 24.682916666666664], [89.70180555555555, 24.674027777777777], [89.70736111111111, 24.69347222222222], [89.70402777777778, 24.677083333333332], [89.71486111111112, 24.62486111111111], [89.75180555555556, 24.597638888888888], [89.73819444444445, 24.57986111111111], [89.75847222222222, 24.562083333333334], [89.76597222222223, 24.540138888888887], [89.76013888888889, 24.549027777777777], [89.75930555555556, 24.537916666666664], [89.75180555555556, 24.53736111111111], [89.75402777777778, 24.55875], [89.74458333333334, 24.568194444444444], [89.73569444444445, 24.56625], [89.74680555555555, 24.54375], [89.71930555555556, 24.492916666666666], [89.74291666666667, 24.46763888888889], [89.74236111111111, 24.455694444444443], [89.7551388888889, 24.455416666666665], [89.74541666666667, 24.42736111111111], [89.76597222222223, 24.37569444444444], [89.75708333333334, 24.365972222222222], [89.75597222222223, 24.393472222222222], [89.74680555555555, 24.37875], [89.72375000000001, 24.376527777777778], [89.72847222222222, 24.34486111111111], [89.71625, 24.33236111111111], [89.72041666666667, 24.300694444444442], [89.70569444444445, 24.27208333333333], [89.71736111111112, 24.290694444444444], [89.71041666666667, 24.27263888888889], [89.71958333333333, 24.278194444444445], [89.72708333333334, 24.303749999999997], [89.74097222222223, 24.31347222222222], [89.73625, 24.33458333333333], [89.74152777777778, 24.311249999999998], [89.75597222222223, 24.316527777777775], [89.75486111111111, 24.34708333333333], [89.76458333333333, 24.340416666666666], [89.77402777777777, 24.301805555555553], [89.78791666666667, 24.285416666666666], [89.77819444444445, 24.275694444444444], [89.77569444444444, 24.23486111111111], [89.79625, 24.17347222222222], [89.78013888888889, 24.166249999999998], [89.79791666666667, 24.155694444444443], [89.78847222222223, 24.136805555555554], [89.78680555555556, 24.107916666666664], [89.79263888888889, 24.109027777777776], [89.78680555555556, 24.104305555555555], [89.7926149326945, 24.087264715947974], [89.7976388888889, 24.092916666666664], [89.79208333333334, 24.100416666666664], [89.80541666666667, 24.099305555555553], [89.80625, 24.09125], [89.81013888888889, 24.103194444444444], [89.80680555555556, 24.086805555555554], [89.8151388888889, 24.092916666666664], [89.82486111111112, 24.088749999999997], [89.81708333333333, 24.06347222222222], [89.80402777777778, 24.069305555555555], [89.80958333333334, 24.057916666666664], [89.79888520157326, 24.050837020648967], [89.79291666666667, 24.056805555555552], [89.80347222222223, 24.06847222222222], [89.79569444444445, 24.07708333333333], [89.81069444444445, 24.082083333333333], [89.79338390700482, 24.08500905797101], [89.79513888888889, 24.07986111111111], [89.78319444444445, 24.051527777777775], [89.79869612977008, 24.050711899602742], [89.79069444444444, 24.045416666666664], [89.79708333333333, 24.045694444444443], [89.7851388888889, 24.04375], [89.79236111111112, 24.04236111111111], [89.77708333333334, 24.029027777777777], [89.76347222222222, 24.023194444444442], [89.76069444444445, 24.033749999999998], [89.75875, 24.02236111111111], [89.72180555555556, 24.01347222222222], [89.70652777777778, 24.02847222222222], [89.70291666666667, 24.02375], [89.69875, 24.03847222222222], [89.68291666666667, 24.034305555555555], [89.68458333333334, 24.05847222222222], [89.66291666666667, 24.07236111111111], [89.67291666666667, 24.08486111111111], [89.67222925711529, 24.089604237015596], [89.66291666666667, 24.08236111111111], [89.66569444444444, 24.094027777777775], [89.67208702808007, 24.090585617358588], [89.66736111111112, 24.123194444444444], [89.67680555555556, 24.15236111111111], [89.66804438058747, 24.149679118773943], [89.67125, 24.152083333333334], [89.64875, 24.154027777777777], [89.64807154882155, 24.14927861952862], [89.66069444444445, 24.14708333333333], [89.65013888888889, 24.13625], [89.65613139825219, 24.140744382022472], [89.64291666666666, 24.126805555555553], [89.62930555555556, 24.12625], [89.64097222222223, 24.124583333333334], [89.63763888888889, 24.117083333333333], [89.64375, 24.116249999999997], [89.64291666666666, 24.125416666666666], [89.66375000000001, 24.140694444444442], [89.65597222222223, 24.134027777777778], [89.66236111111111, 24.134027777777778], [89.65986111111111, 24.115694444444443], [89.66680555555556, 24.109305555555554], [89.65458333333333, 24.109305555555554], [89.66208333333334, 24.108472222222222], [89.65680555555556, 24.10736111111111], [89.66263888888889, 24.104027777777777], [89.66241920842411, 24.091945352214957], [89.65041666666667, 24.09958333333333], [89.65930555555556, 24.080694444444443], [89.66240232974911, 24.09101702508961], [89.66208333333334, 24.07347222222222], [89.60180555555556, 24.09986111111111], [89.59957422586534, 24.103399362477028], [89.60208333333334, 24.099305555555553], [89.58097222222223, 24.107916666666664], [89.57847222222223, 24.122083333333332], [89.5859411351785, 24.12501754913758], [89.58236111111111, 24.130694444444444], [89.55763888888889, 24.13597222222222], [89.53291666666667, 24.130694444444444], [89.52180555555556, 24.154305555555553], [89.52930555555555, 24.158749999999998], [89.52319444444444, 24.16847222222222], [89.53347222222223, 24.166527777777777], [89.5351388888889, 24.172916666666666], [89.5176388888889, 24.179027777777776], [89.52236111111111, 24.19736111111111], [89.51041666666667, 24.199583333333333], [89.50097222222223, 24.21736111111111], [89.48652777777778, 24.215138888888887], [89.48597222222223, 24.20375], [89.47986111111112, 24.20847222222222], [89.46902777777778, 24.20486111111111], [89.47375000000001, 24.20736111111111], [89.46152777777777, 24.22458333333333], [89.47375000000001, 24.219305555555554], [89.47819444444444, 24.22958333333333], [89.44597222222222, 24.232916666666664], [89.45652777777778, 24.233749999999997], [89.46291666666667, 24.261527777777776], [89.44791666666667, 24.268194444444443], [89.43930555555556, 24.25236111111111], [89.42458333333333, 24.250416666666666], [89.42930555555556, 24.26736111111111], [89.41763888888889, 24.294583333333332], [89.42736111111111, 24.32597222222222], [89.40319444444445, 24.32236111111111], [89.40541666666667, 24.337638888888886], [89.41791666666667, 24.330694444444443], [89.42986111111111, 24.340138888888887], [89.42458333333333, 24.358194444444443], [89.43597222222222, 24.35986111111111], [89.4366, 24.364255555555555]], [[89.49126656127672, 24.256862444616512], [89.48791666666666, 24.24375], [89.49458333333334, 24.25236111111111], [89.49126656127672, 24.256862444616512]], [[89.51403985507247, 24.2342693236715], [89.51208333333334, 24.230138888888888], [89.51847222222223, 24.220972222222223], [89.51403985507247, 24.2342693236715]], [[89.58945432082568, 24.141428868188576], [89.58125, 24.13513888888889], [89.59097222222222, 24.131249999999998], [89.58945432082568, 24.141428868188576]], [[89.61585922787194, 24.1949411487759], [89.61819444444444, 24.199027777777776], [89.6251388888889, 24.19236111111111], [89.62041666666667, 24.199861111111108], [89.61541666666668, 24.200694444444444], [89.61585922787194, 24.1949411487759]], [[89.64474701125175, 24.204207102672303], [89.64486111111111, 24.19736111111111], [89.63069444444444, 24.18847222222222], [89.62652777777778, 24.171805555555554], [89.60847222222222, 24.17236111111111], [89.59180555555555, 24.156527777777775], [89.60152777777778, 24.15986111111111], [89.60571338383839, 24.153705808080804], [89.60152777777778, 24.149027777777775], [89.60541666666667, 24.13986111111111], [89.60986111111112, 24.143472222222222], [89.6064297385621, 24.15376633986928], [89.60930555555557, 24.16736111111111], [89.61291666666666, 24.14847222222222], [89.61875, 24.149583333333332], [89.61347222222223, 24.165138888888887], [89.62291666666667, 24.157638888888886], [89.63513888888889, 24.164305555555554], [89.63125000000001, 24.156805555555554], [89.6451388888889, 24.153194444444445], [89.64208333333333, 24.144583333333333], [89.63152777777778, 24.14736111111111], [89.64375, 24.138749999999998], [89.63902777777778, 24.126805555555553], [89.64597222222223, 24.132638888888888], [89.64541666666666, 24.150694444444444], [89.6487030516432, 24.156445618153363], [89.64458333333333, 24.15486111111111], [89.63708333333334, 24.164027777777775], [89.64986591072714, 24.158480621550275], [89.65541666666667, 24.168194444444442], [89.6601388888889, 24.160138888888888], [89.66458333333334, 24.170972222222222], [89.67569444444445, 24.16375], [89.65486111111112, 24.15513888888889], [89.65958333333333, 24.153194444444445], [89.67736111111111, 24.153194444444445], [89.68930555555556, 24.166527777777777], [89.69402777777778, 24.17458333333333], [89.68680555555555, 24.180694444444445], [89.69458333333334, 24.175416666666667], [89.69569444444444, 24.181527777777777], [89.68125, 24.19347222222222], [89.68144325912183, 24.194477169655737], [89.67652777777778, 24.196805555555553], [89.66875, 24.185694444444444], [89.67875000000001, 24.190416666666664], [89.68451107176075, 24.176292748801608], [89.6776388888889, 24.167638888888888], [89.66430555555556, 24.17347222222222], [89.63620344506518, 24.168284140285536], [89.62875, 24.17375], [89.63180555555556, 24.186805555555555], [89.65041666666667, 24.17736111111111], [89.63652777777779, 24.185694444444444], [89.65180555555555, 24.193749999999998], [89.64474701125175, 24.204207102672303]], [[89.49877142509638, 24.286161586392723], [89.49486111111112, 24.285138888888888], [89.49236111111111, 24.274027777777775], [89.49877142509638, 24.286161586392723]], [[89.77958333333333, 24.661527777777778], [89.76319444444445, 24.664583333333333], [89.7826388888889, 24.63847222222222], [89.77958333333333, 24.661527777777778]], [[89.7551388888889, 24.678749999999997], [89.76958333333333, 24.665416666666665], [89.77791666666667, 24.665138888888887], [89.77569444444444, 24.67347222222222], [89.7551388888889, 24.678749999999997]], [[89.77375, 24.059305555555554], [89.7701388888889, 24.06347222222222], [89.77541666666667, 24.049027777777777], [89.77375, 24.059305555555554]], [[89.76041666666667, 24.03736111111111], [89.76902777777778, 24.03458333333333], [89.76625, 24.039861111111108], [89.76041666666667, 24.03736111111111]], [[89.73263888888889, 24.165255847953237], [89.73597222222223, 24.159027777777776], [89.72513888888889, 24.12097222222222], [89.71069444444444, 24.109305555555554], [89.71736111111112, 24.10125], [89.73430555555557, 24.137916666666666], [89.73069444444445, 24.124583333333334], [89.73708269329238, 24.134757211128186], [89.7376388888889, 24.144583333333333], [89.74125000000001, 24.14986111111111], [89.73828168872845, 24.136503710389086], [89.74625, 24.134305555555553], [89.74569444444445, 24.142083333333332], [89.75152777777778, 24.137916666666666], [89.74180555555556, 24.152083333333334], [89.74263888888889, 24.170416666666664], [89.73402777777778, 24.17347222222222], [89.73597222222223, 24.180416666666666], [89.74319444444444, 24.171527777777776], [89.74430555555556, 24.18263888888889], [89.74347222222222, 24.150694444444444], [89.74986111111112, 24.14236111111111], [89.7501388888889, 24.157916666666665], [89.75569444444444, 24.155416666666664], [89.75291666666666, 24.139027777777777], [89.75819444444444, 24.15458333333333], [89.74708333333334, 24.178472222222222], [89.76152777777779, 24.159027777777776], [89.76041666666667, 24.143749999999997], [89.7676388888889, 24.157638888888886], [89.7551388888889, 24.181805555555552], [89.74680555555555, 24.179583333333333], [89.75486111111111, 24.18263888888889], [89.75930555555556, 24.203194444444442], [89.75736111111111, 24.18819444444444], [89.76569444444445, 24.193194444444444], [89.75458333333333, 24.22513888888889], [89.74902777777778, 24.21847222222222], [89.75375, 24.211805555555554], [89.74402777777777, 24.20486111111111], [89.74902777777778, 24.20236111111111], [89.73986111111111, 24.201527777777777], [89.72541666666667, 24.178749999999997], [89.72774772903513, 24.17439459399579], [89.72180555555556, 24.175694444444442], [89.71236111111111, 24.168194444444442], [89.71847222222223, 24.14125], [89.71541666666667, 24.16375], [89.72041666666667, 24.15986111111111], [89.72236111111111, 24.16597222222222], [89.72180555555556, 24.15375], [89.72569107062529, 24.160743927125512], [89.72430555555556, 24.14847222222222], [89.73069444444445, 24.161527777777778], [89.72513888888889, 24.144583333333333], [89.73263888888889, 24.153194444444445], [89.73263888888889, 24.165255847953237]], [[89.76708333333333, 24.170694444444443], [89.76513888888888, 24.18875], [89.75569444444444, 24.18125], [89.76708333333333, 24.170694444444443]], [[89.76541666666667, 24.067916666666665], [89.76708333333333, 24.085694444444442], [89.76041666666667, 24.07097222222222], [89.76541666666667, 24.067916666666665]], [[89.70708333333333, 24.257916666666667], [89.71569444444445, 24.23986111111111], [89.72486111111111, 24.245694444444442], [89.7226388888889, 24.262638888888887], [89.72875, 24.247638888888886], [89.73708333333333, 24.275138888888886], [89.73875, 24.267916666666665], [89.75125, 24.272916666666664], [89.74402777777777, 24.25597222222222], [89.75319444444445, 24.260694444444443], [89.76097222222222, 24.290694444444444], [89.75680555555556, 24.314027777777778], [89.72847222222222, 24.303472222222222], [89.72375000000001, 24.279305555555553], [89.70708333333333, 24.257916666666667]], [[89.7551388888889, 24.040694444444444], [89.75319444444445, 24.049027777777777], [89.75291666666666, 24.032916666666665], [89.7551388888889, 24.040694444444444]], [[89.74791666666667, 24.269027777777776], [89.73902777777778, 24.26625], [89.73458333333333, 24.252916666666664], [89.74791666666667, 24.269027777777776]], [[89.72402777777778, 24.18236111111111], [89.73208333333334, 24.19125], [89.72930555555556, 24.196527777777778], [89.73402777777778, 24.194027777777777], [89.73249032054746, 24.198230160874004], [89.74708333333334, 24.221527777777776], [89.73152777777779, 24.20486111111111], [89.73140920070269, 24.201185221783053], [89.72986111111112, 24.205416666666665], [89.71180555555556, 24.184305555555554], [89.72847222222222, 24.192916666666665], [89.72402777777778, 24.18236111111111]], [[89.72791666666667, 24.23263888888889], [89.74597222222222, 24.231805555555553], [89.73875, 24.238194444444442], [89.72791666666667, 24.23263888888889]], [[89.71013888888889, 24.625138888888888], [89.70291666666667, 24.625138888888888], [89.70819444444444, 24.606527777777778], [89.73597222222223, 24.58625], [89.74541666666667, 24.60097222222222], [89.71263888888889, 24.623194444444444], [89.71125, 24.614027777777775], [89.71013888888889, 24.625138888888888]], [[89.74069444444444, 24.419027777777778], [89.74402777777777, 24.429583333333333], [89.73652777777778, 24.44125], [89.73263888888889, 24.42625], [89.74069444444444, 24.419027777777778]], [[89.72875, 24.57208333333333], [89.74180555555556, 24.567916666666665], [89.73625, 24.585694444444442], [89.72875, 24.57208333333333]], [[89.72847222222222, 24.234027777777776], [89.73680555555556, 24.238194444444442], [89.72763888888889, 24.23847222222222], [89.72847222222222, 24.234027777777776]], [[89.72652777777778, 24.574305555555554], [89.73236111111112, 24.58486111111111], [89.71652777777778, 24.594027777777775], [89.72652777777778, 24.574305555555554]], [[89.72986111111112, 24.525416666666665], [89.72625000000001, 24.53236111111111], [89.71875, 24.506527777777777], [89.72986111111112, 24.525416666666665]], [[89.71263888888889, 24.541249999999998], [89.72291666666666, 24.557916666666664], [89.72958333333334, 24.549027777777777], [89.72513888888889, 24.559583333333332], [89.71819444444445, 24.560694444444444], [89.71263888888889, 24.541249999999998]], [[89.72208333333333, 24.72458333333333], [89.7201388888889, 24.71236111111111], [89.72680555555556, 24.708194444444445], [89.72208333333333, 24.72458333333333]], [[89.71513888888889, 24.138749999999998], [89.71291666666667, 24.12875], [89.72125, 24.123194444444444], [89.70930555555556, 24.159027777777776], [89.70041666666667, 24.14125], [89.70486111111111, 24.116805555555555], [89.70180555555555, 24.139305555555556], [89.71513888888889, 24.138749999999998]], [[89.70430555555556, 24.59709010840108], [89.70125, 24.599027777777778], [89.69402777777778, 24.637638888888887], [89.69208333333333, 24.606527777777778], [89.71736111111112, 24.579583333333332], [89.71263888888889, 24.591805555555553], [89.70721964064435, 24.595242152003312], [89.71375, 24.59236111111111], [89.70430555555556, 24.60763888888889], [89.70430555555556, 24.59709010840108]], [[89.70236111111112, 24.55125], [89.70875000000001, 24.54513888888889], [89.71597222222222, 24.56236111111111], [89.7076388888889, 24.56847222222222], [89.70236111111112, 24.55125]], [[89.68486111111112, 24.70375], [89.68930555555556, 24.69347222222222], [89.69008597883598, 24.69893518518519], [89.69430555555556, 24.685694444444444], [89.69625, 24.727361111111108], [89.70069444444445, 24.703194444444442], [89.70902777777778, 24.714583333333334], [89.70486111111111, 24.727083333333333], [89.71347222222222, 24.72458333333333], [89.70375, 24.73486111111111], [89.67819444444444, 24.73625], [89.68916942840853, 24.70181125721616], [89.68486111111112, 24.70375]], [[89.70791666666666, 24.03625], [89.71041666666667, 24.05597222222222], [89.7051388888889, 24.054027777777776], [89.70791666666666, 24.03625]], [[89.70569444444445, 24.63597222222222], [89.70263888888888, 24.626527777777778], [89.71041666666667, 24.629583333333333], [89.70569444444445, 24.63597222222222]], [[89.70625, 24.234583333333333], [89.71013888888889, 24.24986111111111], [89.70347222222223, 24.247083333333332], [89.70625, 24.234583333333333]], [[89.70902777777778, 24.075416666666666], [89.70486111111111, 24.07236111111111], [89.70875000000001, 24.06958333333333], [89.70902777777778, 24.075416666666666]], [[89.70180555555555, 24.55236111111111], [89.70402777777778, 24.573194444444443], [89.69819444444445, 24.56513888888889], [89.70180555555555, 24.55236111111111]], [[89.69208333333333, 24.541805555555555], [89.70041666666667, 24.52236111111111], [89.70125, 24.535416666666666], [89.69208333333333, 24.541805555555555]], [[89.69986111111112, 24.662916666666664], [89.68986111111111, 24.645138888888887], [89.69819444444445, 24.638194444444444], [89.69986111111112, 24.662916666666664]], [[89.68236111111112, 24.581527777777776], [89.69125, 24.587638888888886], [89.67708333333334, 24.596527777777776], [89.68236111111112, 24.581527777777776]], [[89.68097222222222, 24.560138888888886], [89.6876388888889, 24.547638888888887], [89.68902777777778, 24.55625], [89.68097222222222, 24.560138888888886]], [[89.68319444444445, 24.67013888888889], [89.67875000000001, 24.66097222222222], [89.68708333333333, 24.66347222222222], [89.68319444444445, 24.67013888888889]], [[89.68597222222222, 24.56486111111111], [89.68291666666667, 24.573194444444443], [89.67930555555556, 24.565694444444443], [89.68430555555555, 24.564027777777778], [89.68263888888889, 24.57125], [89.68597222222222, 24.56486111111111]], [[89.67680555555556, 24.622638888888886], [89.68569444444445, 24.61347222222222], [89.68263888888889, 24.646805555555556], [89.67680555555556, 24.622638888888886]], [[89.67875000000001, 24.714305555555555], [89.67958333333334, 24.705416666666665], [89.68430555555555, 24.711527777777775], [89.67875000000001, 24.714305555555555]], [[89.66652777777779, 24.181805555555552], [89.67863379496976, 24.177366682585163], [89.67847222222223, 24.179305555555555], [89.66652777777779, 24.181805555555552]], [[89.67375, 24.57125], [89.66958333333334, 24.571527777777778], [89.67458333333333, 24.56319444444444], [89.67375, 24.57125]], [[89.66430555555556, 24.58625], [89.66236111111111, 24.607916666666664], [89.64986111111111, 24.603749999999998], [89.66430555555556, 24.58625]], [[89.63236111111111, 24.195416666666667], [89.63958333333333, 24.20347222222222], [89.62708333333333, 24.201249999999998], [89.63236111111111, 24.195416666666667]], [[89.63208333333334, 24.19458333333333], [89.61402777777778, 24.181805555555552], [89.62347222222222, 24.181527777777777], [89.63208333333334, 24.19458333333333]], [[89.6276388888889, 24.15513888888889], [89.62430555555555, 24.14708333333333], [89.62930555555556, 24.13986111111111], [89.63180555555556, 24.154027777777777], [89.6276388888889, 24.15513888888889]], [[89.59541666666667, 24.230694444444442], [89.61097222222223, 24.245694444444442], [89.62208333333334, 24.242638888888887], [89.61847222222222, 24.236805555555556], [89.62319444444445, 24.242638888888887], [89.61541666666668, 24.24736111111111], [89.59958333333334, 24.244305555555552], [89.60152777777778, 24.249583333333334], [89.59375, 24.22847222222222], [89.60152777777778, 24.22597222222222], [89.59541666666667, 24.230694444444442]], [[89.62263888888889, 24.110694444444444], [89.62208333333334, 24.116249999999997], [89.61736111111111, 24.10625], [89.62263888888889, 24.110694444444444]], [[89.61069444444445, 24.229027777777777], [89.60458333333334, 24.22236111111111], [89.61680555555556, 24.230138888888888], [89.61069444444445, 24.229027777777777]], [[89.60402777777779, 24.132916666666667], [89.59375, 24.125416666666666], [89.60180555555556, 24.124583333333334], [89.60402777777779, 24.132916666666667]], [[89.57513888888889, 24.15736111111111], [89.56291666666667, 24.160138888888888], [89.56680555555556, 24.15375], [89.57513888888889, 24.15736111111111]], [[89.56625, 24.142916666666665], [89.56097222222222, 24.143194444444443], [89.56902777777778, 24.137083333333333], [89.56625, 24.142916666666665]], [[89.53097222222223, 24.19708333333333], [89.54875, 24.19847222222222], [89.55402777777778, 24.212638888888886], [89.53097222222223, 24.19708333333333]], [[89.51902777777778, 24.262638888888887], [89.53013888888889, 24.277916666666666], [89.51819444444445, 24.267638888888886], [89.50875, 24.268749999999997], [89.51902777777778, 24.262638888888887]], [[89.49319444444444, 24.241527777777776], [89.49652777777779, 24.233194444444443], [89.49569444444445, 24.241805555555555], [89.48708333333333, 24.242638888888887], [89.48680555555556, 24.255138888888887], [89.48680555555556, 24.240416666666665], [89.49319444444444, 24.241527777777776]], [[89.47708333333334, 24.270138888888887], [89.48430555555557, 24.27208333333333], [89.48597222222223, 24.282638888888886], [89.47708333333334, 24.270138888888887]], [[89.46541666666667, 24.291527777777777], [89.47152777777778, 24.296249999999997], [89.46152777777777, 24.289583333333333], [89.46986111111111, 24.284305555555555], [89.46541666666667, 24.291527777777777]], [[89.46013888888889, 24.264305555555556], [89.46152777777777, 24.269305555555555], [89.45375, 24.270416666666666], [89.46013888888889, 24.264305555555556]], [[89.44652777777777, 24.270694444444445], [89.44930555555555, 24.282916666666665], [89.44347222222223, 24.28625], [89.44652777777777, 24.270694444444445]]], [[[89.6664405898189, 24.296020405041606], [89.65186152061152, 24.304077259077257], [89.67069444444445, 24.29847222222222], [89.67097222222222, 24.31513888888889], [89.67791666666668, 24.303194444444443], [89.67097222222222, 24.297638888888887], [89.67791666666668, 24.292638888888888], [89.66736111111112, 24.296805555555554], [89.6664405898189, 24.296020405041606]]], [[[89.64766386593205, 24.30639701561065], [89.64541666666666, 24.30763888888889], [89.65291666666667, 24.325416666666666], [89.66180555555556, 24.32847222222222], [89.65855654761906, 24.321974206349203], [89.65319444444445, 24.324305555555554], [89.64766386593205, 24.30639701561065]]], [[[89.66008771929825, 24.32130847953216], [89.66569444444444, 24.31958333333333], [89.67097222222222, 24.334027777777777], [89.69125, 24.344027777777775], [89.67986111111111, 24.356805555555553], [89.70430555555556, 24.365138888888886], [89.68069444444444, 24.356805555555553], [89.69125, 24.350694444444443], [89.69180555555556, 24.34375], [89.67097222222222, 24.332916666666666], [89.66597222222222, 24.318749999999998], [89.66008771929825, 24.32130847953216]]], [[[89.57898881937204, 24.335533107403542], [89.57569444444445, 24.343194444444443], [89.58708333333334, 24.33597222222222], [89.59731695156695, 24.33955398860399], [89.5976388888889, 24.336527777777775], [89.57898881937204, 24.335533107403542]]], [[[89.59717411297022, 24.340896671413308], [89.58298536439665, 24.355297192353646], [89.59458333333333, 24.347916666666666], [89.59152777777778, 24.35458333333333], [89.60708333333334, 24.36486111111111], [89.61652777777778, 24.352083333333333], [89.60569444444445, 24.344305555555554], [89.61402777777778, 24.34375], [89.62347222222222, 24.355694444444442], [89.61847222222222, 24.374305555555555], [89.62541666666667, 24.35597222222222], [89.62041666666667, 24.345416666666665], [89.60708333333334, 24.340694444444445], [89.60458333333334, 24.345972222222223], [89.61347222222223, 24.352361111111108], [89.60486111111112, 24.361805555555556], [89.60680555555555, 24.356527777777778], [89.59652777777778, 24.35486111111111], [89.60291666666667, 24.35013888888889], [89.59625, 24.34958333333333], [89.59717411297022, 24.340896671413308]]], [[[89.58250785344858, 24.355781830330795], [89.57958333333333, 24.358749999999997], [89.59125, 24.382638888888888], [89.59458333333333, 24.37486111111111], [89.58625, 24.36486111111111], [89.60180555555556, 24.37847222222222], [89.59680555555556, 24.36847222222222], [89.60652777777779, 24.373194444444444], [89.60708333333334, 24.386527777777776], [89.59361909127955, 24.391967875577286], [89.60097222222223, 24.392916666666665], [89.59125, 24.39986111111111], [89.60625, 24.391527777777778], [89.61125, 24.379305555555554], [89.60708333333334, 24.370416666666664], [89.58250785344858, 24.355781830330795]]], [[[89.59123587570622, 24.39293079096045], [89.57958333333333, 24.39763888888889], [89.58902777777779, 24.43347222222222], [89.57263888888889, 24.435972222222222], [89.56736111111111, 24.447916666666664], [89.56545398009952, 24.445151326699865], [89.5676388888889, 24.44875], [89.57458333333334, 24.436249999999998], [89.58541666666667, 24.43736111111111], [89.57125, 24.46097222222222], [89.57486111111112, 24.466805555555553], [89.59347222222223, 24.42986111111111], [89.59426633605597, 24.43122698690514], [89.58208333333333, 24.402083333333334], [89.59123587570622, 24.39293079096045]]], [[[89.56286124307205, 24.441391858010032], [89.56180555555555, 24.43986111111111], [89.56041666666667, 24.454305555555553], [89.54963159133708, 24.449903483992458], [89.56097222222222, 24.455694444444443], [89.56286124307205, 24.441391858010032]]], [[[89.54787973288536, 24.44918843972645], [89.54680555555557, 24.44875], [89.54180555555556, 24.47208333333333], [89.52569444444444, 24.47847222222222], [89.53097222222223, 24.494305555555552], [89.51402777777778, 24.48763888888889], [89.51375, 24.50236111111111], [89.52541666666667, 24.51097222222222], [89.51597222222223, 24.51986111111111], [89.53120299145299, 24.525784188034184], [89.52097222222223, 24.51986111111111], [89.52708333333334, 24.510694444444443], [89.51486111111112, 24.501805555555553], [89.51486111111112, 24.48847222222222], [89.53152777777778, 24.49513888888889], [89.53430555555556, 24.485694444444444], [89.52652777777779, 24.479305555555555], [89.54236111111112, 24.47319444444444], [89.54787973288536, 24.44918843972645]]], [[[89.5350128321256, 24.5279898852657], [89.52458333333334, 24.531805555555554], [89.53005368098158, 24.544387355146544], [89.53097222222223, 24.54513888888889], [89.52597222222222, 24.531805555555554], [89.53680555555556, 24.529027777777777], [89.5350128321256, 24.5279898852657]]], [[[89.60599891558225, 24.43660118451785], [89.61402777777778, 24.43958333333333], [89.61402777777778, 24.484027777777776], [89.62208333333334, 24.48875], [89.61125, 24.49513888888889], [89.61597222222223, 24.514305555555556], [89.60236111111111, 24.518749999999997], [89.60013888888889, 24.544305555555553], [89.59152777777778, 24.55236111111111], [89.59569444444445, 24.559027777777775], [89.59208333333333, 24.553194444444443], [89.60125000000001, 24.544027777777778], [89.60319444444444, 24.519305555555555], [89.61708333333334, 24.515694444444442], [89.61208333333333, 24.49513888888889], [89.62375, 24.48986111111111], [89.61569444444444, 24.483472222222222], [89.6151388888889, 24.451805555555556], [89.6301388888889, 24.455694444444443], [89.63687942443829, 24.451650123114803], [89.61791666666667, 24.451805555555556], [89.61347222222223, 24.437083333333334], [89.60599891558225, 24.43660118451785]]], [[[89.63903502809498, 24.45163245423237], [89.64180555555556, 24.456249999999997], [89.65268449419568, 24.45306592039801], [89.65180555555555, 24.451527777777777], [89.63903502809498, 24.45163245423237]]], [[[89.65671576032226, 24.459078969452833], [89.6576388888889, 24.460694444444442], [89.67125, 24.459305555555556], [89.66652777777779, 24.454305555555553], [89.65671576032226, 24.459078969452833]]], [[[89.50686965811965, 24.301025641025642], [89.50767235609104, 24.30952086122264], [89.50875, 24.31347222222222], [89.5133768237935, 24.30966189674523], [89.5148800813008, 24.317178184281836], [89.508044879506, 24.313463400697703], [89.50930555555556, 24.326805555555556], [89.51847222222223, 24.324027777777776], [89.51069444444445, 24.31513888888889], [89.5150318930041, 24.317937242798344], [89.51513888888888, 24.31847222222222], [89.51547286448299, 24.31822174052665], [89.51930555555556, 24.32069444444444], [89.52041666666666, 24.330694444444443], [89.54347222222222, 24.343194444444443], [89.54401592097369, 24.3429102382789], [89.52097222222223, 24.330416666666665], [89.51930555555556, 24.31958333333333], [89.51603057889822, 24.317803454715214], [89.51958333333333, 24.31513888888889], [89.53597222222223, 24.32847222222222], [89.5326388888889, 24.324027777777776], [89.53875000000001, 24.321527777777778], [89.51513888888888, 24.312916666666666], [89.52041666666666, 24.306805555555552], [89.51365343347639, 24.302878516928946], [89.51375, 24.299305555555556], [89.50686965811965, 24.301025641025642]]], [[[89.79597222222222, 24.102638888888887], [89.80541666666667, 24.10125], [89.79680555555557, 24.114583333333332], [89.80866345616974, 24.107942908989394], [89.80486111111111, 24.117638888888887], [89.81347222222223, 24.11736111111111], [89.81819444444444, 24.10458333333333], [89.81041666666667, 24.10347222222222], [89.80961968353938, 24.10550452919679], [89.80541666666667, 24.100416666666664], [89.79597222222222, 24.102638888888887]]], [[[89.79958333333333, 24.15958333333333], [89.80625, 24.150972222222222], [89.79930555555556, 24.149305555555554], [89.79958333333333, 24.15958333333333]]], [[[89.78125, 24.27125], [89.78902777777778, 24.27875], [89.78958333333334, 24.268749999999997], [89.78013888888889, 24.261527777777776], [89.78125, 24.27125]]], [[[89.75569444444444, 24.495416666666664], [89.74319444444444, 24.49513888888889], [89.74152777777778, 24.512916666666666], [89.74513888888889, 24.50208333333333], [89.75569444444444, 24.495416666666664]]], [[[89.73418024886085, 24.282282246757802], [89.73013888888889, 24.295416666666664], [89.73375, 24.289027777777775], [89.74208333333334, 24.297916666666666], [89.73597222222223, 24.288194444444443], [89.7501388888889, 24.274027777777775], [89.73418024886085, 24.282282246757802]]], [[[89.71569444444445, 24.39097222222222], [89.72541666666667, 24.392083333333332], [89.72180555555556, 24.380694444444444], [89.71569444444445, 24.39097222222222]]], [[[89.70319444444445, 24.28236111111111], [89.70263888888888, 24.271805555555556], [89.69680555555556, 24.26986111111111], [89.69708333333334, 24.27986111111111], [89.70319444444445, 24.28236111111111]]], [[[89.69791666666667, 24.368194444444445], [89.68875, 24.368194444444445], [89.69763888888889, 24.372916666666665], [89.69791666666667, 24.368194444444445]]], [[[89.6726388888889, 24.212916666666665], [89.67875000000001, 24.230138888888888], [89.68569444444445, 24.221527777777776], [89.68013888888889, 24.234583333333333], [89.68347222222222, 24.229305555555555], [89.69430555555556, 24.234583333333333], [89.68875, 24.219305555555554], [89.6726388888889, 24.212916666666665]]], [[[89.68847222222223, 24.25375], [89.68208333333334, 24.25847222222222], [89.69291666666668, 24.266527777777778], [89.68847222222223, 24.25375]]], [[[89.68319444444445, 24.25125], [89.6876388888889, 24.240138888888886], [89.68152777777777, 24.23986111111111], [89.68319444444445, 24.25125]]], [[[89.66291666666667, 24.244305555555552], [89.67013888888889, 24.24513888888889], [89.6726388888889, 24.22847222222222], [89.66291666666667, 24.244305555555552]]], [[[89.63958333333333, 24.25236111111111], [89.64041666666667, 24.260694444444443], [89.65208333333334, 24.261527777777776], [89.64791666666667, 24.26736111111111], [89.66097222222223, 24.274305555555554], [89.66763888888889, 24.263749999999998], [89.65375, 24.25819444444444], [89.65541666666667, 24.252916666666664], [89.6426388888889, 24.260694444444443], [89.63958333333333, 24.25236111111111]]], [[[89.65236111111112, 24.247638888888886], [89.65180555555555, 24.242083333333333], [89.64347222222223, 24.24513888888889], [89.65236111111112, 24.247638888888886]]], [[[89.63541666666667, 24.21736111111111], [89.63125000000001, 24.224305555555553], [89.64375, 24.221249999999998], [89.64986111111111, 24.228749999999998], [89.64569444444444, 24.234027777777776], [89.63652777777779, 24.226805555555554], [89.64041666666667, 24.239583333333332], [89.64986111111111, 24.23875], [89.65041666666667, 24.222638888888888], [89.63541666666667, 24.21736111111111]]], [[[89.63125000000001, 24.317916666666665], [89.63847222222222, 24.329583333333332], [89.63554826851127, 24.317090076568345], [89.63125000000001, 24.317916666666665]]], [[[89.63595461658842, 24.317011932707356], [89.64097222222223, 24.321527777777778], [89.64569444444444, 24.31513888888889], [89.63595461658842, 24.317011932707356]]], [[[89.63625, 24.227361111111108], [89.63236111111111, 24.236805555555556], [89.63736111111112, 24.24458333333333], [89.63625, 24.227361111111108]]], [[[89.62097222222222, 24.295972222222222], [89.62347222222222, 24.304583333333333], [89.62625, 24.279305555555553], [89.61875, 24.28486111111111], [89.62097222222222, 24.295972222222222]]], [[[89.59319444444445, 24.21986111111111], [89.59819444444445, 24.21125], [89.59263888888889, 24.196527777777778], [89.57763888888888, 24.217916666666664], [89.58486111111111, 24.214583333333334], [89.59319444444445, 24.21986111111111]]], [[[89.57652777777778, 24.19736111111111], [89.58347222222223, 24.19763888888889], [89.57347222222222, 24.185416666666665], [89.57652777777778, 24.19736111111111]]], [[[89.5476388888889, 24.13097222222222], [89.56125, 24.12569444444444], [89.54736111111112, 24.13208333333333], [89.55763888888889, 24.13458333333333], [89.57375, 24.126527777777778], [89.57875, 24.111527777777777], [89.55930555555555, 24.11125], [89.55541666666667, 24.119027777777777], [89.57013888888889, 24.117638888888887], [89.55069444444445, 24.129583333333333], [89.54569444444445, 24.125416666666666], [89.5476388888889, 24.13097222222222]]], [[[89.55375000000001, 24.32847222222222], [89.54652777777778, 24.33513888888889], [89.5651388888889, 24.332083333333333], [89.55375000000001, 24.32847222222222]]], [[[89.54208333333334, 24.26486111111111], [89.55180555555556, 24.271527777777777], [89.54152777777779, 24.260416666666664], [89.53152777777778, 24.263194444444444], [89.54208333333334, 24.26486111111111]]], [[[89.53763888888889, 24.307916666666664], [89.52625, 24.309583333333332], [89.53875000000001, 24.317083333333333], [89.53875000000001, 24.311249999999998], [89.54458333333334, 24.31236111111111], [89.53763888888889, 24.307916666666664]]], [[[89.53791666666667, 24.35597222222222], [89.53236111111111, 24.367916666666666], [89.54402777777779, 24.359305555555554], [89.53791666666667, 24.35597222222222]]], [[[89.53208333333333, 24.352361111111108], [89.52541666666667, 24.360416666666666], [89.53708333333334, 24.355416666666667], [89.52958333333333, 24.34208333333333], [89.53208333333333, 24.352361111111108]]], [[[89.52958333333333, 24.352916666666665], [89.52847222222222, 24.34375], [89.52236111111111, 24.346527777777776], [89.51458333333333, 24.336805555555554], [89.51736111111111, 24.35097222222222], [89.52152777777778, 24.346527777777776], [89.52958333333333, 24.352916666666665]]], [[[89.52958333333333, 24.302638888888886], [89.52263888888889, 24.295694444444443], [89.52291666666667, 24.306527777777777], [89.52958333333333, 24.302638888888886]]], [[[89.51375, 24.34208333333333], [89.50902777777777, 24.32847222222222], [89.5001388888889, 24.337638888888886], [89.50458333333333, 24.352916666666665], [89.51375, 24.34208333333333]]], [[[89.50569444444444, 24.328194444444442], [89.50736111111111, 24.320416666666667], [89.50097222222223, 24.32125], [89.50569444444444, 24.328194444444442]]], [[[89.49541666666667, 24.366527777777776], [89.50236111111111, 24.374027777777776], [89.50125, 24.364305555555553], [89.49541666666667, 24.366527777777776]]], [[[89.43430555555555, 24.385416666666664], [89.44152777777778, 24.39486111111111], [89.44430555555556, 24.387638888888887], [89.43430555555555, 24.385416666666664]]], [[[89.36597222222223, 24.367638888888887], [89.40402777777778, 24.377916666666664], [89.40847222222223, 24.373472222222222], [89.40208333333334, 24.372083333333332], [89.41375000000001, 24.369027777777777], [89.39680555555556, 24.364583333333332], [89.39375, 24.34847222222222], [89.38958333333333, 24.367083333333333], [89.38458333333334, 24.351527777777775], [89.37625, 24.351527777777775], [89.37541666666667, 24.360694444444444], [89.36625000000001, 24.35986111111111], [89.36597222222223, 24.367638888888887]]], [[[89.39930555555556, 24.381527777777777], [89.40541666666667, 24.37847222222222], [89.38263888888889, 24.379583333333333], [89.38986111111112, 24.396527777777777], [89.40125, 24.395694444444445], [89.40569444444445, 24.387638888888887], [89.39930555555556, 24.381527777777777]]], [[[89.37819444444445, 24.34819444444444], [89.39569444444444, 24.338749999999997], [89.37902777777778, 24.34236111111111], [89.37819444444445, 24.34819444444444]]], [[[89.29569444444445, 24.44486111111111], [89.29736111111112, 24.43375], [89.30319444444444, 24.443194444444444], [89.32152777777777, 24.447916666666664], [89.32569444444445, 24.444305555555555], [89.3151388888889, 24.43847222222222], [89.31986111111111, 24.42486111111111], [89.33180555555556, 24.422083333333333], [89.32958333333333, 24.42986111111111], [89.33652777777777, 24.425416666666667], [89.34236111111112, 24.436249999999998], [89.36375, 24.434583333333332], [89.36430555555556, 24.440694444444443], [89.3651388888889, 24.416527777777777], [89.36597222222223, 24.424305555555556], [89.38069444444444, 24.430694444444445], [89.38736111111112, 24.422083333333333], [89.37736111111111, 24.411527777777778], [89.37847222222223, 24.40597222222222], [89.38541666666667, 24.41069444444444], [89.38736111111112, 24.401249999999997], [89.36458333333334, 24.40375], [89.36291666666666, 24.38458333333333], [89.3751388888889, 24.38847222222222], [89.37958333333333, 24.379027777777775], [89.36291666666666, 24.384305555555553], [89.36152777777778, 24.372638888888886], [89.35291666666667, 24.371805555555554], [89.38152777777778, 24.373749999999998], [89.33791666666667, 24.363194444444442], [89.36152777777778, 24.366527777777776], [89.35347222222222, 24.34819444444444], [89.32263888888889, 24.350694444444443], [89.32902777777778, 24.35736111111111], [89.32402777777779, 24.35458333333333], [89.32402777777779, 24.38347222222222], [89.28736111111111, 24.396805555555556], [89.3001388888889, 24.387638888888887], [89.2976388888889, 24.38236111111111], [89.28680555555556, 24.388749999999998], [89.2851388888889, 24.420416666666664], [89.27180555555556, 24.42736111111111], [89.25208333333333, 24.424027777777777], [89.24763888888889, 24.430138888888887], [89.25347222222223, 24.427083333333332], [89.25125, 24.436249999999998], [89.30708333333334, 24.47208333333333], [89.31597222222223, 24.462638888888886], [89.30652777777777, 24.456249999999997], [89.31013888888889, 24.449861111111108], [89.29569444444445, 24.44486111111111]], [[89.34625, 24.35347222222222], [89.35541666666667, 24.35347222222222], [89.34208333333333, 24.36263888888889], [89.34625, 24.35347222222222]], [[89.34819444444445, 24.414583333333333], [89.34069444444445, 24.41236111111111], [89.35013888888889, 24.408194444444444], [89.34819444444445, 24.414583333333333]], [[89.33986111111112, 24.420416666666664], [89.33319444444444, 24.423194444444444], [89.33319444444444, 24.41736111111111], [89.33986111111112, 24.420416666666664]]], [[[89.38319444444444, 24.399027777777775], [89.37236111111112, 24.39125], [89.37291666666667, 24.400138888888886], [89.38319444444444, 24.399027777777775]]], [[[89.37236111111112, 24.358749999999997], [89.37736111111111, 24.34847222222222], [89.35902777777778, 24.352361111111108], [89.36569444444444, 24.367083333333333], [89.36319444444445, 24.359305555555554], [89.37236111111112, 24.358749999999997]]]]}}