{"type": "Feature", "properties": {}, "geometry": {"type": "MultiPolygon", "coordinates": [[[[89.82375, 24.07875], [89.81152777777778, 24.070138888888888], [89.81791666666668, 24.07125], [89.81458333333333, 24.067083333333333], [89.8001388888889, 24.070416666666667], [89.80902777777779, 24.07208333333333], [89.81569444444445, 24.091527777777777], [89.82458333333334, 24.086805555555554], [89.82375, 24.07875]]], [[[89.81486111111111, 24.107916666666664], [89.81819444444444, 24.10458333333333], [89.81041666666667, 24.103749999999998], [89.80986111111112, 24.115972222222222], [89.81486111111111, 24.107916666666664]]], [[[89.80680555555556, 24.055694444444445], [89.80041666666666, 24.050416666666667], [89.80347222222223, 24.060972222222222], [89.80902777777779, 24.060972222222222], [89.80680555555556, 24.055694444444445]]], [[[89.44513888888889, 24.338472222222222], [89.44597222222222, 24.331527777777776], [89.43875, 24.331527777777776], [89.44125, 24.316805555555554], [89.44597222222222, 24.317638888888887], [89.44486111111111, 24.327638888888888], [89.45597222222223, 24.326249999999998], [89.44958333333334, 24.317638888888887], [89.45347222222223, 24.30875], [89.45902777777778, 24.326249999999998], [89.47152777777778, 24.324305555555554], [89.45791666666666, 24.30708333333333], [89.46513888888889, 24.29986111111111], [89.45930555555556, 24.290694444444444], [89.46847222222223, 24.281527777777775], [89.46819444444445, 24.275972222222222], [89.46319444444444, 24.277916666666666], [89.46763888888889, 24.271527777777777], [89.47103694714131, 24.269747842502696], [89.46819444444445, 24.270416666666666], [89.47213688085677, 24.269171686746986], [89.47347222222223, 24.268472222222222], [89.47342157176371, 24.268765994881637], [89.47875, 24.267083333333332], [89.48263888888889, 24.255694444444444], [89.48152777777779, 24.26486111111111], [89.48992985538241, 24.2635880690498], [89.48938286163522, 24.261087526205433], [89.4876388888889, 24.257916666666667], [89.48898333333332, 24.2592611111111], [89.48875, 24.25819444444444], [89.49458333333334, 24.25958333333333], [89.48791666666666, 24.24347222222222], [89.49652777777779, 24.24236111111111], [89.49930555555555, 24.220416666666665], [89.50763888888889, 24.228194444444444], [89.50236111111111, 24.23597222222222], [89.50763888888889, 24.23625], [89.50930555555556, 24.226527777777775], [89.52041666666666, 24.21847222222222], [89.52208333333334, 24.23708333333333], [89.54819444444445, 24.242083333333333], [89.54597222222222, 24.231805555555553], [89.5376858372457, 24.23007922535211], [89.53958333333334, 24.22486111111111], [89.53319444444445, 24.22236111111111], [89.53541666666666, 24.213194444444444], [89.54208333333334, 24.20958333333333], [89.55041666666666, 24.215416666666666], [89.54402777777779, 24.210416666666664], [89.54680555555557, 24.203194444444442], [89.52875, 24.197916666666664], [89.54569444444445, 24.18375], [89.53541666666666, 24.19708333333333], [89.54541666666667, 24.19013888888889], [89.54208333333334, 24.19847222222222], [89.54680555555557, 24.195138888888888], [89.55097222222223, 24.200138888888887], [89.55180555555556, 24.190694444444443], [89.56569444444445, 24.206805555555555], [89.56791666666668, 24.19875], [89.57458333333334, 24.204305555555553], [89.56736111111111, 24.19569444444444], [89.57097222222222, 24.18958333333333], [89.56569444444445, 24.19486111111111], [89.56680555555556, 24.187083333333334], [89.56236111111112, 24.187083333333334], [89.56680555555556, 24.18375], [89.55930555555555, 24.185138888888886], [89.55375000000001, 24.174027777777777], [89.56069444444445, 24.18236111111111], [89.56402777777778, 24.17625], [89.56986111111111, 24.18236111111111], [89.5801388888889, 24.18097222222222], [89.57736111111112, 24.175416666666667], [89.58291666666666, 24.173194444444444], [89.57291666666667, 24.168194444444442], [89.57986111111111, 24.16847222222222], [89.58180555555556, 24.15958333333333], [89.57597222222222, 24.15513888888889], [89.57986111111111, 24.15958333333333], [89.56291666666667, 24.15958333333333], [89.57041666666667, 24.15513888888889], [89.56819444444444, 24.142916666666665], [89.57319444444445, 24.154027777777777], [89.58125, 24.155694444444443], [89.57902777777778, 24.145694444444445], [89.58541666666667, 24.137638888888887], [89.58125, 24.13513888888889], [89.59097222222222, 24.131249999999998], [89.58597222222222, 24.161527777777778], [89.60597222222222, 24.173194444444444], [89.60407988871223, 24.191928546193246], [89.60958333333333, 24.195138888888888], [89.60541666666667, 24.19097222222222], [89.60986111111112, 24.186805555555555], [89.62541666666667, 24.192083333333333], [89.62069444444445, 24.199861111111108], [89.60180555555556, 24.20486111111111], [89.60180555555556, 24.22208333333333], [89.57986111111111, 24.228194444444444], [89.57402777777779, 24.239583333333332], [89.58458333333334, 24.271805555555556], [89.58041666666666, 24.285416666666666], [89.59375, 24.29513888888889], [89.58208333333333, 24.30486111111111], [89.58819444444444, 24.316527777777775], [89.57680555555555, 24.330694444444443], [89.57597222222222, 24.34236111111111], [89.58530149051491, 24.336141598915987], [89.57680555555555, 24.335694444444442], [89.59069444444445, 24.317916666666665], [89.58541666666667, 24.30597222222222], [89.59180555555555, 24.30236111111111], [89.59208333333333, 24.310694444444444], [89.59625, 24.294027777777778], [89.58236111111111, 24.28236111111111], [89.58791666666667, 24.27347222222222], [89.57819444444445, 24.249305555555555], [89.57958333333333, 24.232083333333332], [89.60236111111111, 24.22513888888889], [89.59986111111111, 24.229027777777777], [89.60375, 24.225416666666664], [89.60930555555557, 24.230416666666667], [89.60541666666667, 24.232916666666664], [89.6177163671024, 24.233125136165576], [89.60375, 24.224027777777778], [89.60430555555556, 24.21736111111111], [89.61430555555556, 24.220138888888886], [89.60375, 24.21625], [89.60597222222222, 24.205972222222222], [89.62930555555556, 24.203194444444442], [89.62458333333333, 24.201249999999998], [89.62875, 24.190416666666664], [89.60791666666667, 24.18263888888889], [89.60819444444445, 24.173194444444444], [89.60986111111112, 24.179027777777776], [89.62069444444445, 24.178749999999997], [89.61125, 24.174027777777777], [89.61597222222223, 24.173194444444444], [89.62375, 24.179305555555555], [89.61552086816003, 24.171333584085588], [89.60847222222222, 24.172638888888887], [89.59069444444445, 24.157083333333333], [89.59986111111111, 24.144027777777776], [89.59736111111111, 24.15597222222222], [89.60208333333334, 24.150972222222222], [89.60569444444445, 24.15513888888889], [89.60236111111111, 24.141527777777778], [89.61069444444445, 24.138194444444444], [89.59319444444445, 24.12763888888889], [89.59625, 24.116527777777776], [89.61736111111111, 24.09875], [89.59708333333333, 24.119027777777777], [89.61375, 24.10597222222222], [89.60291666666667, 24.119305555555552], [89.60791666666667, 24.118194444444445], [89.60930555555557, 24.13208333333333], [89.61402777777778, 24.109583333333333], [89.61236111111111, 24.137361111111108], [89.61847222222222, 24.138194444444444], [89.61152777777778, 24.142916666666665], [89.62041666666667, 24.146805555555556], [89.61486111111111, 24.15513888888889], [89.62597222222223, 24.149583333333332], [89.62486111111112, 24.140138888888888], [89.62986111111111, 24.14597222222222], [89.64041666666667, 24.137916666666666], [89.63819444444445, 24.130694444444444], [89.62291666666667, 24.13625], [89.63664023452516, 24.128108900422927], [89.62013888888889, 24.136805555555554], [89.61597222222223, 24.132638888888888], [89.61736111111111, 24.124583333333334], [89.62013888888889, 24.132916666666667], [89.62486111111112, 24.129583333333333], [89.61875, 24.120694444444442], [89.62680555555556, 24.125416666666666], [89.61819444444444, 24.11875], [89.63263888888889, 24.123194444444444], [89.61819444444444, 24.115416666666665], [89.62125, 24.09847222222222], [89.62597222222223, 24.094305555555554], [89.62319444444445, 24.09847222222222], [89.62958333333333, 24.09847222222222], [89.62180555555555, 24.105138888888888], [89.62986111111111, 24.104305555555555], [89.61958333333334, 24.109305555555554], [89.62402777777778, 24.113194444444442], [89.63680555555555, 24.102638888888887], [89.63236111111111, 24.108472222222222], [89.63958333333333, 24.107083333333332], [89.65375, 24.079027777777778], [89.65486111111112, 24.09236111111111], [89.65930555555556, 24.080694444444443], [89.66152777777778, 24.094027777777775], [89.66208333333334, 24.07347222222222], [89.64402777777778, 24.08347222222222], [89.64541666666666, 24.089305555555555], [89.65152777777779, 24.082916666666666], [89.64652777777778, 24.090416666666666], [89.635878336437, 24.09018001241465], [89.63902777777778, 24.085694444444442], [89.63069444444444, 24.08347222222222], [89.61652777777778, 24.096805555555555], [89.60208333333334, 24.09986111111111], [89.58236111111111, 24.130694444444444], [89.55791666666667, 24.13597222222222], [89.53291666666667, 24.13097222222222], [89.52180555555556, 24.154305555555553], [89.52930555555555, 24.158749999999998], [89.52319444444444, 24.16847222222222], [89.53430555555556, 24.166527777777777], [89.5351388888889, 24.172916666666666], [89.5176388888889, 24.179027777777776], [89.51708333333333, 24.18875], [89.52513888888889, 24.19125], [89.51013888888889, 24.199861111111108], [89.50486111111111, 24.212083333333332], [89.51125, 24.212638888888886], [89.50486111111111, 24.213472222222222], [89.50486111111111, 24.219583333333333], [89.48569444444445, 24.214583333333334], [89.4851388888889, 24.220138888888886], [89.48241626311543, 24.213628262039272], [89.48069444444445, 24.215694444444445], [89.47652777777778, 24.220694444444444], [89.48241626311543, 24.21362826203927], [89.47875, 24.20486111111111], [89.46875, 24.206249999999997], [89.47552777777778, 24.20963888888889], [89.47152777777778, 24.21763888888889], [89.46430555555555, 24.21597222222222], [89.46152777777777, 24.22458333333333], [89.47375000000001, 24.219305555555554], [89.47541666666667, 24.232916666666664], [89.45319444444445, 24.228194444444444], [89.44597222222222, 24.232916666666664], [89.45652777777778, 24.233749999999997], [89.46319444444444, 24.250138888888888], [89.45986111111111, 24.260416666666664], [89.46513888888889, 24.26097222222222], [89.46430555555555, 24.255694444444444], [89.46986111111111, 24.25958333333333], [89.4551388888889, 24.27263888888889], [89.46180555555556, 24.262361111111108], [89.44791666666667, 24.270694444444445], [89.44791666666667, 24.28736111111111], [89.43152777777777, 24.28708333333333], [89.43708333333333, 24.295416666666664], [89.42680555555556, 24.290694444444444], [89.43291666666667, 24.29958333333333], [89.43041666666667, 24.30597222222222], [89.42375, 24.305416666666666], [89.42486111111111, 24.317083333333333], [89.43680555555555, 24.319305555555555], [89.42625, 24.332638888888887], [89.43708333333333, 24.338472222222222], [89.43819444444445, 24.345972222222223], [89.44513888888889, 24.338472222222222]], [[89.6344873684819, 24.092161087987055], [89.63541666666667, 24.096249999999998], [89.64458333333333, 24.094305555555554], [89.63263888888889, 24.09819444444444], [89.63708333333334, 24.09986111111111], [89.62986111111111, 24.09875], [89.6344873684819, 24.092161087987055]], [[89.60069444444444, 24.139305555555556], [89.59069444444445, 24.14625], [89.59125, 24.130416666666665], [89.60069444444444, 24.139305555555556]], [[89.56291666666667, 24.142916666666665], [89.55958333333334, 24.13847222222222], [89.56930555555556, 24.137083333333333], [89.56291666666667, 24.142916666666665]], [[89.53125, 24.230694444444442], [89.52708333333334, 24.23097222222222], [89.53013888888889, 24.225416666666664], [89.53125, 24.230694444444442]], [[89.49125000000001, 24.23708333333333], [89.49625, 24.22486111111111], [89.49569444444445, 24.241805555555555], [89.48708333333333, 24.242638888888887], [89.48875, 24.25708333333333], [89.47791666666667, 24.25263888888889], [89.48819444444445, 24.252916666666664], [89.48375, 24.24513888888889], [89.49125000000001, 24.23708333333333]], [[89.46958333333333, 24.249305555555555], [89.47680555555556, 24.249583333333334], [89.47125, 24.24986111111111], [89.47319444444445, 24.254027777777775], [89.46958333333333, 24.249305555555555]]], [[[89.47334595959596, 24.269204545454546], [89.47208333333333, 24.276527777777776], [89.47986111111112, 24.277638888888887], [89.47319444444445, 24.27263888888889], [89.49034211775879, 24.26547269705603], [89.49028651903652, 24.26521853146853], [89.47334595959596, 24.269204545454546]]], [[[89.49360729847496, 24.280399237472764], [89.49375, 24.28625], [89.5075980392157, 24.294558823529414], [89.50791666666667, 24.290416666666665], [89.49458333333334, 24.28486111111111], [89.49360729847496, 24.280399237472764]]], [[[89.59738872644574, 24.343774366471735], [89.58486111111111, 24.34847222222222], [89.57986111111111, 24.359305555555554], [89.59657607968981, 24.36738751838481], [89.58125, 24.35736111111111], [89.59486111111111, 24.34736111111111], [89.59541666666667, 24.357916666666664], [89.60374609313955, 24.36096011095483], [89.59652777777778, 24.355138888888888], [89.59738872644574, 24.343774366471735]]], [[[89.60561112435755, 24.3616415646691], [89.60986111111112, 24.363194444444442], [89.61569444444444, 24.351805555555554], [89.60819444444445, 24.34208333333333], [89.62180555555555, 24.35013888888889], [89.62208333333334, 24.36875], [89.62541666666667, 24.35597222222222], [89.61986111111112, 24.345138888888886], [89.60708333333334, 24.340694444444445], [89.60458333333334, 24.345972222222223], [89.61375, 24.354027777777777], [89.60561112435755, 24.3616415646691]]], [[[89.6053943741066, 24.373156496040654], [89.60736111111112, 24.385694444444443], [89.58541666666667, 24.39236111111111], [89.57819444444445, 24.401527777777776], [89.58974475245266, 24.42093229523158], [89.58125, 24.400416666666665], [89.59125, 24.391805555555553], [89.60208333333334, 24.392083333333332], [89.59652777777778, 24.396805555555556], [89.60625, 24.391527777777778], [89.61097222222223, 24.376805555555553], [89.6053943741066, 24.373156496040654]]], [[[89.59178428154632, 24.425857950401163], [89.58958333333334, 24.433194444444442], [89.57263888888889, 24.435972222222222], [89.56703338655531, 24.447717084254485], [89.5676388888889, 24.44875], [89.57319444444445, 24.436527777777776], [89.58513888888889, 24.44013888888889], [89.59308893834488, 24.429008819650516], [89.59178428154632, 24.425857950401163]]], [[[89.54842656012177, 24.448682775240993], [89.54736111111112, 24.448194444444443], [89.541362489946, 24.472461593703315], [89.54347222222222, 24.471527777777776], [89.54842656012177, 24.448682775240993]]], [[[89.53310620915036, 24.47611601307188], [89.52569444444444, 24.479027777777777], [89.53319444444445, 24.485416666666666], [89.53152777777778, 24.494027777777777], [89.51486111111112, 24.48708333333333], [89.51291666666667, 24.49458333333333], [89.51375, 24.50236111111111], [89.52569444444444, 24.511527777777776], [89.52430555555551, 24.512916666666708], [89.52680555555555, 24.510694444444443], [89.51486111111112, 24.501805555555553], [89.51486111111112, 24.48847222222222], [89.53180555555556, 24.49486111111111], [89.53430555555556, 24.485694444444444], [89.52652777777779, 24.479027777777777], [89.53310620915036, 24.47611601307188]]], [[[89.51741780045352, 24.519804421768708], [89.51652777777778, 24.520694444444445], [89.53597222222223, 24.527083333333334], [89.52458333333334, 24.531805555555554], [89.53013888888889, 24.544583333333332], [89.51680555555556, 24.535416666666666], [89.53041666666667, 24.545416666666664], [89.52597222222222, 24.531805555555554], [89.53680555555556, 24.526805555555555], [89.51741780045352, 24.519804421768708]]], [[[89.5966354499304, 24.43610118316548], [89.59819444444445, 24.43986111111111], [89.61030850540806, 24.43875983284169], [89.5966354499304, 24.43610118316548]]], [[[89.61348869459931, 24.43937820296221], [89.61399641577061, 24.467302867383513], [89.61597222222223, 24.43986111111111], [89.61348869459931, 24.43937820296221]]], [[[89.61414649608115, 24.475557284462884], [89.61430555555556, 24.484305555555554], [89.62195269068268, 24.489843136164843], [89.62347222222222, 24.489027777777775], [89.61414649608115, 24.475557284462884]]], [[[89.6164143192488, 24.49281494522693], [89.61125, 24.49513888888889], [89.61625000000001, 24.514027777777777], [89.60236111111111, 24.518749999999997], [89.60069444444444, 24.54375], [89.59152777777778, 24.55236111111111], [89.59569444444445, 24.559027777777775], [89.59208333333333, 24.552638888888886], [89.60125000000001, 24.544027777777778], [89.60319444444444, 24.518749999999997], [89.61708333333334, 24.515416666666667], [89.61208333333333, 24.49513888888889], [89.6164143192488, 24.49281494522693]]], [[[89.61757599580713, 24.170953004891683], [89.62069444444445, 24.171249999999997], [89.62701755326756, 24.180597204347222], [89.62847222222223, 24.186527777777776], [89.62958333333333, 24.179027777777776], [89.62491666666668, 24.172027777777796], [89.62486111111112, 24.171805555555554], [89.62491500829188, 24.172025290215608], [89.62347222222222, 24.16986111111111], [89.61757599580713, 24.170953004891683]]], [[[89.63942747893579, 24.126639947287597], [89.64625000000001, 24.132916666666667], [89.64569444444444, 24.150694444444444], [89.65541666666667, 24.166249999999998], [89.66041666666666, 24.160138888888888], [89.66430555555556, 24.17013888888889], [89.66736111111112, 24.16597222222222], [89.66152777777778, 24.15958333333333], [89.66847222222222, 24.160416666666666], [89.65236111111112, 24.155694444444443], [89.67736111111111, 24.153194444444445], [89.69291666666668, 24.172083333333333], [89.69236111111111, 24.190694444444443], [89.70402777777778, 24.208194444444445], [89.70680555555556, 24.229027777777777], [89.71112053516254, 24.228616827339017], [89.70744101978691, 24.23581587916087], [89.71236111111111, 24.241805555555555], [89.71041666666667, 24.25069444444444], [89.70263888888888, 24.24736111111111], [89.70597222222223, 24.242083333333333], [89.70597222222223, 24.238689613526557], [89.70097222222222, 24.248472222222222], [89.70847222222223, 24.25208333333333], [89.70263888888888, 24.25375], [89.70708333333333, 24.28569444444444], [89.71986111111111, 24.30236111111111], [89.71513888888889, 24.33625], [89.72736111111111, 24.345972222222223], [89.72097222222223, 24.374305555555555], [89.72348218238159, 24.376188025675077], [89.72847222222222, 24.345138888888886], [89.71569444444445, 24.33236111111111], [89.72041666666667, 24.300694444444442], [89.70541666666666, 24.270138888888887], [89.72097222222223, 24.276805555555555], [89.73041666666667, 24.307916666666664], [89.75597222222223, 24.316527777777775], [89.75486111111111, 24.34708333333333], [89.76458333333333, 24.340416666666666], [89.77263888888889, 24.32597222222222], [89.77402777777777, 24.301805555555553], [89.78791666666667, 24.285416666666666], [89.77819444444445, 24.275972222222222], [89.77541666666667, 24.236805555555556], [89.79513888888889, 24.171527777777776], [89.78013888888889, 24.166249999999998], [89.79791666666667, 24.155694444444443], [89.78791666666667, 24.13319444444444], [89.79125, 24.07986111111111], [89.7826388888889, 24.046527777777776], [89.78916087962963, 24.046760706018517], [89.79236111111112, 24.05236111111111], [89.7976388888889, 24.049027777777777], [89.7899239567622, 24.04678795877325], [89.79819444444445, 24.047083333333333], [89.78541666666666, 24.044027777777778], [89.78347222222223, 24.033749999999998], [89.76347222222222, 24.023194444444442], [89.77263888888889, 24.04347222222222], [89.76263888888889, 24.047638888888887], [89.75819444444444, 24.02236111111111], [89.74458333333334, 24.027916666666666], [89.74513888888889, 24.02263888888889], [89.72180555555556, 24.01347222222222], [89.70708333333333, 24.02263888888889], [89.71069444444444, 24.020694444444445], [89.70902777777778, 24.03875], [89.71263888888889, 24.033749999999998], [89.71402777777779, 24.04208333333333], [89.70625, 24.060138888888886], [89.71097222222222, 24.057916666666664], [89.71486111111112, 24.074027777777776], [89.71069444444444, 24.085416666666664], [89.70125, 24.03625], [89.68291666666667, 24.034305555555555], [89.68585709148816, 24.078679239225355], [89.68791666666667, 24.07736111111111], [89.68930555555556, 24.07347222222222], [89.69113799596242, 24.080114818697098], [89.69486111111111, 24.074583333333333], [89.69430555555556, 24.082916666666666], [89.68513888888889, 24.089027777777776], [89.68805697901415, 24.08469232959168], [89.68208333333334, 24.090138888888887], [89.68097222222222, 24.081805555555555], [89.68132834757834, 24.081577635327637], [89.68041666666667, 24.081805555555555], [89.67625, 24.06375], [89.66319444444444, 24.07208333333333], [89.67319444444445, 24.085416666666664], [89.66736111111112, 24.120694444444442], [89.67652777777778, 24.152638888888887], [89.66840856481483, 24.150167824074074], [89.67152777777778, 24.152638888888887], [89.64875, 24.15458333333333], [89.64708333333334, 24.13458333333333], [89.65013888888889, 24.147916666666664], [89.65847222222223, 24.14708333333333], [89.65180555555555, 24.14486111111111], [89.65013888888889, 24.135694444444443], [89.65213928856917, 24.13727917665869], [89.64069444444445, 24.12597222222222], [89.63942747893579, 24.126639947287597]], [[89.71210065216215, 24.22669920712237], [89.70791666666666, 24.212916666666665], [89.71375, 24.22347222222222], [89.71210065216215, 24.22669920712237]], [[89.78013888888889, 24.081527777777776], [89.77847222222222, 24.089027777777776], [89.77625, 24.07875], [89.78013888888889, 24.081527777777776]], [[89.75652777777778, 24.056527777777777], [89.74486111111112, 24.04486111111111], [89.75402777777778, 24.03097222222222], [89.75347222222223, 24.04847222222222], [89.75708333333334, 24.03625], [89.76097222222222, 24.050416666666667], [89.77097222222223, 24.052083333333332], [89.77375, 24.04347222222222], [89.77569444444444, 24.04736111111111], [89.77097222222223, 24.06319444444444], [89.75652777777778, 24.056527777777777]], [[89.76263888888889, 24.094583333333333], [89.76513888888888, 24.086527777777775], [89.76180555555555, 24.094027777777775], [89.75291666666666, 24.08625], [89.75375, 24.081805555555555], [89.76152777777779, 24.086527777777775], [89.75541666666668, 24.077916666666667], [89.76263888888889, 24.082083333333333], [89.75430555555556, 24.06347222222222], [89.76625, 24.069027777777777], [89.76930555555556, 24.09986111111111], [89.76263888888889, 24.094583333333333]], [[89.71680555555555, 24.14125], [89.72125, 24.139305555555556], [89.71930555555556, 24.15375], [89.72347222222223, 24.143194444444443], [89.73347222222222, 24.15347222222222], [89.73347222222222, 24.162188438438456], [89.73416472868216, 24.160597545219673], [89.73458333333333, 24.159027777777776], [89.73424162772585, 24.16042088525444], [89.73569444444445, 24.157083333333333], [89.72597222222223, 24.13958333333333], [89.72513888888889, 24.12125], [89.71097222222222, 24.10986111111111], [89.70958333333334, 24.09986111111111], [89.71402777777779, 24.106527777777778], [89.7201388888889, 24.09847222222222], [89.71958333333333, 24.108194444444443], [89.72986111111112, 24.127916666666664], [89.72152777777778, 24.104027777777777], [89.73930555555556, 24.12875], [89.73097222222222, 24.123194444444444], [89.75152777777778, 24.137638888888887], [89.75069444444445, 24.15486111111111], [89.7526388888889, 24.138749999999998], [89.76652777777778, 24.154305555555553], [89.76708333333333, 24.165694444444444], [89.75902777777777, 24.172638888888887], [89.76736111111111, 24.16708333333333], [89.76486111111112, 24.204583333333332], [89.75458333333333, 24.22513888888889], [89.7351388888889, 24.213472222222222], [89.71041666666667, 24.18375], [89.71180555555556, 24.17513888888889], [89.71930555555556, 24.189305555555553], [89.72402777777778, 24.18208333333333], [89.75069444444445, 24.214583333333334], [89.72541666666667, 24.180694444444445], [89.72802581555067, 24.174700453765016], [89.72236111111111, 24.176527777777775], [89.71236111111111, 24.16847222222222], [89.71680555555555, 24.14125]], [[89.76486111111112, 24.124027777777776], [89.75180555555556, 24.108472222222222], [89.76041666666667, 24.11236111111111], [89.76486111111112, 24.124027777777776]], [[89.72541666666667, 24.245694444444442], [89.72430555555556, 24.251805555555553], [89.72875, 24.247638888888886], [89.73847222222223, 24.267638888888886], [89.73263888888889, 24.25263888888889], [89.74180555555556, 24.25486111111111], [89.74541666666667, 24.265416666666667], [89.74236111111111, 24.255138888888887], [89.75319444444445, 24.260694444444443], [89.76152777777779, 24.29375], [89.75680555555556, 24.314305555555553], [89.73152777777779, 24.30708333333333], [89.72347222222223, 24.27875], [89.70930555555556, 24.265138888888888], [89.70652777777778, 24.25486111111111], [89.71458333333334, 24.247916666666665], [89.71319444444444, 24.23847222222222], [89.72541666666667, 24.245694444444442]], [[89.74708333333334, 24.07875], [89.74541666666667, 24.072916666666664], [89.75152777777778, 24.070416666666667], [89.75291666666666, 24.08736111111111], [89.74152777777778, 24.07875], [89.74708333333334, 24.07875]], [[89.72736111111111, 24.234027777777776], [89.74236111111111, 24.22847222222222], [89.74680555555555, 24.234583333333333], [89.73458333333333, 24.240694444444443], [89.7226388888889, 24.23236111111111], [89.72736111111111, 24.234027777777776]], [[89.72958333333334, 24.22513888888889], [89.72986111111112, 24.22986111111111], [89.72569444444444, 24.227361111111108], [89.72958333333334, 24.22513888888889]], [[89.71486111111112, 24.206249999999997], [89.72541666666667, 24.214305555555555], [89.71847222222223, 24.21486111111111], [89.71486111111112, 24.206249999999997]], [[89.71729151753759, 24.121050167024574], [89.72458333333334, 24.12986111111111], [89.71041666666667, 24.146527777777777], [89.70930555555556, 24.159027777777776], [89.70041666666667, 24.13597222222222], [89.70736111111111, 24.11347222222222], [89.7076388888889, 24.127916666666664], [89.71430555555555, 24.135416666666664], [89.71041666666667, 24.12875], [89.71729151753759, 24.121050167024574]], [[89.71847222222223, 24.179027777777776], [89.71763888888889, 24.17486111111111], [89.72347222222223, 24.181527777777777], [89.71847222222223, 24.179027777777776]], [[89.70569444444445, 24.268749999999997], [89.70569444444445, 24.260694444444443], [89.71347222222222, 24.270694444444445], [89.70569444444445, 24.268749999999997]], [[89.69930555555555, 24.152083333333334], [89.69930555555555, 24.146805555555556], [89.70569444444445, 24.15736111111111], [89.69930555555555, 24.152083333333334]], [[89.69763888888889, 24.09263888888889], [89.69486111111111, 24.09847222222222], [89.7031806356068, 24.097130363432594], [89.70430555555556, 24.101527777777775], [89.69319444444444, 24.10013888888889], [89.69763888888889, 24.09263888888889]], [[89.69569444444444, 24.045972222222222], [89.69791666666667, 24.040694444444444], [89.69652777777777, 24.05097222222222], [89.69569444444444, 24.045972222222222]], [[89.6820813920119, 24.135967326715956], [89.6776388888889, 24.13347222222222], [89.67569444444445, 24.11986111111111], [89.6820813920119, 24.135967326715956]], [[89.682084818776, 24.135969251336896], [89.69208333333333, 24.115972222222222], [89.68680555555555, 24.12847222222222], [89.69041666666666, 24.13347222222222], [89.68875, 24.12763888888889], [89.69763888888889, 24.122083333333332], [89.68930555555556, 24.136527777777776], [89.69625, 24.131805555555555], [89.69791666666667, 24.14486111111111], [89.682084818776, 24.135969251336896]], [[89.68569444444445, 24.15736111111111], [89.68680555555555, 24.152083333333334], [89.6926388888889, 24.16263888888889], [89.68569444444445, 24.15736111111111]], [[89.68958333333333, 24.116805555555555], [89.68069444444444, 24.124027777777776], [89.68319444444445, 24.115972222222222], [89.68958333333333, 24.116805555555555]], [[89.68125, 24.124583333333334], [89.68625, 24.122083333333332], [89.68097222222222, 24.131527777777777], [89.68125, 24.124583333333334]]], [[[89.72430555555555, 24.37680555555555], [89.73097222222222, 24.381805555555555], [89.74652777777779, 24.380138888888887], [89.75402777777778, 24.39763888888889], [89.74791666666667, 24.411805555555553], [89.74402777777777, 24.407083333333333], [89.73263888888889, 24.41069444444444], [89.72208333333333, 24.42236111111111], [89.71597222222222, 24.43958333333333], [89.72180555555556, 24.460694444444442], [89.71375, 24.47958333333333], [89.69569444444444, 24.48236111111111], [89.6876388888889, 24.49347222222222], [89.70458333333333, 24.481805555555553], [89.68597222222222, 24.528194444444445], [89.69347222222223, 24.52208333333333], [89.66791666666667, 24.558194444444442], [89.66319444444444, 24.58513888888889], [89.64875, 24.603194444444444], [89.64989675000685, 24.60370682210708], [89.66430555555556, 24.58625], [89.66263888888889, 24.60763888888889], [89.65027597402599, 24.60387626262627], [89.66180555555556, 24.609027777777776], [89.66236111111111, 24.652638888888887], [89.65097222222222, 24.669583333333332], [89.63569444444445, 24.678749999999997], [89.63208333333334, 24.691527777777775], [89.63708333333334, 24.69597222222222], [89.65986111111111, 24.678194444444443], [89.66458333333334, 24.685972222222222], [89.66152777777778, 24.677638888888886], [89.66791666666667, 24.672083333333333], [89.66708333333334, 24.68986111111111], [89.65486111111112, 24.693194444444444], [89.65402777777778, 24.71236111111111], [89.64708333333334, 24.71763888888889], [89.65513888888889, 24.712083333333332], [89.65652777777778, 24.692916666666665], [89.66652777777779, 24.692083333333333], [89.65597222222223, 24.747916666666665], [89.66652777777779, 24.74736111111111], [89.66680555555556, 24.75597222222222], [89.72319444444445, 24.734305555555554], [89.72319444444445, 24.762916666666666], [89.70652777777778, 24.77125], [89.72125, 24.765416666666667], [89.70861742424243, 24.774753787878787], [89.69541666666667, 24.77958333333333], [89.71986111111111, 24.775972222222222], [89.73069444444445, 24.765138888888888], [89.73875, 24.742638888888887], [89.73152777777779, 24.720694444444444], [89.74319444444444, 24.69763888888889], [89.79430555555555, 24.67513888888889], [89.78708333333334, 24.677638888888886], [89.79125, 24.67236111111111], [89.78236111111111, 24.671527777777776], [89.78430555555556, 24.626805555555553], [89.76375, 24.645138888888887], [89.74486111111112, 24.679583333333333], [89.71708333333333, 24.709027777777777], [89.69819444444445, 24.682916666666664], [89.70180555555555, 24.674027777777777], [89.70708333333333, 24.69347222222222], [89.70430555555556, 24.67458333333333], [89.71486111111112, 24.624583333333334], [89.75208333333333, 24.59708333333333], [89.7503900304414, 24.59498363774733], [89.74680555555555, 24.594027777777775], [89.74041666666668, 24.586805555555554], [89.74971443406021, 24.59414589823466], [89.73819444444445, 24.57986111111111], [89.75958333333334, 24.560416666666665], [89.76569444444445, 24.540138888888887], [89.76013888888889, 24.549027777777777], [89.75902777777777, 24.538194444444443], [89.75208333333333, 24.53736111111111], [89.75763888888889, 24.54847222222222], [89.75402777777778, 24.55875], [89.74458333333334, 24.568194444444444], [89.73569444444445, 24.56625], [89.74680555555555, 24.54375], [89.71930555555556, 24.492916666666666], [89.73013888888889, 24.47486111111111], [89.74263888888889, 24.46763888888889], [89.74236111111111, 24.455694444444443], [89.7551388888889, 24.455416666666665], [89.74680555555555, 24.434027777777775], [89.73736111111111, 24.44125], [89.73125, 24.434027777777775], [89.74041666666668, 24.41708333333333], [89.74319444444444, 24.426527777777775], [89.74902777777778, 24.42486111111111], [89.76597222222223, 24.37569444444444], [89.76152777777779, 24.38375], [89.75736111111111, 24.366249999999997], [89.75541666666668, 24.395416666666666], [89.74652777777779, 24.37875], [89.73097222222222, 24.381249999999998], [89.72430555555555, 24.37680555555555]], [[89.77958333333333, 24.661527777777778], [89.76263888888889, 24.664027777777775], [89.7826388888889, 24.63847222222222], [89.77958333333333, 24.661527777777778]], [[89.76847222222223, 24.67486111111111], [89.7551388888889, 24.678749999999997], [89.76375, 24.66708333333333], [89.77791666666667, 24.665138888888887], [89.77513888888889, 24.67375], [89.76847222222223, 24.67486111111111]], [[89.72152777777778, 24.59263888888889], [89.71652777777778, 24.594027777777775], [89.72652777777778, 24.574305555555554], [89.73108166562436, 24.589306597873673], [89.73597222222223, 24.58625], [89.74625, 24.59708333333333], [89.71263888888889, 24.623194444444444], [89.71152777777777, 24.614583333333332], [89.71013888888889, 24.625138888888888], [89.70291666666667, 24.625138888888888], [89.70069444444445, 24.615972222222222], [89.7226388888889, 24.594583333333333], [89.72930555555557, 24.590416666666663], [89.72152777777778, 24.59263888888889]], [[89.73597222222223, 24.576805555555556], [89.7351388888889, 24.58597222222222], [89.72875, 24.57208333333333], [89.74180555555556, 24.567916666666665], [89.73597222222223, 24.576805555555556]], [[89.73208333333334, 24.746805555555554], [89.73152777777779, 24.733194444444443], [89.73375, 24.75097222222222], [89.73208333333334, 24.746805555555554]], [[89.71263888888889, 24.542638888888888], [89.72319444444445, 24.554305555555555], [89.73041666666667, 24.55013888888889], [89.72513888888889, 24.560138888888886], [89.71791666666667, 24.560416666666665], [89.71263888888889, 24.542638888888888]], [[89.72125, 24.52097222222222], [89.71875, 24.506249999999998], [89.72930555555556, 24.532083333333333], [89.72097222222223, 24.52958333333333], [89.72125, 24.52097222222222]], [[89.72208333333333, 24.72458333333333], [89.7201388888889, 24.71236111111111], [89.72680555555556, 24.708194444444445], [89.72208333333333, 24.72458333333333]], [[89.70430555555556, 24.597013888888885], [89.70152777777778, 24.59875], [89.69930555555555, 24.635694444444443], [89.69319444444444, 24.637083333333333], [89.69208333333333, 24.606527777777778], [89.71736111111112, 24.579583333333332], [89.71263888888889, 24.591805555555553], [89.70720029239766, 24.595204678362574], [89.71430555555555, 24.59263888888889], [89.70430555555556, 24.60763888888889], [89.70430555555556, 24.597013888888885]], [[89.7037666062802, 24.555836352657003], [89.70236111111112, 24.55125], [89.70875000000001, 24.54513888888889], [89.71513888888889, 24.554027777777776], [89.71652777777778, 24.561527777777776], [89.7076388888889, 24.56847222222222], [89.7047703430031, 24.559111704068602], [89.70180555555555, 24.573194444444443], [89.70013888888889, 24.551805555555553], [89.7037666062802, 24.555836352657003]], [[89.69819444444445, 24.69625], [89.69625, 24.727361111111108], [89.70069444444445, 24.703194444444442], [89.70902777777778, 24.714583333333334], [89.70486111111111, 24.727083333333333], [89.71347222222222, 24.72458333333333], [89.70375, 24.73486111111111], [89.67819444444444, 24.73625], [89.69402777777778, 24.685416666666665], [89.69819444444445, 24.69625]], [[89.70569444444445, 24.63625], [89.70263888888888, 24.626527777777778], [89.71041666666667, 24.629583333333333], [89.70569444444445, 24.63625]], [[89.69208333333333, 24.541805555555555], [89.70041666666667, 24.52236111111111], [89.70152777777778, 24.53486111111111], [89.69208333333333, 24.541805555555555]], [[89.69986111111112, 24.662916666666664], [89.68986111111111, 24.64486111111111], [89.69819444444445, 24.638194444444444], [89.69986111111112, 24.662916666666664]], [[89.6901388888889, 24.548194444444444], [89.68625, 24.545416666666664], [89.69152777777778, 24.544027777777778], [89.6901388888889, 24.548194444444444]], [[89.68625, 24.575694444444444], [89.69069444444445, 24.575138888888887], [89.69125, 24.587638888888886], [89.67847222222223, 24.59736111111111], [89.68125, 24.582638888888887], [89.68847222222223, 24.582916666666666], [89.68625, 24.575694444444444]], [[89.68736111111112, 24.705416666666665], [89.68291666666667, 24.69847222222222], [89.68930555555556, 24.69347222222222], [89.68736111111112, 24.705416666666665]], [[89.68458333333334, 24.560972222222222], [89.68069444444444, 24.555416666666666], [89.6876388888889, 24.547638888888887], [89.68458333333334, 24.560972222222222]], [[89.67847222222223, 24.661805555555553], [89.68708333333333, 24.66347222222222], [89.68541666666667, 24.670694444444443], [89.67847222222223, 24.661805555555553]], [[89.68208333333334, 24.574027777777776], [89.67875000000001, 24.56375], [89.68486111111112, 24.56375], [89.68180555555556, 24.57125], [89.68597222222222, 24.56486111111111], [89.68208333333334, 24.574027777777776]], [[89.68263888888889, 24.62986111111111], [89.68263888888889, 24.646805555555556], [89.67680555555556, 24.622638888888886], [89.68569444444445, 24.61347222222222], [89.68263888888889, 24.62986111111111]], [[89.67569444444445, 24.693749999999998], [89.67708333333334, 24.684305555555554], [89.68458333333334, 24.680416666666666], [89.67569444444445, 24.693749999999998]], [[89.67875000000001, 24.714305555555555], [89.67958333333334, 24.705416666666665], [89.68430555555555, 24.711527777777775], [89.67875000000001, 24.714305555555555]], [[89.67625, 24.569027777777777], [89.67041666666667, 24.57375], [89.6726388888889, 24.56375], [89.67625, 24.569027777777777]]], [[[89.630877720504, 24.250909221076746], [89.62708333333333, 24.25819444444444], [89.66594449198202, 24.29542506496801], [89.65069444444444, 24.274583333333332], [89.62791666666666, 24.257638888888888], [89.630877720504, 24.250909221076746]]], [[[89.66661429426489, 24.29634046142126], [89.64625000000001, 24.30597222222222], [89.65236111111112, 24.324027777777776], [89.64708333333334, 24.305694444444445], [89.66736111111112, 24.29736111111111], [89.66661429426489, 24.29634046142126]]], [[[89.62504989212516, 24.23980987055012], [89.62097222222222, 24.245416666666664], [89.60339506172839, 24.250138888888888], [89.60930555555557, 24.250138888888888], [89.61680555555556, 24.265694444444442], [89.61625000000001, 24.259305555555553], [89.62208333333334, 24.260416666666664], [89.62819444444445, 24.273194444444442], [89.62402777777778, 24.26013888888889], [89.60986111111112, 24.25069444444444], [89.62069444444445, 24.248749999999998], [89.62504989212516, 24.23980987055012]]], [[[89.6022156084656, 24.250138888888888], [89.59319444444445, 24.232916666666664], [89.59875000000001, 24.248749999999998], [89.59430555555556, 24.244305555555552], [89.59430555555556, 24.250138888888888], [89.6022156084656, 24.250138888888888]]], [[[89.75375, 24.496805555555554], [89.74319444444444, 24.49513888888889], [89.74152777777778, 24.511805555555554], [89.75375, 24.496805555555554]]], [[[89.73069444444445, 24.401805555555555], [89.73541666666667, 24.40958333333333], [89.73319444444445, 24.39736111111111], [89.73069444444445, 24.401805555555555]]], [[[89.7226388888889, 24.38375], [89.71569444444445, 24.390694444444442], [89.72375000000001, 24.39097222222222], [89.7226388888889, 24.38375]]], [[[89.70097222222222, 24.033749999999998], [89.70458333333333, 24.039305555555554], [89.70375, 24.02375], [89.70097222222222, 24.033749999999998]]], [[[89.68902777777778, 24.233472222222222], [89.68819444444445, 24.221249999999998], [89.68347222222222, 24.231527777777778], [89.68902777777778, 24.233472222222222]]], [[[89.66125000000001, 24.21597222222222], [89.66404146141214, 24.20332854406135], [89.66402777777778, 24.20347222222222], [89.6699295146324, 24.198911789198192], [89.66526194672934, 24.197800463506983], [89.66597222222222, 24.19458333333333], [89.65958333333333, 24.194305555555555], [89.65597222222223, 24.20236111111111], [89.66041666666666, 24.20208333333333], [89.65847222222223, 24.21736111111111], [89.66430555555556, 24.219027777777775], [89.66125000000001, 24.21597222222222]]], [[[89.67055894308943, 24.19906165311653], [89.67875000000001, 24.205138888888886], [89.67819444444444, 24.19347222222222], [89.67625, 24.200416666666666], [89.67055894308943, 24.19906165311653]]], [[[89.65519515328727, 24.179530170122277], [89.65430555555555, 24.176527777777775], [89.66569444444444, 24.180694444444445], [89.65735591900312, 24.183726635514017], [89.67152777777778, 24.18125], [89.66708333333334, 24.177916666666665], [89.65569444444445, 24.170694444444443], [89.64013888888888, 24.169305555555553], [89.64541666666666, 24.171805555555554], [89.63597222222222, 24.17458333333333], [89.64958333333334, 24.175416666666667], [89.63875, 24.17597222222222], [89.63708333333334, 24.18236111111111], [89.64152777777778, 24.17625], [89.65519515328727, 24.179530170122277]]], [[[89.65648371320039, 24.183879059829057], [89.65520409628864, 24.179560352751924], [89.6451388888889, 24.178472222222222], [89.64291666666666, 24.186249999999998], [89.65648371320039, 24.183879059829057]]], [[[89.65791666666667, 24.19125], [89.66763888888889, 24.186249999999998], [89.64458333333333, 24.189305555555553], [89.65791666666667, 24.19125]]], [[[89.65625, 24.128194444444443], [89.66319444444444, 24.123749999999998], [89.65875, 24.122638888888886], [89.66069444444445, 24.114305555555553], [89.65236111111112, 24.115138888888886], [89.65736111111111, 24.116249999999997], [89.65625, 24.128194444444443]]], [[[89.65500446588068, 24.267919792783132], [89.6576388888889, 24.274583333333332], [89.66319444444444, 24.270694444444445], [89.66097222222223, 24.264027777777777], [89.65500446588068, 24.267919792783132]]], [[[89.64819444444444, 24.106527777777778], [89.65069444444444, 24.09708333333333], [89.64069444444445, 24.10625], [89.64375, 24.110694444444444], [89.64819444444444, 24.106527777777778]]], [[[89.64112021857923, 24.198014571948995], [89.63125000000001, 24.189305555555553], [89.63402777777777, 24.199027777777776], [89.64112021857923, 24.198014571948995]]], [[[89.64162092086141, 24.198456368080333], [89.63819444444445, 24.20847222222222], [89.64541666666666, 24.201805555555556], [89.64162092086141, 24.198456368080333]]], [[[89.63458333333334, 24.270694444444445], [89.64458333333333, 24.279027777777777], [89.63152777777778, 24.26347222222222], [89.63458333333334, 24.270694444444445]]], [[[89.64152777777778, 24.152916666666666], [89.64375, 24.145694444444445], [89.63458333333334, 24.145694444444445], [89.63430555555556, 24.15347222222222], [89.64152777777778, 24.152916666666666]]], [[[89.58486111111111, 24.12486111111111], [89.60125000000001, 24.09958333333333], [89.58097222222223, 24.107916666666664], [89.57680555555555, 24.116805555555555], [89.58097222222223, 24.127916666666664], [89.58486111111111, 24.12486111111111]]], [[[89.59125, 24.186249999999998], [89.59180555555555, 24.180416666666666], [89.58347222222223, 24.179027777777776], [89.58430555555556, 24.190694444444443], [89.59125, 24.186249999999998]]], [[[89.57263888888889, 24.117638888888887], [89.57847222222223, 24.11125], [89.55708333333334, 24.11486111111111], [89.57263888888889, 24.117638888888887]]], [[[89.5626388888889, 24.12875], [89.56958333333334, 24.12236111111111], [89.56597222222223, 24.117916666666666], [89.55541666666667, 24.131527777777777], [89.5626388888889, 24.12875]]], [[[89.56069444444445, 24.34708333333333], [89.55680555555556, 24.34347222222222], [89.56069444444445, 24.362916666666667], [89.56791666666668, 24.366805555555555], [89.56375, 24.373472222222222], [89.56875000000001, 24.367083333333333], [89.56125, 24.36263888888889], [89.56069444444445, 24.34708333333333]]], [[[89.53013888888889, 24.331527777777776], [89.51986111111111, 24.32986111111111], [89.54347222222222, 24.34263888888889], [89.53013888888889, 24.331527777777776]]], [[[89.51041666666667, 24.275694444444444], [89.51708333333333, 24.268472222222222], [89.50902777777777, 24.271527777777777], [89.50402777777778, 24.263194444444444], [89.51041666666667, 24.275694444444444]]], [[[89.51069444444445, 24.238194444444442], [89.51180555555555, 24.246805555555554], [89.51263888888889, 24.23986111111111], [89.51652777777778, 24.241527777777776], [89.51125, 24.233194444444443], [89.51069444444445, 24.238194444444442]]], [[[89.51347222222222, 24.26458333333333], [89.51458333333333, 24.25819444444444], [89.50819444444444, 24.25708333333333], [89.51152777777779, 24.262916666666666], [89.50708333333334, 24.262638888888887], [89.51347222222222, 24.26458333333333]]], [[[89.5023131238346, 24.241595508390915], [89.50486111111111, 24.245694444444442], [89.50180555555556, 24.255138888888887], [89.50680555555556, 24.248749999999998], [89.50819444444444, 24.241805555555555], [89.5023131238346, 24.241595508390915]]], [[[89.48041666666667, 24.374305555555555], [89.4851388888889, 24.36875], [89.47652777777778, 24.358472222222222], [89.46902777777778, 24.37125], [89.48041666666667, 24.374305555555555]]], [[[89.4726388888889, 24.30763888888889], [89.47680555555556, 24.309027777777775], [89.47458333333334, 24.29958333333333], [89.46569444444445, 24.305138888888887], [89.4726388888889, 24.30763888888889]]], [[[89.45236111111112, 24.34125], [89.45736111111111, 24.339583333333334], [89.45625, 24.32986111111111], [89.44958333333334, 24.32736111111111], [89.4473611111111, 24.337083333333332], [89.45236111111112, 24.34125]]], [[[89.42708333333334, 24.28486111111111], [89.43791666666667, 24.279305555555553], [89.43902777777778, 24.285138888888888], [89.44458333333334, 24.282916666666665], [89.44847222222222, 24.263194444444444], [89.42875000000001, 24.248472222222222], [89.42430555555556, 24.257638888888888], [89.43013888888889, 24.267638888888886], [89.42347222222223, 24.27236111111111], [89.42180555555557, 24.290694444444444], [89.42708333333334, 24.28486111111111]]], [[[89.25615702715035, 24.42900629325424], [89.25125, 24.436249999999998], [89.26986111111111, 24.44125], [89.27819444444445, 24.44013888888889], [89.28069444444445, 24.428749999999997], [89.29819444444445, 24.427083333333332], [89.31152777777778, 24.408749999999998], [89.31847222222223, 24.409027777777776], [89.31958333333334, 24.401249999999997], [89.33125, 24.399583333333332], [89.35847222222222, 24.411527777777778], [89.35069444444444, 24.406805555555554], [89.35625, 24.40458333333333], [89.35041666666667, 24.401527777777776], [89.36125, 24.39763888888889], [89.36069444444445, 24.391805555555553], [89.35236111111111, 24.391527777777778], [89.35263888888889, 24.379027777777775], [89.35486111111112, 24.38347222222222], [89.36152777777778, 24.380138888888887], [89.35930555555557, 24.38597222222222], [89.36236111111111, 24.37986111111111], [89.35569444444445, 24.374583333333334], [89.34125, 24.377916666666664], [89.33958333333334, 24.372916666666665], [89.35902777777778, 24.367083333333333], [89.33763888888889, 24.363194444444442], [89.35097222222223, 24.364583333333332], [89.34652777777778, 24.35736111111111], [89.34236111111112, 24.363194444444442], [89.34263888888889, 24.352083333333333], [89.32763888888888, 24.350694444444443], [89.32791666666667, 24.385694444444443], [89.28708333333334, 24.398194444444442], [89.28402777777778, 24.40458333333333], [89.29930555555556, 24.40236111111111], [89.29625, 24.41597222222222], [89.30236111111111, 24.40236111111111], [89.3126388888889, 24.40736111111111], [89.29430555555555, 24.41708333333333], [89.29319444444445, 24.42375], [89.28152777777778, 24.420972222222222], [89.25615702715035, 24.42900629325424]]]]}}