{"type": "Feature", "properties": {}, "geometry": {"type": "MultiPolygon", "coordinates": [[[[89.29406609195402, 24.379027777777775], [89.28347222222223, 24.379027777777775], [89.2851388888889, 24.420416666666664], [89.27180555555556, 24.42736111111111], [89.2526388888889, 24.42375], [89.24819444444445, 24.432916666666664], [89.27541666666667, 24.44847222222222], [89.28375, 24.462083333333332], [89.27902777777778, 24.46708333333333], [89.2851388888889, 24.470972222222223], [89.28347222222223, 24.484583333333333], [89.29347222222222, 24.480416666666667], [89.29486111111112, 24.49236111111111], [89.32680555555555, 24.53097222222222], [89.3272672104496, 24.530749943939902], [89.33152777777778, 24.53847222222222], [89.33430555555556, 24.53458333333333], [89.33402777777778, 24.529305555555553], [89.32839541730671, 24.530206733230923], [89.33430555555556, 24.52736111111111], [89.32819444444445, 24.522916666666664], [89.3326388888889, 24.515694444444442], [89.32819444444445, 24.51013888888889], [89.32597222222222, 24.51736111111111], [89.31902777777778, 24.51486111111111], [89.32263888888889, 24.505138888888887], [89.33847222222222, 24.512083333333333], [89.33597222222222, 24.50847222222222], [89.35902777777778, 24.49986111111111], [89.35847222222222, 24.492083333333333], [89.36041666666667, 24.507916666666667], [89.36569444444444, 24.507916666666667], [89.3601388888889, 24.51486111111111], [89.36875, 24.522916666666664], [89.37458333333333, 24.513194444444444], [89.38847222222222, 24.51013888888889], [89.38652777777779, 24.498472222222222], [89.39069444444445, 24.50125], [89.39347222222223, 24.492916666666666], [89.39819444444444, 24.496527777777775], [89.39569444444444, 24.492083333333333], [89.40430555555555, 24.486805555555556], [89.42069444444445, 24.501527777777778], [89.40597222222223, 24.52263888888889], [89.41680555555556, 24.522916666666664], [89.42486111111111, 24.532638888888886], [89.41458333333334, 24.518749999999997], [89.42736111111111, 24.498472222222222], [89.43513888888889, 24.497638888888886], [89.43375, 24.484305555555554], [89.44097222222223, 24.482916666666664], [89.43402777777779, 24.477916666666665], [89.4376388888889, 24.463472222222222], [89.42791666666668, 24.46013888888889], [89.43569444444445, 24.45875], [89.43458333333334, 24.44486111111111], [89.42875000000001, 24.445138888888888], [89.42680555555556, 24.45347222222222], [89.41930555555555, 24.439027777777778], [89.42402777777778, 24.435972222222222], [89.41736111111112, 24.428749999999997], [89.41930555555555, 24.436805555555555], [89.41486111111111, 24.435416666666665], [89.40541666666667, 24.425416666666667], [89.40819444444445, 24.415416666666665], [89.40097222222222, 24.414027777777775], [89.42069444444445, 24.415416666666665], [89.41708333333334, 24.428194444444443], [89.4226388888889, 24.42736111111111], [89.41847222222222, 24.429583333333333], [89.42930555555556, 24.439305555555553], [89.42930555555556, 24.420972222222222], [89.44319444444444, 24.421527777777776], [89.44597222222222, 24.416249999999998], [89.43958333333333, 24.418194444444442], [89.44402777777778, 24.415694444444444], [89.4401388888889, 24.412916666666664], [89.4473611111111, 24.41347222222222], [89.44652777777777, 24.425416666666667], [89.45266782407408, 24.425416666666667], [89.45930555555556, 24.415138888888887], [89.46291666666667, 24.41986111111111], [89.45625, 24.42375], [89.46236111111111, 24.427638888888886], [89.45069444444445, 24.428472222222222], [89.45107617411227, 24.427881156930116], [89.44430555555556, 24.43263888888889], [89.45180555555555, 24.435416666666665], [89.44821502057613, 24.44259773662551], [89.44430555555556, 24.43375], [89.43597222222222, 24.45347222222222], [89.43902777777778, 24.461805555555554], [89.44125, 24.44458333333333], [89.44684895833333, 24.44532986111111], [89.44680555555556, 24.445416666666667], [89.44696253071254, 24.445345004095003], [89.44958333333334, 24.44569444444444], [89.4490149231057, 24.4444080423503], [89.45958333333334, 24.43958333333333], [89.45263888888888, 24.431805555555552], [89.46319444444444, 24.43736111111111], [89.46180555555556, 24.449583333333333], [89.45735375275939, 24.449826158940397], [89.46041666666667, 24.451527777777777], [89.45486111111111, 24.469027777777775], [89.45875000000001, 24.474027777777778], [89.46236111111111, 24.46625], [89.47513888888889, 24.462638888888886], [89.46736111111112, 24.45375], [89.47597222222223, 24.452916666666667], [89.47680555555556, 24.44736111111111], [89.46569444444445, 24.450416666666666], [89.47875, 24.44569444444444], [89.46819444444445, 24.436527777777776], [89.47569444444444, 24.43347222222222], [89.47180555555556, 24.427916666666665], [89.47625000000001, 24.425416666666667], [89.48263888888889, 24.43236111111111], [89.47486111111111, 24.436527777777776], [89.48041666666667, 24.44708333333333], [89.48958333333334, 24.44597222222222], [89.49486111111112, 24.458194444444445], [89.49986111111112, 24.449027777777776], [89.49966316526611, 24.466249066293194], [89.49875, 24.455138888888886], [89.49763888888889, 24.46875], [89.49041666666668, 24.470416666666665], [89.49319444444444, 24.477638888888887], [89.47125, 24.47347222222222], [89.46347222222222, 24.481527777777778], [89.48180555555555, 24.483472222222222], [89.48347222222222, 24.489583333333332], [89.48791666666666, 24.48236111111111], [89.48930555555556, 24.48763888888889], [89.50541666666668, 24.491249999999997], [89.50125, 24.477638888888887], [89.50041666666667, 24.483749999999997], [89.49458333333334, 24.478749999999998], [89.50041666666667, 24.475416666666664], [89.50017747421549, 24.472506491844047], [89.50486111111111, 24.46708333333333], [89.50347222222223, 24.474305555555553], [89.50736111111111, 24.46847222222222], [89.51430555555555, 24.470694444444444], [89.50708333333334, 24.47986111111111], [89.51319444444445, 24.472638888888888], [89.52375, 24.477916666666665], [89.52597222222222, 24.47347222222222], [89.51513888888888, 24.462083333333332], [89.50486111111111, 24.46097222222222], [89.50708333333334, 24.445416666666667], [89.50041666666667, 24.445416666666667], [89.51402777777778, 24.436805555555555], [89.50763888888889, 24.46013888888889], [89.51791666666666, 24.457083333333333], [89.52263888888889, 24.464305555555555], [89.51736111111111, 24.44458333333333], [89.52569444444444, 24.44625], [89.52291666666667, 24.43736111111111], [89.51458333333333, 24.436249999999998], [89.52541666666667, 24.432916666666664], [89.52958333333333, 24.440416666666664], [89.53152777777778, 24.435138888888886], [89.53097222222223, 24.449027777777776], [89.53680555555556, 24.44708333333333], [89.53986111111111, 24.452638888888888], [89.53402777777778, 24.453194444444442], [89.53958333333334, 24.457083333333333], [89.54402777777779, 24.435138888888886], [89.53819444444444, 24.424305555555556], [89.51736111111111, 24.421527777777776], [89.52347222222222, 24.415416666666665], [89.52152777777778, 24.420416666666664], [89.52986111111112, 24.419305555555553], [89.52652777777779, 24.411805555555553], [89.51302856766719, 24.40955568720379], [89.51263888888889, 24.423194444444444], [89.52069444444444, 24.422916666666666], [89.51847007307114, 24.426475660863957], [89.5098611111111, 24.422083333333333], [89.51263888888889, 24.435416666666665], [89.50847222222222, 24.436249999999998], [89.5098611111111, 24.428194444444443], [89.49958333333333, 24.430416666666666], [89.50180555555556, 24.420416666666664], [89.50708333333334, 24.425694444444442], [89.50791666666667, 24.42013888888889], [89.50097222222223, 24.41375], [89.50958333333334, 24.409305555555555], [89.48875, 24.400416666666665], [89.47652777777778, 24.410138888888888], [89.47708333333334, 24.399027777777775], [89.48236111111112, 24.398194444444442], [89.47069444444445, 24.394305555555555], [89.45847222222223, 24.390694444444442], [89.45986111111111, 24.39597222222222], [89.45347222222223, 24.395694444444445], [89.45069444444445, 24.387916666666666], [89.46069444444444, 24.38458333333333], [89.46097222222222, 24.370416666666664], [89.46875, 24.38097222222222], [89.45597222222223, 24.389305555555556], [89.46513888888889, 24.38625], [89.46347222222222, 24.391805555555553], [89.47069444444445, 24.388194444444444], [89.46736111111112, 24.392638888888886], [89.48458333333333, 24.39847222222222], [89.48791666666666, 24.392638888888886], [89.48208333333334, 24.38847222222222], [89.49319444444444, 24.386805555555554], [89.48069444444445, 24.38097222222222], [89.48902777777778, 24.380138888888887], [89.4901388888889, 24.373194444444444], [89.49418307086614, 24.3795134787839], [89.48875, 24.381805555555555], [89.49625, 24.386527777777776], [89.48875, 24.389305555555556], [89.49375, 24.39763888888889], [89.48847222222223, 24.39986111111111], [89.5051388888889, 24.407083333333333], [89.50597222222223, 24.400972222222222], [89.51319444444445, 24.40375], [89.51306286549708, 24.408355263157894], [89.51736111111111, 24.405694444444443], [89.51541666666667, 24.40986111111111], [89.52736111111112, 24.411527777777778], [89.5201388888889, 24.402638888888887], [89.52486111111111, 24.39486111111111], [89.52263888888889, 24.400416666666665], [89.53236111111111, 24.40597222222222], [89.53208333333333, 24.41263888888889], [89.55097222222223, 24.410416666666666], [89.54125, 24.400138888888886], [89.54958333333333, 24.404027777777777], [89.55204797361621, 24.400666904664764], [89.54319444444445, 24.39708333333333], [89.54041666666667, 24.385416666666664], [89.54680555555557, 24.384027777777778], [89.55541666666667, 24.395138888888887], [89.55986111111112, 24.38347222222222], [89.56597222222223, 24.384027777777778], [89.55930555555555, 24.399583333333332], [89.55236111111111, 24.396805555555556], [89.55763888888889, 24.402916666666666], [89.55402777777778, 24.409027777777776], [89.56402777777778, 24.415138888888887], [89.55402777777778, 24.41597222222222], [89.56569444444445, 24.42236111111111], [89.55458333333334, 24.42347222222222], [89.56097222222222, 24.427083333333332], [89.55708333333334, 24.43347222222222], [89.56347222222223, 24.434305555555554], [89.56236111111112, 24.439027777777778], [89.55347222222223, 24.445416666666667], [89.55625, 24.450138888888887], [89.55037909286098, 24.449467928073], [89.55958333333334, 24.456249999999997], [89.55347222222223, 24.454583333333332], [89.54958333333333, 24.46125], [89.55597222222222, 24.470694444444444], [89.54684812953657, 24.467742532104968], [89.54847222222223, 24.466805555555553], [89.54900237273512, 24.44931058863004], [89.54652777777778, 24.449027777777776], [89.54190656565657, 24.470593434343428], [89.54663971807629, 24.4678627694859], [89.55097222222223, 24.476527777777775], [89.54458333333334, 24.472638888888888], [89.54513888888889, 24.478749999999998], [89.5326388888889, 24.48236111111111], [89.53930555555556, 24.489305555555553], [89.53375, 24.49597222222222], [89.54208333333334, 24.499305555555555], [89.52810284320724, 24.503338389245776], [89.53013888888889, 24.500138888888888], [89.51875, 24.498749999999998], [89.52625, 24.506249999999998], [89.5279194725028, 24.503626543209876], [89.53875000000001, 24.50958333333333], [89.53013888888889, 24.509305555555553], [89.52958333333333, 24.515138888888888], [89.5526388888889, 24.513749999999998], [89.54569444444445, 24.53847222222222], [89.55430555555556, 24.554305555555555], [89.56125, 24.544583333333332], [89.57625, 24.547638888888887], [89.56375, 24.54375], [89.56125, 24.536805555555553], [89.56541666666666, 24.530694444444443], [89.56958333333334, 24.52958333333333], [89.56652777777778, 24.53597222222222], [89.57986111111111, 24.53013888888889], [89.58041666666666, 24.517638888888886], [89.57513888888889, 24.515416666666667], [89.58069444444445, 24.50736111111111], [89.57208333333334, 24.49458333333333], [89.57875, 24.491249999999997], [89.57811585365853, 24.49600609756098], [89.59152777777778, 24.47958333333333], [89.58324572649573, 24.47188247863247], [89.58541666666667, 24.47513888888889], [89.57819444444445, 24.471805555555555], [89.58232921709738, 24.47103028568313], [89.57569444444445, 24.46486111111111], [89.58041666666666, 24.46708333333333], [89.57652777777778, 24.459305555555556], [89.5826388888889, 24.458194444444445], [89.59208333333333, 24.432916666666664], [89.58902777777779, 24.45236111111111], [89.59347222222223, 24.456805555555555], [89.59430555555556, 24.45097222222222], [89.59652777777778, 24.45875], [89.59958333333334, 24.454027777777778], [89.61041666666667, 24.456249999999997], [89.61069444444445, 24.44847222222222], [89.59902777777778, 24.441527777777775], [89.61152777777778, 24.447916666666664], [89.60647892428179, 24.437553230543315], [89.60125000000001, 24.43486111111111], [89.59236111111112, 24.42347222222222], [89.59259988584475, 24.42164161593101], [89.58541666666667, 24.399027777777775], [89.59263888888889, 24.40597222222222], [89.59286603721948, 24.419601122058054], [89.59569444444445, 24.397916666666664], [89.60125000000001, 24.395138888888887], [89.5976388888889, 24.410416666666666], [89.60569444444445, 24.395138888888887], [89.60875, 24.399583333333332], [89.60208333333334, 24.407638888888886], [89.61430555555556, 24.41125], [89.61180555555556, 24.41597222222222], [89.59708333333333, 24.413194444444443], [89.59791666666666, 24.420416666666664], [89.60375, 24.420972222222222], [89.59986111111111, 24.423194444444444], [89.60763888888889, 24.422916666666666], [89.60430555555556, 24.430138888888887], [89.61125, 24.42736111111111], [89.60986111111112, 24.41597222222222], [89.61319444444445, 24.429305555555555], [89.62152777777779, 24.429027777777776], [89.61720968364197, 24.424009452160494], [89.62458333333333, 24.42736111111111], [89.62986111111111, 24.412916666666664], [89.62875, 24.419305555555553], [89.63236111111111, 24.414583333333333], [89.63541666666667, 24.423194444444444], [89.64347222222223, 24.421527777777776], [89.63347222222222, 24.414027777777775], [89.63875, 24.416805555555555], [89.63680555555555, 24.40625], [89.61875, 24.415416666666665], [89.62486111111112, 24.422638888888887], [89.6151388888889, 24.416527777777777], [89.61536111111111, 24.421861111111117], [89.61125, 24.41708333333333], [89.62549169040837, 24.410682573599235], [89.61986111111112, 24.402638888888887], [89.62569444444445, 24.406527777777775], [89.63069444444444, 24.400416666666665], [89.63179558460138, 24.40784936272597], [89.63597222222222, 24.40597222222222], [89.63569444444445, 24.395416666666666], [89.63680555555555, 24.40513888888889], [89.64708333333334, 24.401527777777776], [89.63625, 24.392083333333332], [89.63234441498068, 24.38017129902442], [89.6276388888889, 24.389305555555556], [89.63319444444444, 24.388749999999998], [89.63208333333334, 24.399027777777775], [89.62041666666667, 24.39736111111111], [89.62652777777778, 24.396527777777777], [89.62152777777779, 24.38597222222222], [89.63233788853162, 24.380151393354765], [89.63069444444444, 24.375138888888888], [89.63955506192784, 24.364667250044878], [89.63625, 24.38097222222222], [89.64180555555556, 24.389027777777777], [89.64987847222223, 24.394409722222218], [89.64486111111111, 24.392638888888886], [89.64763888888889, 24.39847222222222], [89.65902777777778, 24.39763888888889], [89.65547635445363, 24.396385445362718], [89.65930555555556, 24.393194444444443], [89.65958333333333, 24.39847222222222], [89.66560468219312, 24.397704795406757], [89.65569444444445, 24.400138888888886], [89.66819444444445, 24.401805555555555], [89.65819444444445, 24.416249999999998], [89.66291666666667, 24.419583333333332], [89.66458333333334, 24.412916666666664], [89.66486111111111, 24.42013888888889], [89.66902777777779, 24.41847222222222], [89.67097222222222, 24.41375], [89.6726388888889, 24.422083333333333], [89.67791666666668, 24.422083333333333], [89.67708333333334, 24.409027777777776], [89.67819444444444, 24.415694444444444], [89.68097222222222, 24.41263888888889], [89.67190350877193, 24.396902003783968], [89.6738282688766, 24.396656691221608], [89.67791666666668, 24.400972222222222], [89.68791666666667, 24.395416666666666], [89.68152777777777, 24.396805555555556], [89.67712135224002, 24.396236984518428], [89.68791666666667, 24.39486111111111], [89.67819444444444, 24.390416666666667], [89.68208333333334, 24.38208333333333], [89.67652777777778, 24.374305555555555], [89.68289682539682, 24.373395691609975], [89.67902777777778, 24.376527777777778], [89.68347222222222, 24.38319444444444], [89.69291666666668, 24.376805555555553], [89.6901388888889, 24.382638888888888], [89.69875, 24.38597222222222], [89.70291666666667, 24.378194444444443], [89.69819444444445, 24.374027777777776], [89.70597222222223, 24.36958333333333], [89.69375000000001, 24.366527777777776], [89.69652777777777, 24.360694444444444], [89.70208333333333, 24.364305555555553], [89.71175387825814, 24.377291715883135], [89.71236111111111, 24.376527777777778], [89.70625, 24.365694444444443], [89.68819444444445, 24.355138888888888], [89.69680555555556, 24.352361111111108], [89.70541666666666, 24.35986111111111], [89.70347222222223, 24.352916666666665], [89.71069444444444, 24.372083333333332], [89.71208333333334, 24.36736111111111], [89.71986111111111, 24.37097222222222], [89.70167598912907, 24.34529910883581], [89.70236111111112, 24.350694444444443], [89.69625, 24.331527777777776], [89.69458333333334, 24.347638888888888], [89.6903410923015, 24.34523495230417], [89.6901388888889, 24.350694444444443], [89.68180555555556, 24.343194444444443], [89.67430555555556, 24.336805555555554], [89.67817004504505, 24.338338025525527], [89.67791666666668, 24.338194444444444], [89.6767058982684, 24.328992604617603], [89.67208333333333, 24.32736111111111], [89.66291666666667, 24.317638888888887], [89.65652777777778, 24.324305555555554], [89.65513888888889, 24.31736111111111], [89.67236111111112, 24.314305555555553], [89.67663710722384, 24.328469792678955], [89.67652777777778, 24.327638888888888], [89.68402777777779, 24.326805555555556], [89.67986111111111, 24.317638888888887], [89.68569444444445, 24.324583333333333], [89.69458333333334, 24.31736111111111], [89.67652777777778, 24.311527777777776], [89.67986111111111, 24.303749999999997], [89.68263888888889, 24.310694444444444], [89.68986111111111, 24.305138888888887], [89.67236111111112, 24.297916666666666], [89.67930555555556, 24.290138888888887], [89.66902777777779, 24.293194444444442], [89.68097222222222, 24.283749999999998], [89.66569444444444, 24.27958333333333], [89.67402777777778, 24.27375], [89.67236111111112, 24.27958333333333], [89.68097222222222, 24.27986111111111], [89.67569444444445, 24.26986111111111], [89.68208333333334, 24.277083333333334], [89.68597222222222, 24.27236111111111], [89.66930555555555, 24.264027777777777], [89.6601388888889, 24.25597222222222], [89.66375000000001, 24.245694444444442], [89.65597222222223, 24.248749999999998], [89.65236111111112, 24.242083333333333], [89.63791666666667, 24.241805555555555], [89.63541666666667, 24.235138888888887], [89.6426388888889, 24.241805555555555], [89.64763888888889, 24.234583333333333], [89.64958333333334, 24.240972222222222], [89.65152777777779, 24.221805555555555], [89.63902777777778, 24.215416666666666], [89.62958333333333, 24.220972222222223], [89.63680555555555, 24.22625], [89.63236111111111, 24.23486111111111], [89.6301388888889, 24.226805555555554], [89.62458333333333, 24.230416666666667], [89.62013888888889, 24.22486111111111], [89.62041666666667, 24.217916666666664], [89.62430555555555, 24.220416666666665], [89.63652777777779, 24.20736111111111], [89.63569444444445, 24.212638888888886], [89.64597222222223, 24.212916666666665], [89.64680555555556, 24.219305555555554], [89.64791666666667, 24.214583333333334], [89.65208333333334, 24.220972222222223], [89.65569444444445, 24.217916666666664], [89.65097222222222, 24.232916666666664], [89.66291666666667, 24.23847222222222], [89.65847222222223, 24.245416666666664], [89.66986111111112, 24.245694444444442], [89.67402777777778, 24.22958333333333], [89.67060982489394, 24.228858313024638], [89.66375000000001, 24.23763888888889], [89.65875, 24.234583333333333], [89.66569444444444, 24.234027777777776], [89.67059484285082, 24.228855135015493], [89.66486111111111, 24.227638888888887], [89.66569444444444, 24.21625], [89.66125000000001, 24.220138888888886], [89.66708333333334, 24.21486111111111], [89.66597222222222, 24.195416666666667], [89.66680555555556, 24.20875], [89.67347222222223, 24.205416666666665], [89.67430555555556, 24.212638888888886], [89.66819444444445, 24.211805555555554], [89.67180555555557, 24.222916666666666], [89.67958333333334, 24.230416666666667], [89.68347222222222, 24.225416666666664], [89.68013888888889, 24.234583333333333], [89.69680555555556, 24.23236111111111], [89.68875, 24.219305555555554], [89.67458333333333, 24.212916666666665], [89.68791666666667, 24.21597222222222], [89.68569444444445, 24.20875], [89.67625, 24.209305555555556], [89.67847222222223, 24.20375], [89.69180555555556, 24.20875], [89.69680555555556, 24.21986111111111], [89.69458333333334, 24.21125], [89.69847222222222, 24.22208333333333], [89.7051388888889, 24.21486111111111], [89.70375, 24.276249999999997], [89.70125, 24.270138888888887], [89.69291666666668, 24.270138888888887], [89.69680555555556, 24.262916666666666], [89.6876388888889, 24.25236111111111], [89.67958333333334, 24.25486111111111], [89.68152777777777, 24.266805555555553], [89.69625, 24.27486111111111], [89.69819444444445, 24.28736111111111], [89.70375, 24.278194444444445], [89.70097222222222, 24.289861111111108], [89.70736111111111, 24.28625], [89.70819444444444, 24.302083333333332], [89.70319444444445, 24.304583333333333], [89.70875000000001, 24.304027777777776], [89.71579333915068, 24.33884199700822], [89.70625, 24.34375], [89.71375, 24.339027777777776], [89.71263888888889, 24.32847222222222], [89.69791666666667, 24.315694444444443], [89.70162354085603, 24.344886078685697], [89.71375, 24.355694444444442], [89.71589454864072, 24.339342261058977], [89.71847222222223, 24.352083333333333], [89.72319444444445, 24.35347222222222], [89.72180555555556, 24.38236111111111], [89.71541666666667, 24.39125], [89.72847222222222, 24.393194444444443], [89.72208333333333, 24.38847222222222], [89.72902777777779, 24.388194444444444], [89.72430555555556, 24.38347222222222], [89.74263888888889, 24.392083333333332], [89.73902777777778, 24.384027777777778], [89.74875, 24.38347222222222], [89.75375, 24.39597222222222], [89.74736111111112, 24.41208333333333], [89.74208333333334, 24.40736111111111], [89.74486111111112, 24.400416666666665], [89.73069444444445, 24.39597222222222], [89.70652777777778, 24.394583333333333], [89.69971021581881, 24.4024497509783], [89.70097222222222, 24.40375], [89.70625, 24.396527777777777], [89.70986111111111, 24.40625], [89.71180555555556, 24.397916666666664], [89.70708333333333, 24.396805555555556], [89.71291666666667, 24.395416666666666], [89.71458333333334, 24.428194444444443], [89.71375, 24.400972222222222], [89.72180555555556, 24.411527777777778], [89.71819444444445, 24.416805555555555], [89.72736111111111, 24.414861111111108], [89.7201388888889, 24.42013888888889], [89.71597222222222, 24.43958333333333], [89.71208333333334, 24.43097222222222], [89.7201388888889, 24.46625], [89.71375, 24.479305555555555], [89.6876388888889, 24.48236111111111], [89.68875, 24.491805555555555], [89.67930555555556, 24.50708333333333], [89.68458333333334, 24.51486111111111], [89.68513888888889, 24.501805555555553], [89.6901388888889, 24.50875], [89.68236111111112, 24.54236111111111], [89.66902777777779, 24.555694444444445], [89.66319444444444, 24.58458333333333], [89.65768536745406, 24.591363735783027], [89.66597222222222, 24.590416666666666], [89.66236111111111, 24.607916666666664], [89.65152777777779, 24.606527777777778], [89.65542635658915, 24.594144056847544], [89.64875, 24.602361111111108], [89.65847222222223, 24.61958333333333], [89.65319444444445, 24.608472222222222], [89.66152777777778, 24.609027777777776], [89.66291666666667, 24.650694444444444], [89.65069444444444, 24.669583333333332], [89.63819444444445, 24.674305555555556], [89.63208333333334, 24.691805555555554], [89.63736111111112, 24.69597222222222], [89.65958333333333, 24.678472222222222], [89.66458333333334, 24.686527777777776], [89.66736111111112, 24.682916666666664], [89.66652777777779, 24.690416666666664], [89.65794270833334, 24.69261284722222], [89.66625, 24.69236111111111], [89.65541666666667, 24.745694444444442], [89.66652777777779, 24.74736111111111], [89.66597222222222, 24.75597222222222], [89.72319444444445, 24.734583333333333], [89.72375000000001, 24.761805555555554], [89.70680555555556, 24.770416666666666], [89.72125, 24.765416666666667], [89.70930555555556, 24.776527777777776], [89.69541666666667, 24.77958333333333], [89.71986111111111, 24.775972222222222], [89.73041666666667, 24.76597222222222], [89.73875, 24.742638888888887], [89.73180555555555, 24.719583333333333], [89.74347222222222, 24.69736111111111], [89.79430555555555, 24.675416666666667], [89.78736111111111, 24.677638888888886], [89.79291666666667, 24.67347222222222], [89.78236111111111, 24.671527777777776], [89.78458333333333, 24.626527777777778], [89.76347222222222, 24.645416666666666], [89.74375, 24.68097222222222], [89.71708333333333, 24.70875], [89.69819444444445, 24.68263888888889], [89.70180555555555, 24.674305555555556], [89.70736111111111, 24.69347222222222], [89.70430555555556, 24.675416666666667], [89.71486111111112, 24.62486111111111], [89.75152777777778, 24.59875], [89.73875, 24.579027777777778], [89.75736111111111, 24.56236111111111], [89.75875, 24.56958333333333], [89.76625, 24.540138888888887], [89.75180555555556, 24.53736111111111], [89.75569444444444, 24.554027777777776], [89.74513888888889, 24.567916666666665], [89.73569444444445, 24.56625], [89.74708333333334, 24.544027777777778], [89.71986111111111, 24.49986111111111], [89.72430555555556, 24.483472222222222], [89.73736111111111, 24.470138888888886], [89.73013888888889, 24.47847222222222], [89.74319444444444, 24.47236111111111], [89.73847222222223, 24.48625], [89.74958333333333, 24.480694444444442], [89.74930555555555, 24.472916666666666], [89.73819444444445, 24.46986111111111], [89.74236111111111, 24.455694444444443], [89.7551388888889, 24.455416666666665], [89.74597222222222, 24.42986111111111], [89.76597222222223, 24.37569444444444], [89.75736111111111, 24.365972222222222], [89.75347222222223, 24.381249999999998], [89.72347222222223, 24.375138888888888], [89.73236111111112, 24.364305555555553], [89.73375, 24.372916666666665], [89.73652777777778, 24.367083333333333], [89.74263888888889, 24.370416666666664], [89.73986111111111, 24.36486111111111], [89.74569444444445, 24.372083333333332], [89.74597222222222, 24.356805555555553], [89.74858952427502, 24.352956581948504], [89.74402777777777, 24.356805555555553], [89.74375, 24.341805555555553], [89.74597222222222, 24.350416666666664], [89.74597222222222, 24.34263888888889], [89.74736111111112, 24.34958333333333], [89.76541666666667, 24.339583333333334], [89.77208333333334, 24.32847222222222], [89.77402777777777, 24.301805555555553], [89.78708333333334, 24.28847222222222], [89.79041666666667, 24.262916666666666], [89.77569444444444, 24.236805555555556], [89.7826388888889, 24.24236111111111], [89.78013888888889, 24.229027777777777], [89.78486111111111, 24.22458333333333], [89.77819444444445, 24.219305555555554], [89.7851388888889, 24.22375], [89.79847222222223, 24.174305555555556], [89.78013888888889, 24.166249999999998], [89.78763888888889, 24.157916666666665], [89.7976388888889, 24.159305555555555], [89.79819444444445, 24.152916666666666], [89.80180555555556, 24.15986111111111], [89.80652777777777, 24.150138888888886], [89.8026388888889, 24.145694444444445], [89.79819444444445, 24.150972222222222], [89.78875000000001, 24.137361111111108], [89.79236111111112, 24.12125], [89.79180555555556, 24.134027777777778], [89.79986111111111, 24.13625], [89.78791666666667, 24.10986111111111], [89.80125, 24.104027777777777], [89.79347222222222, 24.115416666666665], [89.80069444444445, 24.11236111111111], [89.8026388888889, 24.11847222222222], [89.80680555555556, 24.113194444444442], [89.80520627876398, 24.121876232741617], [89.81180555555555, 24.117916666666666], [89.8151388888889, 24.129305555555554], [89.80125, 24.145416666666666], [89.81430555555556, 24.136805555555554], [89.82013888888889, 24.140694444444442], [89.81291666666667, 24.120416666666664], [89.81784420289856, 24.09865338164251], [89.81458333333333, 24.094305555555554], [89.81152777777778, 24.10013888888889], [89.81402777777778, 24.09236111111111], [89.81847222222223, 24.091805555555553], [89.81859413965088, 24.095341160986422], [89.81958333333334, 24.09097222222222], [89.82486111111112, 24.088749999999997], [89.82291666666667, 24.072916666666664], [89.79859698038086, 24.05171181704801], [89.79794009370816, 24.05488676929942], [89.80375000000001, 24.061249999999998], [89.79986111111111, 24.060138888888886], [89.7979350683491, 24.054911058534874], [89.79708333333333, 24.059027777777775], [89.79375, 24.05486111111111], [89.79822080291972, 24.051383819951333], [89.76652777777778, 24.02375], [89.74097222222223, 24.02208333333333], [89.72180555555556, 24.01347222222222], [89.70291666666667, 24.02375], [89.69875, 24.03847222222222], [89.68291666666667, 24.034305555555555], [89.68125, 24.062083333333334], [89.63736111111112, 24.086805555555554], [89.62958333333333, 24.08347222222222], [89.61652777777778, 24.096805555555555], [89.60458333333334, 24.096527777777776], [89.59013888888889, 24.107916666666664], [89.55930555555555, 24.11125], [89.55541666666667, 24.119027777777777], [89.56652777777778, 24.115694444444443], [89.56152777777778, 24.117638888888887], [89.56430555555556, 24.12236111111111], [89.55069444444445, 24.129583333333333], [89.54569444444445, 24.125416666666666], [89.55428119105362, 24.13483438875415], [89.53291666666667, 24.130138888888887], [89.52180555555556, 24.154305555555553], [89.52930555555555, 24.158749999999998], [89.52319444444444, 24.16847222222222], [89.53347222222223, 24.166527777777777], [89.5351388888889, 24.172916666666666], [89.5176388888889, 24.179027777777776], [89.51708333333333, 24.18875], [89.52513888888889, 24.19125], [89.52236111111111, 24.19736111111111], [89.51041666666667, 24.199583333333333], [89.50208333333333, 24.21708333333333], [89.48930555555556, 24.21708333333333], [89.48597222222223, 24.20375], [89.46930555555556, 24.20097222222222], [89.47125, 24.212916666666665], [89.46152777777777, 24.22458333333333], [89.47375000000001, 24.219305555555554], [89.47819444444444, 24.22958333333333], [89.47152777777778, 24.234583333333333], [89.45430555555556, 24.227638888888887], [89.44652777777777, 24.23125], [89.45652777777778, 24.233749999999997], [89.46319444444444, 24.250138888888888], [89.46097222222222, 24.261805555555554], [89.45236111111112, 24.266805555555553], [89.4401388888889, 24.260694444444443], [89.43930555555556, 24.25236111111111], [89.42458333333333, 24.250416666666666], [89.42930555555556, 24.26736111111111], [89.41763888888889, 24.292916666666667], [89.41902777777779, 24.304583333333333], [89.42541666666666, 24.306805555555552], [89.41875, 24.324305555555554], [89.40013888888889, 24.321527777777778], [89.39986111111111, 24.33597222222222], [89.39152777777778, 24.33486111111111], [89.38263888888889, 24.343194444444443], [89.3751388888889, 24.338194444444444], [89.37819444444445, 24.34819444444444], [89.36625000000001, 24.353749999999998], [89.35347222222222, 24.34819444444444], [89.32152777777777, 24.350694444444443], [89.32152777777777, 24.355694444444442], [89.3151388888889, 24.351805555555554], [89.31736111111111, 24.372638888888886], [89.31375, 24.367638888888887], [89.30930555555555, 24.377916666666664], [89.32206491583905, 24.369819380332913], [89.32180555555556, 24.37236111111111], [89.30486111111111, 24.384027777777778], [89.30569444444444, 24.39097222222222], [89.29501381978992, 24.37977059148699], [89.29902777777778, 24.382916666666667], [89.29597222222222, 24.37763888888889], [89.30847222222222, 24.375138888888888], [89.31402777777778, 24.366527777777776], [89.31291666666667, 24.35125], [89.31122619047619, 24.359138888888904], [89.31097222222222, 24.35736111111111], [89.29041666666667, 24.369027777777777], [89.30097222222223, 24.369027777777777], [89.3101682194617, 24.364076086956516], [89.30791666666667, 24.374583333333334], [89.28875000000001, 24.37486111111111], [89.29406609195402, 24.379027777777775]], [[89.68491319444445, 24.373107638888886], [89.69402777777778, 24.371805555555554], [89.70013888888889, 24.37708333333333], [89.69041666666666, 24.37236111111111], [89.68513888888889, 24.37875], [89.68491319444445, 24.373107638888886]], [[89.63973939929329, 24.36375785237533], [89.63652777777779, 24.349305555555553], [89.64569444444444, 24.34847222222222], [89.64097222222223, 24.356805555555553], [89.64463496020953, 24.361612899163894], [89.64041666666667, 24.360416666666666], [89.63973939929329, 24.36375785237533]], [[89.64581925174907, 24.36194874303332], [89.64930555555556, 24.35597222222222], [89.66708333333334, 24.354305555555555], [89.66541666666667, 24.342916666666664], [89.67152777777778, 24.34958333333333], [89.67458333333333, 24.345416666666665], [89.66319444444444, 24.331527777777776], [89.67541666666666, 24.34263888888889], [89.67986111111111, 24.35736111111111], [89.65902777777778, 24.365694444444443], [89.64581925174907, 24.36194874303332]], [[89.50009502923976, 24.37701937134503], [89.49152777777778, 24.367916666666666], [89.49625, 24.366249999999997], [89.50158684761479, 24.376390010468068], [89.50009502923976, 24.37701937134503]], [[89.55433369834317, 24.13484592881779], [89.57541666666667, 24.123472222222222], [89.57986111111111, 24.128194444444443], [89.55819444444445, 24.135694444444443], [89.55433369834317, 24.13484592881779]], [[89.79152777777779, 24.054583333333333], [89.80152777777778, 24.06736111111111], [89.79430555555555, 24.074027777777776], [89.80347222222223, 24.080138888888886], [89.8026388888889, 24.08625], [89.79097222222222, 24.084027777777777], [89.79513888888889, 24.07875], [89.78819444444444, 24.064027777777778], [89.79708333333333, 24.066527777777775], [89.79152777777779, 24.054583333333333]], [[89.79125, 24.090416666666666], [89.79069444444444, 24.08458333333333], [89.79319444444445, 24.103194444444444], [89.78736111111111, 24.104305555555555], [89.79125, 24.090416666666666]], [[89.78736111111111, 24.199861111111108], [89.79069444444444, 24.196805555555553], [89.78569444444445, 24.204027777777778], [89.78736111111111, 24.199861111111108]], [[89.78152777777778, 24.649027777777775], [89.77902777777778, 24.66208333333333], [89.76347222222222, 24.664583333333333], [89.78291666666667, 24.638749999999998], [89.78152777777778, 24.649027777777775]], [[89.76513888888888, 24.666805555555555], [89.77819444444445, 24.669305555555553], [89.7551388888889, 24.678472222222222], [89.76513888888888, 24.666805555555555]], [[89.74847222222222, 24.288194444444443], [89.74597222222222, 24.28125], [89.75902777777777, 24.300416666666667], [89.74847222222222, 24.288194444444443]], [[89.75458333333333, 24.385694444444443], [89.75791666666667, 24.38319444444444], [89.75486111111111, 24.389305555555556], [89.75041666666667, 24.38097222222222], [89.75458333333333, 24.385694444444443]], [[89.74652777777779, 24.338194444444444], [89.74541666666667, 24.321527777777778], [89.75180555555556, 24.325138888888887], [89.75097222222223, 24.31736111111111], [89.75347222222223, 24.33513888888889], [89.75069444444445, 24.325694444444444], [89.74736111111112, 24.342916666666664], [89.74652777777779, 24.338194444444444]], [[89.74541666666667, 24.197916666666664], [89.7501388888889, 24.196527777777778], [89.75069444444445, 24.20236111111111], [89.73875, 24.19763888888889], [89.74541666666667, 24.197916666666664]], [[89.74097222222223, 24.300416666666667], [89.75041666666667, 24.303194444444443], [89.73625, 24.303472222222222], [89.73652777777778, 24.298194444444444], [89.74097222222223, 24.300416666666667]], [[89.73736111111111, 24.589305555555555], [89.74597222222222, 24.60013888888889], [89.71097222222222, 24.622916666666665], [89.71041666666667, 24.60458333333333], [89.73041666666667, 24.59375], [89.72791666666667, 24.601805555555554], [89.73652777777778, 24.586527777777775], [89.73458333333333, 24.59819444444444], [89.73736111111111, 24.589305555555555]], [[89.74208333333334, 24.357916666666664], [89.74291666666667, 24.365416666666665], [89.73708333333333, 24.362916666666667], [89.74208333333334, 24.357916666666664]], [[89.74125000000001, 24.567916666666665], [89.73541666666667, 24.58597222222222], [89.72930555555556, 24.57125], [89.74125000000001, 24.567916666666665]], [[89.7401388888889, 24.31375], [89.73458333333333, 24.335694444444442], [89.7351388888889, 24.312083333333334], [89.7401388888889, 24.31375]], [[89.73430555555557, 24.43486111111111], [89.73902777777778, 24.434305555555554], [89.73569444444445, 24.43958333333333], [89.73430555555557, 24.43486111111111]], [[89.72430555555556, 24.33625], [89.73736111111111, 24.34375], [89.72847222222222, 24.349027777777778], [89.72430555555556, 24.33625]], [[89.7351388888889, 24.131527777777777], [89.73680555555556, 24.137361111111108], [89.73291666666667, 24.12708333333333], [89.7351388888889, 24.131527777777777]], [[89.73236111111112, 24.747083333333332], [89.73152777777779, 24.733194444444443], [89.73597222222223, 24.740416666666665], [89.73236111111112, 24.747083333333332]], [[89.72875, 24.132916666666667], [89.73541666666667, 24.144305555555555], [89.72875, 24.141527777777778], [89.72875, 24.132916666666667]], [[89.7277983119907, 24.269687459578318], [89.7319062962963, 24.273648730158726], [89.73125, 24.281805555555554], [89.7201388888889, 24.274027777777775], [89.72513888888889, 24.273194444444442], [89.72402777777778, 24.256527777777777], [89.72875, 24.26013888888889], [89.72625000000001, 24.246805555555554], [89.73319444444445, 24.257638888888888], [89.73257450023246, 24.26534390980939], [89.73125, 24.26125], [89.7277983119907, 24.269687459578318]], [[89.73152777777779, 24.589027777777776], [89.71680555555555, 24.594305555555554], [89.72569444444444, 24.575694444444444], [89.73152777777779, 24.589027777777776]], [[89.72763888888889, 24.314305555555553], [89.72986111111112, 24.32875], [89.72402777777778, 24.31958333333333], [89.72763888888889, 24.314305555555553]], [[89.72208333333333, 24.72458333333333], [89.7201388888889, 24.712638888888886], [89.72680555555556, 24.70847222222222], [89.72208333333333, 24.72458333333333]], [[89.72513888888889, 24.304027777777776], [89.72652777777778, 24.309305555555554], [89.72402777777778, 24.30013888888889], [89.72513888888889, 24.304027777777776]], [[89.72144784172662, 24.33166566746602], [89.72375000000001, 24.326805555555556], [89.7226388888889, 24.33375], [89.72144784172662, 24.33166566746602]], [[89.72180555555556, 24.29375], [89.7201388888889, 24.289583333333333], [89.72347222222223, 24.297638888888887], [89.72180555555556, 24.29375]], [[89.71347222222222, 24.25236111111111], [89.71625, 24.256527777777777], [89.7201388888889, 24.25236111111111], [89.71180555555556, 24.262083333333333], [89.71347222222222, 24.25236111111111]], [[89.71263888888889, 24.551527777777775], [89.71847222222223, 24.544305555555553], [89.71986111111111, 24.556805555555552], [89.71263888888889, 24.551527777777775]], [[89.70541666666666, 24.60597222222222], [89.7056740560034, 24.59670620610003], [89.70013888888889, 24.60125], [89.69930555555555, 24.635694444444443], [89.69402777777778, 24.637638888888887], [89.69236111111111, 24.60625], [89.7051388888889, 24.588749999999997], [89.71708333333333, 24.580138888888886], [89.71875, 24.58597222222222], [89.70723341368227, 24.59542613636364], [89.71430555555555, 24.592916666666664], [89.70541666666666, 24.60597222222222]], [[89.71625, 24.28875], [89.71847222222223, 24.295416666666664], [89.71208333333334, 24.282638888888886], [89.71625, 24.28875]], [[89.70902777777778, 24.54958333333333], [89.7125766283525, 24.563505747126438], [89.70819444444444, 24.56847222222222], [89.70847222222223, 24.545416666666664], [89.70902777777778, 24.54958333333333]], [[89.71264979471388, 24.563422825250193], [89.71291666666667, 24.555416666666666], [89.71652777777778, 24.559027777777775], [89.71264979471388, 24.563422825250193]], [[89.69180555555556, 24.69597222222222], [89.69430555555556, 24.685972222222222], [89.69930555555555, 24.704027777777778], [89.69402777777778, 24.709305555555556], [89.69569444444444, 24.728749999999998], [89.70097222222222, 24.703194444444442], [89.70902777777778, 24.71486111111111], [89.70486111111111, 24.727083333333333], [89.71319444444444, 24.721527777777776], [89.71263888888889, 24.72597222222222], [89.70347222222223, 24.73486111111111], [89.67819444444444, 24.73625], [89.69180555555556, 24.69597222222222]], [[89.70986111111111, 24.625138888888888], [89.70069444444445, 24.621527777777775], [89.70875000000001, 24.606527777777778], [89.70986111111111, 24.625138888888888]], [[89.70208333333333, 24.62875], [89.70875000000001, 24.62875], [89.70819444444444, 24.637361111111108], [89.70208333333333, 24.62875]], [[89.70291666666667, 24.554583333333333], [89.70347222222223, 24.57347222222222], [89.69819444444445, 24.56486111111111], [89.70291666666667, 24.554583333333333]], [[89.69680555555556, 24.497083333333332], [89.70263888888888, 24.48263888888889], [89.70069444444445, 24.499583333333334], [89.6926388888889, 24.50986111111111], [89.69680555555556, 24.497083333333332]], [[89.70236111111112, 24.652083333333334], [89.69791666666667, 24.664583333333333], [89.69069444444445, 24.64597222222222], [89.69375000000001, 24.63958333333333], [89.70069444444445, 24.639027777777777], [89.70236111111112, 24.652083333333334]], [[89.68986111111111, 24.540694444444444], [89.70013888888889, 24.522916666666664], [89.69652777777777, 24.542916666666667], [89.68986111111111, 24.540694444444444]], [[89.68986111111111, 24.20347222222222], [89.68541666666667, 24.199027777777776], [89.69152777777778, 24.195416666666667], [89.69569444444444, 24.205972222222222], [89.68986111111111, 24.20347222222222]], [[89.67291666666667, 24.19125], [89.67069444444445, 24.186249999999998], [89.67875000000001, 24.190694444444443], [89.69236111111111, 24.171527777777776], [89.68680555555555, 24.190416666666664], [89.68513888888889, 24.186249999999998], [89.68513888888889, 24.192083333333333], [89.67291666666667, 24.19125]], [[89.69208333333333, 24.361527777777777], [89.67486111111111, 24.365694444444443], [89.68625, 24.357083333333332], [89.69208333333333, 24.361527777777777]], [[89.68652777777778, 24.50125], [89.69041666666666, 24.491805555555555], [89.69069444444445, 24.50736111111111], [89.68652777777778, 24.50125]], [[89.69041666666666, 24.585416666666664], [89.68680555555555, 24.59375], [89.67708333333334, 24.596249999999998], [89.68263888888889, 24.581527777777776], [89.68319444444445, 24.586805555555554], [89.69041666666666, 24.585416666666664]], [[89.68069444444444, 24.560138888888886], [89.68819444444445, 24.548194444444444], [89.68958333333333, 24.554583333333333], [89.68069444444444, 24.560138888888886]], [[89.68402777777779, 24.70986111111111], [89.68013888888889, 24.715416666666666], [89.68013888888889, 24.707638888888887], [89.68402777777779, 24.70986111111111]], [[89.68291666666667, 24.615138888888886], [89.68236111111112, 24.646527777777777], [89.67652777777778, 24.630138888888887], [89.68291666666667, 24.615138888888886]], [[89.6726388888889, 24.63625], [89.67347222222223, 24.629583333333333], [89.6776388888889, 24.645416666666666], [89.6726388888889, 24.63625]], [[89.6614620285423, 24.1698249235474], [89.65236111111112, 24.167916666666667], [89.65125, 24.16097222222222], [89.65375, 24.167916666666667], [89.65958333333333, 24.167638888888888], [89.66041666666666, 24.160416666666666], [89.6614620285423, 24.1698249235474]], [[89.66428418803419, 24.170416666666664], [89.67736111111111, 24.170416666666664], [89.66958333333334, 24.171527777777776], [89.66428418803419, 24.170416666666664]], [[89.66513888888889, 24.114027777777775], [89.67597222222223, 24.152638888888887], [89.65375, 24.135694444444443], [89.66875, 24.138749999999998], [89.66041666666666, 24.119305555555552], [89.66513888888889, 24.114027777777775]], [[89.65319444444445, 24.38958333333333], [89.64125, 24.382916666666667], [89.63819444444445, 24.371805555555554], [89.64625000000001, 24.37013888888889], [89.6451388888889, 24.37986111111111], [89.65541666666667, 24.387638888888887], [89.65875, 24.376527777777778], [89.66208333333334, 24.387638888888887], [89.67597222222223, 24.379305555555554], [89.67152777777778, 24.393749999999997], [89.65319444444445, 24.38958333333333]], [[89.67319444444445, 24.089583333333334], [89.66625, 24.080694444444443], [89.66319444444444, 24.089583333333334], [89.66263888888889, 24.07347222222222], [89.67319444444445, 24.089583333333334]], [[89.66847222222222, 24.367916666666666], [89.67319444444445, 24.367083333333333], [89.67319444444445, 24.374305555555555], [89.6601388888889, 24.37597222222222], [89.66847222222222, 24.367916666666666]], [[89.66486111111111, 24.303194444444443], [89.67180555555557, 24.29958333333333], [89.67041666666667, 24.310694444444444], [89.66486111111111, 24.303194444444443]], [[89.66375000000001, 24.272916666666664], [89.66319444444444, 24.267916666666665], [89.66541666666667, 24.27263888888889], [89.67097222222222, 24.269027777777776], [89.65958333333333, 24.281527777777775], [89.66375000000001, 24.272916666666664]], [[89.66569444444444, 24.283749999999998], [89.67069444444445, 24.28847222222222], [89.66708333333334, 24.291805555555555], [89.66569444444444, 24.283749999999998]], [[89.66541666666667, 24.18958333333333], [89.66875, 24.193749999999998], [89.65819444444445, 24.192916666666665], [89.66541666666667, 24.18958333333333]], [[89.66736111111112, 24.679027777777776], [89.66180555555556, 24.67736111111111], [89.66819444444445, 24.67236111111111], [89.66736111111112, 24.679027777777776]], [[89.65652777777778, 24.34486111111111], [89.65569444444445, 24.338749999999997], [89.66486111111111, 24.346249999999998], [89.65875, 24.34986111111111], [89.65652777777778, 24.34486111111111]], [[89.65836512717537, 24.296741967871483], [89.66069444444445, 24.29208333333333], [89.66152777777778, 24.297916666666666], [89.65836512717537, 24.296741967871483]], [[89.65347222222222, 24.211527777777775], [89.64902777777777, 24.211527777777775], [89.64958333333334, 24.200694444444444], [89.65902777777778, 24.19347222222222], [89.65347222222222, 24.211527777777775]], [[89.65402777777778, 24.153194444444445], [89.64708333333334, 24.150694444444444], [89.65847222222223, 24.152083333333334], [89.65402777777778, 24.153194444444445]], [[89.65208333333334, 24.094583333333333], [89.65736111111111, 24.092916666666664], [89.65097222222222, 24.099305555555553], [89.65208333333334, 24.094583333333333]], [[89.65347222222222, 24.135416666666664], [89.65013888888889, 24.130416666666665], [89.65597222222223, 24.131527777777777], [89.65347222222222, 24.135416666666664]], [[89.64597222222223, 24.150694444444444], [89.65291666666667, 24.158194444444444], [89.6426388888889, 24.15486111111111], [89.64597222222223, 24.150694444444444]], [[89.65263888888889, 24.297638888888887], [89.64569444444444, 24.30097222222222], [89.64680555555556, 24.28847222222222], [89.65263888888889, 24.297638888888887]], [[89.64791666666667, 24.339305555555555], [89.65263888888889, 24.340694444444445], [89.64791666666667, 24.349027777777778], [89.64791666666667, 24.339305555555555]], [[89.65180555555555, 24.326249999999998], [89.64375, 24.31986111111111], [89.64597222222223, 24.31347222222222], [89.65180555555555, 24.326249999999998]], [[89.64680555555556, 24.162916666666664], [89.65125, 24.15986111111111], [89.64819444444444, 24.166805555555555], [89.64680555555556, 24.162916666666664]], [[89.64736111111111, 24.26597222222222], [89.64819444444444, 24.27097222222222], [89.64152777777778, 24.267638888888886], [89.64347222222223, 24.26097222222222], [89.64986111111111, 24.262083333333333], [89.64736111111111, 24.26597222222222]], [[89.64236111111111, 24.30625], [89.64958333333334, 24.302638888888886], [89.64569444444444, 24.31347222222222], [89.64236111111111, 24.30625]], [[89.64930555555556, 24.256527777777777], [89.64125, 24.257638888888888], [89.64847222222222, 24.25208333333333], [89.64930555555556, 24.256527777777777]], [[89.61708333333334, 24.16069444444444], [89.63513888888889, 24.164583333333333], [89.63263888888889, 24.158194444444444], [89.64236111111111, 24.154305555555553], [89.63652777777779, 24.162916666666664], [89.64541666666666, 24.16597222222222], [89.60847222222222, 24.17236111111111], [89.60541666666667, 24.164305555555554], [89.60930555555557, 24.167638888888888], [89.61291666666666, 24.158472222222223], [89.61097222222223, 24.164583333333333], [89.61652777777778, 24.165694444444444], [89.61708333333334, 24.16069444444444]], [[89.64198361823362, 24.145361467236466], [89.6348611111111, 24.145138888888887], [89.63847222222222, 24.14097222222222], [89.64198361823362, 24.145361467236466]], [[89.63763888888889, 24.28125], [89.63902777777778, 24.276249999999997], [89.64486111111111, 24.292916666666667], [89.63763888888889, 24.28125]], [[89.63736111111112, 24.332638888888887], [89.63875, 24.32708333333333], [89.64486111111111, 24.33347222222222], [89.63763888888889, 24.338749999999997], [89.63736111111112, 24.332638888888887]], [[89.63791666666667, 24.117083333333333], [89.64430555555556, 24.12097222222222], [89.6426388888889, 24.126805555555553], [89.63791666666667, 24.117083333333333]], [[89.64347222222223, 24.300416666666667], [89.64208333333333, 24.305138888888887], [89.63652777777779, 24.296805555555554], [89.64347222222223, 24.300416666666667]], [[89.63674479166667, 24.189522569444446], [89.63263888888889, 24.185416666666665], [89.64152777777778, 24.178194444444443], [89.63674479166667, 24.189522569444446]], [[89.63625, 24.30847222222222], [89.64152777777778, 24.312083333333334], [89.63236111111111, 24.31597222222222], [89.63625, 24.30847222222222]], [[89.63541666666667, 24.34347222222222], [89.63902777777778, 24.339027777777776], [89.64152777777778, 24.345138888888886], [89.63541666666667, 24.34347222222222]], [[89.63208333333334, 24.241249999999997], [89.63847222222222, 24.24625], [89.63680555555555, 24.252916666666664], [89.63208333333334, 24.241249999999997]], [[89.63319444444444, 24.201249999999998], [89.62597222222223, 24.200138888888887], [89.62902777777778, 24.194305555555555], [89.63236111111111, 24.200694444444444], [89.63819444444445, 24.19847222222222], [89.63319444444444, 24.201249999999998]], [[89.62069444444445, 24.32347222222222], [89.62486111111112, 24.326805555555556], [89.62791666666666, 24.317083333333333], [89.63319444444444, 24.324583333333333], [89.62652777777778, 24.331805555555555], [89.6151388888889, 24.328194444444442], [89.62069444444445, 24.32347222222222]], [[89.62486111111112, 24.344305555555554], [89.62625, 24.359027777777776], [89.63263888888889, 24.36125], [89.62458333333333, 24.365138888888886], [89.62041666666667, 24.345694444444444], [89.62486111111112, 24.344305555555554]], [[89.62569444444445, 24.259305555555553], [89.62180555555555, 24.247083333333332], [89.63125000000001, 24.260416666666664], [89.62930555555556, 24.268194444444443], [89.62569444444445, 24.259305555555553]], [[89.62736111111111, 24.290416666666665], [89.6301388888889, 24.28625], [89.62597222222223, 24.30236111111111], [89.62736111111111, 24.290416666666665]], [[89.61791666666667, 24.332083333333333], [89.6276388888889, 24.335694444444442], [89.61180555555556, 24.331805555555555], [89.61791666666667, 24.332083333333333]], [[89.62097222222222, 24.18208333333333], [89.62680555555556, 24.184027777777775], [89.61430555555556, 24.18208333333333], [89.62097222222222, 24.18208333333333]], [[89.62291666666667, 24.316527777777775], [89.62013888888889, 24.305694444444445], [89.62597222222223, 24.302638888888886], [89.62291666666667, 24.316527777777775]], [[89.59569444444445, 24.35986111111111], [89.60069444444444, 24.366527777777776], [89.60930555555557, 24.362916666666667], [89.61041666666667, 24.37013888888889], [89.61569444444444, 24.36208333333333], [89.61256450094162, 24.37251647834276], [89.6101388888889, 24.375416666666666], [89.59430555555556, 24.36486111111111], [89.59569444444445, 24.35986111111111]], [[89.62002728991341, 24.363593578485172], [89.62041666666667, 24.355416666666667], [89.62291666666667, 24.360138888888887], [89.62002728991341, 24.363593578485172]], [[89.61458333333334, 24.291527777777777], [89.62125, 24.29097222222222], [89.61902777777777, 24.29875], [89.61458333333334, 24.291527777777777]], [[89.61208333333333, 24.337638888888886], [89.62125, 24.33986111111111], [89.60430555555556, 24.34236111111111], [89.61236111111111, 24.34958333333333], [89.60930555555557, 24.352916666666665], [89.59625, 24.349305555555553], [89.60402777777779, 24.347916666666666], [89.59902777777778, 24.337638888888886], [89.61208333333333, 24.337638888888886]], [[89.6151388888889, 24.31319444444444], [89.61930555555556, 24.315416666666664], [89.60958333333333, 24.31375], [89.6151388888889, 24.31319444444444]], [[89.61208333333333, 24.15513888888889], [89.61152777777778, 24.149305555555554], [89.61736111111111, 24.151805555555555], [89.61208333333333, 24.15513888888889]], [[89.61458333333334, 24.212083333333332], [89.61708333333334, 24.221527777777776], [89.61041666666667, 24.21763888888889], [89.61458333333334, 24.212083333333332]], [[89.60458333333334, 24.330416666666665], [89.60208333333334, 24.319027777777777], [89.60652777777779, 24.314305555555553], [89.61597222222223, 24.317916666666665], [89.61152777777778, 24.332083333333333], [89.60458333333334, 24.330416666666665]], [[89.61152777777778, 24.195416666666667], [89.61458333333334, 24.200416666666666], [89.60736111111112, 24.202638888888888], [89.61152777777778, 24.195416666666667]], [[89.60013888888889, 24.28708333333333], [89.61152777777778, 24.291249999999998], [89.60041666666667, 24.288194444444443], [89.59791666666666, 24.292916666666667], [89.60311, 24.302483333333335], [89.60819444444445, 24.299305555555556], [89.60819444444445, 24.30597222222222], [89.6041884653712, 24.304469980069754], [89.60847222222222, 24.31236111111111], [89.60230431639818, 24.303763424204874], [89.60152777777778, 24.303472222222222], [89.6019196893892, 24.303227277465083], [89.59013888888889, 24.286805555555553], [89.60013888888889, 24.28708333333333]], [[89.60708333333334, 24.17986111111111], [89.60847222222222, 24.17597222222222], [89.61125, 24.18097222222222], [89.60708333333334, 24.17986111111111]], [[89.60430555555556, 24.257638888888888], [89.60458333333334, 24.25236111111111], [89.61125, 24.255416666666665], [89.60847222222222, 24.26097222222222], [89.60430555555556, 24.257638888888888]], [[89.61097222222223, 24.225416666666664], [89.60958333333333, 24.229305555555555], [89.60486111111112, 24.22208333333333], [89.61097222222223, 24.225416666666664]], [[89.60319444444444, 24.14125], [89.60986111111112, 24.143749999999997], [89.60763888888889, 24.15375], [89.60180555555556, 24.149305555555554], [89.60319444444444, 24.14125]], [[89.60763888888889, 24.244027777777774], [89.60763888888889, 24.246527777777775], [89.60263888888889, 24.243194444444445], [89.60763888888889, 24.244027777777774]], [[89.60597222222222, 24.265694444444442], [89.60930555555557, 24.270694444444445], [89.60069444444444, 24.280694444444443], [89.60597222222222, 24.265694444444442]], [[89.60763888888889, 24.421805555555554], [89.60097222222223, 24.41736111111111], [89.60902777777778, 24.415694444444444], [89.60763888888889, 24.421805555555554]], [[89.60236111111111, 24.22958333333333], [89.60347222222222, 24.225416666666664], [89.60902777777778, 24.231805555555553], [89.60236111111111, 24.22958333333333]], [[89.60097222222223, 24.15597222222222], [89.60763888888889, 24.156805555555554], [89.60402777777779, 24.164583333333333], [89.60097222222223, 24.15597222222222]], [[89.56847222222223, 24.410138888888888], [89.57763888888888, 24.400416666666665], [89.56930555555556, 24.40347222222222], [89.56680555555556, 24.399027777777775], [89.57625, 24.39847222222222], [89.57041666666667, 24.39486111111111], [89.57708333333333, 24.393472222222222], [89.56402777777778, 24.377916666666664], [89.57652777777778, 24.380138888888887], [89.57569444444445, 24.38847222222222], [89.58125, 24.387361111111108], [89.58430555555556, 24.379583333333333], [89.57458333333334, 24.37125], [89.58625, 24.372638888888886], [89.58347222222223, 24.364583333333332], [89.57680555555555, 24.36486111111111], [89.58180555555556, 24.361527777777777], [89.59152777777778, 24.372638888888886], [89.59152777777778, 24.387083333333333], [89.59819444444445, 24.385416666666664], [89.59930555555556, 24.373194444444444], [89.60486111111112, 24.388749999999998], [89.57819444444445, 24.394305555555555], [89.57763888888888, 24.40486111111111], [89.56847222222223, 24.410138888888888]], [[89.58180555555556, 24.17013888888889], [89.57708333333333, 24.16986111111111], [89.58347222222223, 24.169583333333332], [89.58069444444445, 24.15986111111111], [89.59236111111112, 24.162916666666664], [89.58402777777778, 24.167916666666667], [89.58902777777779, 24.173194444444444], [89.59347222222223, 24.164027777777775], [89.59736111111111, 24.172638888888887], [89.60208333333334, 24.170694444444443], [89.59819444444445, 24.166527777777777], [89.60430555555556, 24.17013888888889], [89.59986111111111, 24.20236111111111], [89.59208333333333, 24.196527777777778], [89.59708333333333, 24.18958333333333], [89.59097222222222, 24.18847222222222], [89.59236111111112, 24.179305555555555], [89.58180555555556, 24.17013888888889]], [[89.59569444444445, 24.214305555555555], [89.60347222222222, 24.202916666666667], [89.59902777777778, 24.224027777777778], [89.59569444444445, 24.214305555555555]], [[89.59569444444445, 24.22847222222222], [89.59986111111111, 24.228749999999998], [89.59097222222222, 24.230694444444442], [89.59569444444445, 24.22847222222222]], [[89.58875, 24.11986111111111], [89.59680555555556, 24.10597222222222], [89.58763888888889, 24.127916666666664], [89.5801388888889, 24.130694444444444], [89.58875, 24.11986111111111]], [[89.59569444444445, 24.31958333333333], [89.59375, 24.32597222222222], [89.59208333333333, 24.312638888888888], [89.59569444444445, 24.31958333333333]], [[89.58875, 24.221805555555555], [89.58541666666667, 24.225416666666664], [89.58486111111111, 24.21625], [89.59486111111111, 24.221527777777776], [89.58875, 24.221805555555555]], [[89.58486111111111, 24.358194444444443], [89.59347222222223, 24.364305555555553], [89.58347222222223, 24.360416666666666], [89.58736111111111, 24.352083333333333], [89.58486111111111, 24.358194444444443]], [[89.59097222222222, 24.296805555555554], [89.59319444444445, 24.293194444444442], [89.59291666666667, 24.29958333333333], [89.58430555555556, 24.295416666666664], [89.58680555555556, 24.291805555555555], [89.59097222222222, 24.296805555555554]], [[89.58402777777778, 24.248472222222222], [89.58930555555555, 24.248194444444444], [89.58347222222223, 24.262361111111108], [89.58812253243092, 24.26537013536379], [89.58625, 24.269583333333333], [89.58236111111111, 24.261805555555554], [89.57986111111111, 24.239583333333332], [89.58402777777778, 24.248472222222222]], [[89.51736111111111, 24.285138888888888], [89.52319444444444, 24.290138888888887], [89.52902777777778, 24.28486111111111], [89.52486111111111, 24.290694444444444], [89.53152777777778, 24.29097222222222], [89.53402105282822, 24.30371562803556], [89.52569444444444, 24.29736111111111], [89.52958333333333, 24.293194444444442], [89.52375, 24.297083333333333], [89.52196178274201, 24.293740144546643], [89.52069444444444, 24.29736111111111], [89.5176388888889, 24.292638888888888], [89.52106712139187, 24.292067516805062], [89.51736111111111, 24.285138888888888]], [[89.53404843707895, 24.303736526542707], [89.54041666666667, 24.29958333333333], [89.55125, 24.30625], [89.55125, 24.300694444444442], [89.55625, 24.306527777777777], [89.54791666666667, 24.294027777777778], [89.55791666666667, 24.299305555555556], [89.56652777777778, 24.291805555555555], [89.55763888888889, 24.296805555555554], [89.54986111111111, 24.28847222222222], [89.56041666666667, 24.29097222222222], [89.55958333333334, 24.285138888888888], [89.57375, 24.28458333333333], [89.56736111111111, 24.276249999999997], [89.56097222222222, 24.280694444444443], [89.56291666666667, 24.270416666666666], [89.55291666666668, 24.271527777777777], [89.55819444444445, 24.263194444444444], [89.56708333333333, 24.267916666666665], [89.56819444444444, 24.262638888888887], [89.55763888888889, 24.261527777777776], [89.56958333333334, 24.26125], [89.56486111111111, 24.255416666666665], [89.57263888888889, 24.25208333333333], [89.56597222222223, 24.244027777777777], [89.5608341854124, 24.246653885480576], [89.55347222222223, 24.23708333333333], [89.5626388888889, 24.24375], [89.57458333333334, 24.241249999999997], [89.57708333333333, 24.254583333333333], [89.5750323139206, 24.25684652716808], [89.57986111111111, 24.26013888888889], [89.57652777777778, 24.265694444444442], [89.57424729504785, 24.257712754889717], [89.56902777777778, 24.26347222222222], [89.57625, 24.26597222222222], [89.57375, 24.275694444444444], [89.5826388888889, 24.27875], [89.58323509485095, 24.281209349593496], [89.59236111111112, 24.27208333333333], [89.59208333333333, 24.28125], [89.58375000000001, 24.28236111111111], [89.58708333333334, 24.28597222222222], [89.58359749455337, 24.28270424836601], [89.58486111111111, 24.287916666666664], [89.57819444444445, 24.292638888888888], [89.58375000000001, 24.302916666666665], [89.58375000000001, 24.298194444444444], [89.59069444444445, 24.30013888888889], [89.57486111111112, 24.30875], [89.58152777777778, 24.30736111111111], [89.57819444444445, 24.31625], [89.57208333333334, 24.311527777777776], [89.57847222222223, 24.32347222222222], [89.57625, 24.329583333333332], [89.57291666666667, 24.323194444444443], [89.57541666666667, 24.333194444444445], [89.57125, 24.321805555555553], [89.56847222222223, 24.33347222222222], [89.56097222222222, 24.331527777777776], [89.5626388888889, 24.32097222222222], [89.55069444444445, 24.319027777777777], [89.55763888888889, 24.318194444444444], [89.55736111111112, 24.312638888888888], [89.54708333333333, 24.31513888888889], [89.55819444444445, 24.306805555555552], [89.53236111111111, 24.307916666666664], [89.52875, 24.303749999999997], [89.53625000000001, 24.305416666666666], [89.53404843707895, 24.303736526542707]], [[89.59152777777778, 24.137083333333333], [89.58652777777777, 24.137361111111108], [89.59152777777778, 24.138194444444444], [89.58541666666667, 24.159305555555555], [89.58069444444445, 24.144027777777776], [89.58986111111112, 24.141527777777778], [89.58152777777778, 24.13486111111111], [89.59069444444445, 24.131805555555555], [89.59152777777778, 24.137083333333333]], [[89.58319444444444, 24.20097222222222], [89.58573637316562, 24.20496668164121], [89.58180555555556, 24.210694444444442], [89.57847222222223, 24.201805555555556], [89.58319444444444, 24.20097222222222]], [[89.58854397556124, 24.200875603864745], [89.58930555555555, 24.19763888888889], [89.5826388888889, 24.197916666666664], [89.59152777777778, 24.196527777777778], [89.58854397556124, 24.200875603864745]], [[89.56347222222223, 24.425694444444442], [89.57291666666667, 24.420416666666664], [89.56875000000001, 24.415416666666665], [89.57458333333334, 24.41097222222222], [89.57375, 24.422638888888887], [89.58402777777778, 24.424027777777777], [89.58152777777778, 24.41375], [89.59013888888889, 24.430416666666666], [89.57097222222222, 24.437083333333334], [89.56625, 24.446805555555553], [89.56930555555556, 24.433194444444442], [89.56347222222223, 24.425694444444442]], [[89.56708333333333, 24.222916666666666], [89.57069444444444, 24.219305555555554], [89.56097222222222, 24.215694444444445], [89.56791666666668, 24.216527777777777], [89.56736111111111, 24.211805555555554], [89.57319444444445, 24.219583333333333], [89.58097222222223, 24.210416666666664], [89.57291666666667, 24.22347222222222], [89.58513888888889, 24.226805555555554], [89.57708333333333, 24.22597222222222], [89.57180555555556, 24.240972222222222], [89.57347222222222, 24.23097222222222], [89.56319444444445, 24.227083333333333], [89.56708333333333, 24.222916666666666]], [[89.57680555555555, 24.480694444444442], [89.58458333333334, 24.481805555555553], [89.57652777777778, 24.485416666666666], [89.57680555555555, 24.480694444444442]], [[89.56402777777778, 24.18236111111111], [89.57986111111111, 24.18125], [89.57347222222222, 24.19013888888889], [89.5826388888889, 24.199583333333333], [89.56986111111111, 24.195138888888888], [89.5723611111111, 24.18736111111111], [89.56402777777778, 24.18236111111111]], [[89.57319444444445, 24.360694444444444], [89.56402777777778, 24.35763888888889], [89.57958333333333, 24.356527777777778], [89.57152777777777, 24.353749999999998], [89.57625, 24.347638888888888], [89.5676388888889, 24.34958333333333], [89.57513888888889, 24.33347222222222], [89.58236111111111, 24.351805555555554], [89.58041666666666, 24.361527777777777], [89.57319444444445, 24.360694444444444]], [[89.58236111111111, 24.187638888888888], [89.58069444444445, 24.191527777777775], [89.57763888888888, 24.18486111111111], [89.58236111111111, 24.187638888888888]], [[89.56347222222223, 24.484583333333333], [89.56319444444445, 24.479027777777777], [89.57013888888889, 24.482916666666664], [89.5717218875502, 24.47764000446229], [89.56902777777778, 24.47597222222222], [89.57430555555555, 24.47458333333333], [89.57486111111112, 24.47958333333333], [89.5719938794727, 24.47780838041431], [89.57402777777779, 24.48263888888889], [89.55930555555555, 24.48597222222222], [89.56347222222223, 24.484583333333333]], [[89.56986111111111, 24.49986111111111], [89.57375, 24.507916666666667], [89.56597222222223, 24.509027777777778], [89.57180555555556, 24.506249999999998], [89.56569444444445, 24.505416666666665], [89.56986111111111, 24.49986111111111]], [[89.56597222222223, 24.15347222222222], [89.5723611111111, 24.159027777777776], [89.56291666666667, 24.15958333333333], [89.56597222222223, 24.15347222222222]], [[89.56541666666666, 24.46097222222222], [89.56958333333334, 24.46097222222222], [89.56625, 24.46763888888889], [89.56541666666666, 24.46097222222222]], [[89.55902777777779, 24.489027777777775], [89.56958333333334, 24.48847222222222], [89.56347222222223, 24.490694444444443], [89.56386574074075, 24.492898148148154], [89.55902777777779, 24.489027777777775]], [[89.56402520576133, 24.49379115226337], [89.56486111111111, 24.498472222222222], [89.55875, 24.496805555555554], [89.56402520576133, 24.49379115226337]], [[89.56902777777778, 24.513749999999998], [89.56069444444445, 24.511527777777776], [89.55736111111112, 24.52236111111111], [89.55958333333334, 24.504027777777775], [89.54930555555556, 24.497916666666665], [89.54986111111111, 24.489027777777775], [89.56902777777778, 24.513749999999998]], [[89.56791666666668, 24.451805555555556], [89.56180555555555, 24.454305555555553], [89.56180555555555, 24.444305555555555], [89.56847222222223, 24.449583333333333], [89.56291666666667, 24.45208333333333], [89.56791666666668, 24.451805555555556]], [[89.55875, 24.52736111111111], [89.56541666666666, 24.526249999999997], [89.56180555555555, 24.53236111111111], [89.55875, 24.52736111111111]], [[89.55708333333334, 24.36236111111111], [89.5526388888889, 24.35625], [89.55736111111112, 24.350416666666664], [89.56291666666667, 24.364583333333332], [89.55819444444445, 24.366805555555555], [89.5626388888889, 24.367083333333333], [89.55513888888889, 24.370416666666664], [89.55708333333334, 24.36236111111111]], [[89.55152777777778, 24.374583333333334], [89.55291666666668, 24.368194444444445], [89.55597222222222, 24.376527777777778], [89.56125, 24.36958333333333], [89.55819444444445, 24.37763888888889], [89.55152777777778, 24.374583333333334]], [[89.55625, 24.347916666666666], [89.55236111111111, 24.340138888888887], [89.55930555555555, 24.350694444444443], [89.55625, 24.347916666666666]], [[89.55291666666668, 24.255694444444444], [89.54847222222223, 24.25263888888889], [89.55652777777777, 24.25097222222222], [89.55291666666668, 24.255694444444444]], [[89.55430555555556, 24.228194444444444], [89.55041666666666, 24.23597222222222], [89.5476388888889, 24.227361111111108], [89.55430555555556, 24.228194444444444]], [[89.55097222222223, 24.387361111111108], [89.54736111111112, 24.38319444444444], [89.55402777777778, 24.38347222222222], [89.55097222222223, 24.387361111111108]], [[89.54791666666667, 24.340694444444445], [89.54402777777779, 24.338194444444444], [89.55236111111111, 24.33625], [89.54791666666667, 24.340694444444445]], [[89.54486111111112, 24.201249999999998], [89.54847222222223, 24.19847222222222], [89.55236111111111, 24.205138888888886], [89.54486111111112, 24.201249999999998]], [[89.54486111111112, 24.372638888888886], [89.54458333333334, 24.36208333333333], [89.55125, 24.36736111111111], [89.54458333333334, 24.38347222222222], [89.54486111111112, 24.372638888888886]], [[89.53791666666667, 24.329583333333332], [89.54152777777779, 24.333194444444445], [89.54263888888889, 24.32736111111111], [89.5476388888889, 24.33486111111111], [89.53569444444445, 24.335416666666664], [89.53791666666667, 24.329583333333332]], [[89.54513888888889, 24.285138888888888], [89.53791666666667, 24.279305555555553], [89.54680555555557, 24.278194444444445], [89.54541666666667, 24.289861111111108], [89.54513888888889, 24.285138888888888]], [[89.54180555555556, 24.346249999999998], [89.53680555555556, 24.347638888888888], [89.54652777777778, 24.343194444444443], [89.54180555555556, 24.346249999999998]], [[89.53625000000001, 24.250138888888888], [89.52791666666667, 24.247916666666665], [89.53652777777778, 24.247916666666665], [89.53541666666666, 24.240694444444443], [89.54291666666667, 24.255138888888887], [89.53876495726496, 24.255854700854698], [89.53625000000001, 24.250138888888888]], [[89.54013888888889, 24.50597222222222], [89.54236111111112, 24.510694444444443], [89.53625000000001, 24.50708333333333], [89.54013888888889, 24.50597222222222]], [[89.52263888888889, 24.330972222222222], [89.53291666666667, 24.327916666666667], [89.53486111111111, 24.335694444444442], [89.53201873385014, 24.33459625322997], [89.53680555555556, 24.336805555555554], [89.53680555555556, 24.341805555555553], [89.52791666666667, 24.341805555555553], [89.53097222222223, 24.345416666666665], [89.52597222222222, 24.34208333333333], [89.53208333333333, 24.336527777777775], [89.52714869281046, 24.332714646464645], [89.52263888888889, 24.330972222222222]], [[89.53013888888889, 24.390416666666667], [89.52625, 24.392916666666665], [89.5326388888889, 24.384305555555553], [89.53013888888889, 24.390416666666667]], [[89.52375, 24.357916666666664], [89.51902777777778, 24.358472222222222], [89.52208333333334, 24.351527777777775], [89.53125, 24.35347222222222], [89.52375, 24.357916666666664]], [[89.52902777777778, 24.364027777777775], [89.53097222222223, 24.371805555555554], [89.52569444444444, 24.370694444444442], [89.52902777777778, 24.364027777777775]], [[89.5201388888889, 24.240694444444443], [89.51347222222222, 24.23486111111111], [89.52958333333333, 24.244305555555552], [89.5201388888889, 24.240694444444443]], [[89.52541666666667, 24.316527777777775], [89.51986111111111, 24.310694444444444], [89.52930555555555, 24.312916666666666], [89.52541666666667, 24.316527777777775]], [[89.51875, 24.27236111111111], [89.51513888888888, 24.274583333333332], [89.51652777777778, 24.269027777777776], [89.51875, 24.27236111111111]], [[89.51625, 24.225416666666664], [89.51347222222222, 24.22847222222222], [89.51847222222223, 24.221249999999998], [89.51625, 24.225416666666664]], [[89.48875, 24.36347222222222], [89.51791666666666, 24.355138888888888], [89.51569444444445, 24.361527777777777], [89.5098611111111, 24.357916666666664], [89.49736111111112, 24.365694444444443], [89.48875, 24.36347222222222]], [[89.51375, 24.29513888888889], [89.51736111111111, 24.30236111111111], [89.50902777777777, 24.294027777777778], [89.51375, 24.29513888888889]], [[89.51013888888889, 24.39763888888889], [89.50736111111111, 24.39236111111111], [89.51430555555555, 24.387361111111108], [89.51013888888889, 24.39763888888889]], [[89.50430555555556, 24.276527777777776], [89.50069444444445, 24.270138888888887], [89.51013888888889, 24.281805555555554], [89.50430555555556, 24.276527777777776]], [[89.4955087539791, 24.327997764135212], [89.49938920141187, 24.32739144422384], [89.49291666666667, 24.317083333333333], [89.50763888888889, 24.315694444444443], [89.49847222222222, 24.324305555555554], [89.50486111111111, 24.32375], [89.50597222222223, 24.330416666666665], [89.50041666666667, 24.329027777777778], [89.49945921985815, 24.327502955082743], [89.49375, 24.334027777777777], [89.4955087539791, 24.327997764135212]], [[89.49705756013746, 24.270889175257725], [89.49375, 24.26347222222222], [89.49986111111112, 24.260694444444443], [89.49705756013746, 24.270889175257725]], [[89.50069444444445, 24.39875], [89.50208333333333, 24.402916666666666], [89.49708333333334, 24.400972222222222], [89.50069444444445, 24.39875]], [[89.49736111111112, 24.33347222222222], [89.49347222222222, 24.337916666666665], [89.50041666666667, 24.32986111111111], [89.49736111111112, 24.33347222222222]], [[89.50041666666667, 24.347638888888888], [89.49902777777778, 24.352361111111108], [89.49902777777778, 24.346527777777776], [89.49208333333334, 24.345138888888886], [89.49680555555555, 24.33736111111111], [89.50041666666667, 24.347638888888888]], [[89.48597222222223, 24.442083333333333], [89.48958333333334, 24.436249999999998], [89.48013888888889, 24.429305555555555], [89.48375, 24.42597222222222], [89.49394108750184, 24.437772428803303], [89.49430555555556, 24.434583333333332], [89.49875, 24.44125], [89.49319444444444, 24.444305555555555], [89.49385835913313, 24.43849630202958], [89.48319444444445, 24.44569444444444], [89.48597222222223, 24.442083333333333]], [[89.49069444444444, 24.42736111111111], [89.49819444444445, 24.429305555555555], [89.49347222222222, 24.432916666666664], [89.49069444444444, 24.42736111111111]], [[89.48680555555556, 24.351527777777775], [89.48069444444445, 24.339305555555555], [89.49791666666667, 24.35625], [89.48680555555556, 24.351527777777775]], [[89.47791666666667, 24.295416666666664], [89.4816009125067, 24.298234031132584], [89.48263888888889, 24.295416666666664], [89.4876388888889, 24.301805555555553], [89.49763888888889, 24.311805555555555], [89.48069444444445, 24.300694444444442], [89.48083333333334, 24.30031746031745], [89.47875, 24.301805555555553], [89.47791666666667, 24.295416666666664]], [[89.4876388888889, 24.31986111111111], [89.48847222222223, 24.30986111111111], [89.49736111111112, 24.312638888888888], [89.48875, 24.314305555555553], [89.49180555555556, 24.32236111111111], [89.4876388888889, 24.31986111111111]], [[89.47680555555556, 24.336805555555554], [89.48291666666667, 24.332916666666666], [89.47847222222222, 24.34236111111111], [89.47319444444445, 24.339583333333334], [89.47680555555556, 24.336805555555554]], [[89.47513888888889, 24.34986111111111], [89.47097222222223, 24.354305555555555], [89.46652777777778, 24.347638888888888], [89.47513888888889, 24.34986111111111]], [[89.4726388888889, 24.414583333333333], [89.47513888888889, 24.40958333333333], [89.47041666666667, 24.422083333333333], [89.4726388888889, 24.414583333333333]], [[89.45208333333333, 24.355694444444442], [89.46513888888889, 24.351805555555554], [89.46498936696341, 24.357038822947576], [89.45208333333333, 24.355694444444442]], [[89.46498753792805, 24.35710283918509], [89.46486111111112, 24.361527777777777], [89.47097222222223, 24.36375], [89.45930555555556, 24.362916666666667], [89.45597222222223, 24.37097222222222], [89.45319444444445, 24.35763888888889], [89.46498753792805, 24.35710283918509]], [[89.46402777777779, 24.286527777777778], [89.46847222222223, 24.28486111111111], [89.46430555555555, 24.29097222222222], [89.46402777777779, 24.286527777777778]], [[89.46069444444444, 24.415138888888887], [89.45902777777778, 24.407916666666665], [89.46680555555555, 24.405416666666664], [89.46013888888889, 24.402083333333334], [89.46708333333333, 24.39875], [89.46763888888889, 24.41736111111111], [89.46069444444444, 24.415138888888887]], [[89.46125, 24.267638888888886], [89.45625, 24.268749999999997], [89.46152777777777, 24.26347222222222], [89.46125, 24.267638888888886]], [[89.4473611111111, 24.39847222222222], [89.45041666666667, 24.391527777777778], [89.45013888888889, 24.404305555555553], [89.4473611111111, 24.39847222222222]], [[89.44902777777779, 24.283194444444444], [89.44458333333334, 24.28486111111111], [89.44652777777777, 24.278194444444445], [89.44902777777779, 24.283194444444444]], [[89.43819444444445, 24.40958333333333], [89.43291666666667, 24.415416666666665], [89.43347222222222, 24.405416666666664], [89.43819444444445, 24.40958333333333]], [[89.43347222222222, 24.379305555555554], [89.43736111111112, 24.38319444444444], [89.43041666666667, 24.387916666666666], [89.43347222222222, 24.379305555555554]], [[89.42652777777778, 24.404027777777777], [89.42402777777778, 24.400416666666665], [89.43263888888889, 24.40513888888889], [89.42652777777778, 24.404027777777777]], [[89.42625, 24.462916666666665], [89.43125, 24.466527777777777], [89.42152777777778, 24.467916666666664], [89.42625, 24.462916666666665]], [[89.43041666666667, 24.34097222222222], [89.42069444444445, 24.344583333333333], [89.42930555555556, 24.35013888888889], [89.41930555555555, 24.36236111111111], [89.41708333333334, 24.344027777777775], [89.42319444444445, 24.34263888888889], [89.41569444444444, 24.337916666666665], [89.43041666666667, 24.34097222222222]], [[89.39791666666667, 24.376527777777778], [89.41236111111111, 24.379305555555554], [89.41763888888889, 24.372638888888886], [89.41736111111112, 24.379305555555554], [89.42847222222223, 24.381805555555555], [89.41097222222223, 24.389305555555556], [89.40708333333333, 24.384305555555553], [89.41569444444444, 24.380138888888887], [89.39208333333333, 24.37569444444444], [89.39791666666667, 24.376527777777778]], [[89.42680555555556, 24.49458333333333], [89.41958333333334, 24.490416666666665], [89.42625, 24.489583333333332], [89.42680555555556, 24.49458333333333]], [[89.42541666666666, 24.48125], [89.41819444444445, 24.476527777777775], [89.42347222222223, 24.47375], [89.42541666666666, 24.48125]], [[89.40708333333333, 24.408194444444444], [89.39625000000001, 24.405694444444443], [89.41902777777779, 24.408749999999998], [89.40708333333333, 24.408194444444444]], [[89.41847222222222, 24.335694444444442], [89.41430555555556, 24.337638888888886], [89.41458333333334, 24.332638888888887], [89.41847222222222, 24.335694444444442]], [[89.40875, 24.368194444444445], [89.40736111111111, 24.364305555555553], [89.41569444444444, 24.364027777777775], [89.41736111111112, 24.371805555555554], [89.41319444444444, 24.37486111111111], [89.41569444444444, 24.36986111111111], [89.40875, 24.368194444444445]], [[89.40986111111111, 24.456805555555555], [89.41430555555556, 24.460694444444442], [89.40958333333333, 24.46236111111111], [89.40986111111111, 24.456805555555555]], [[89.40680555555556, 24.399583333333332], [89.40208333333334, 24.40458333333333], [89.40652777777778, 24.388194444444444], [89.41152777777778, 24.396805555555556], [89.40680555555556, 24.399583333333332]], [[89.39708333333334, 24.34208333333333], [89.39736111111111, 24.34736111111111], [89.39402777777778, 24.339027777777776], [89.39708333333334, 24.34208333333333]], [[89.39708333333334, 24.477083333333333], [89.38819444444445, 24.479027777777777], [89.39236111111111, 24.470972222222223], [89.39708333333334, 24.477083333333333]], [[89.38875, 24.41597222222222], [89.39652777777778, 24.416249999999998], [89.39291666666666, 24.42513888888889], [89.38875, 24.41597222222222]], [[89.3848611111111, 24.41375], [89.37958333333333, 24.411805555555553], [89.39486111111111, 24.408749999999998], [89.3848611111111, 24.41375]], [[89.37930555555556, 24.344583333333333], [89.39236111111111, 24.34208333333333], [89.39208333333333, 24.34958333333333], [89.38208333333334, 24.35125], [89.37930555555556, 24.344583333333333]], [[89.38958333333333, 24.451805555555556], [89.39125, 24.444027777777777], [89.39180555555556, 24.455138888888886], [89.38958333333333, 24.451805555555556]], [[89.38763888888889, 24.39625], [89.39180555555556, 24.401805555555555], [89.38208333333334, 24.400972222222222], [89.37791666666666, 24.387361111111108], [89.38541666666667, 24.394305555555555], [89.38625, 24.384305555555553], [89.38763888888889, 24.39625]], [[89.38291666666667, 24.490694444444443], [89.39069444444445, 24.492916666666666], [89.38152777777778, 24.49458333333333], [89.38291666666667, 24.490694444444443]], [[89.38263888888889, 24.372916666666665], [89.38791666666667, 24.375416666666666], [89.38402777777777, 24.38597222222222], [89.37875, 24.379027777777775], [89.38597222222222, 24.37708333333333], [89.38263888888889, 24.372916666666665]], [[89.38180555555556, 24.435416666666665], [89.38191115462722, 24.435660356832027], [89.36402777777778, 24.434305555555554], [89.36569444444444, 24.42458333333333], [89.37736111111111, 24.42597222222222], [89.38180555555556, 24.435416666666665]], [[89.3821250925045, 24.436154059625746], [89.38541666666667, 24.443749999999998], [89.37708333333333, 24.44597222222222], [89.3821250925045, 24.436154059625746]], [[89.37020196228339, 24.494406855249743], [89.38069444444444, 24.49513888888889], [89.37180555555555, 24.49986111111111], [89.3751388888889, 24.49597222222222], [89.37020196228339, 24.494406855249743]], [[89.37013888888889, 24.373472222222222], [89.37847222222223, 24.37875], [89.36902777777777, 24.37986111111111], [89.36541666666668, 24.375138888888888], [89.37013888888889, 24.373472222222222]], [[89.37569444444445, 24.505694444444444], [89.37625, 24.512361111111108], [89.36986111111112, 24.50986111111111], [89.37569444444445, 24.505694444444444]], [[89.36791666666667, 24.389027777777777], [89.37125, 24.399583333333332], [89.36486111111111, 24.397916666666664], [89.36347222222223, 24.387361111111108], [89.36791666666667, 24.389027777777777]], [[89.36319444444445, 24.369305555555552], [89.36125, 24.362916666666667], [89.36557862830257, 24.36649249004705], [89.3651388888889, 24.363194444444442], [89.36625000000001, 24.359027777777776], [89.36574328449328, 24.36662851037851], [89.36763888888889, 24.368194444444445], [89.36319444444445, 24.369305555555552]], [[89.36208333333333, 24.375416666666666], [89.36652777777778, 24.378194444444443], [89.36291666666666, 24.38236111111111], [89.36208333333333, 24.375416666666666]], [[89.35791666666667, 24.35986111111111], [89.35930555555557, 24.353194444444444], [89.36180555555556, 24.36263888888889], [89.35791666666667, 24.35986111111111]], [[89.35125000000001, 24.45486111111111], [89.35652777777779, 24.45736111111111], [89.34597222222223, 24.465138888888887], [89.34402777777778, 24.455416666666665], [89.35125000000001, 24.45486111111111]], [[89.34541666666667, 24.356805555555553], [89.35180555555556, 24.354027777777777], [89.34263888888889, 24.363194444444442], [89.34541666666667, 24.356805555555553]], [[89.34013888888889, 24.482916666666664], [89.34291666666667, 24.479027777777777], [89.34791666666666, 24.48736111111111], [89.33597222222222, 24.498472222222222], [89.33458333333334, 24.48708333333333], [89.34013888888889, 24.482916666666664]], [[89.33375000000001, 24.480416666666667], [89.32819444444445, 24.480416666666667], [89.32847222222223, 24.47458333333333], [89.33375000000001, 24.480416666666667]], [[89.32208333333334, 24.49236111111111], [89.32625, 24.48708333333333], [89.32930555555556, 24.49347222222222], [89.32208333333334, 24.49236111111111]], [[89.28541666666666, 24.466805555555553], [89.29347222222222, 24.469583333333333], [89.29221938002122, 24.469885743519782], [89.29902777777778, 24.47486111111111], [89.30208333333334, 24.477916666666665], [89.29458333333334, 24.478749999999998], [89.29191915503624, 24.469958211619602], [89.28541666666666, 24.471527777777776], [89.28541666666666, 24.466805555555553]]], [[[89.6140637840471, 24.44145830685813], [89.61518548387097, 24.456601254480322], [89.61541666666668, 24.45375], [89.61902777777777, 24.462916666666665], [89.62180555555555, 24.456805555555555], [89.62847222222223, 24.463749999999997], [89.62319444444445, 24.45375], [89.63680555555555, 24.460416666666664], [89.63763888888889, 24.469305555555554], [89.6426388888889, 24.466805555555553], [89.63986111111112, 24.460416666666664], [89.65347222222222, 24.470694444444444], [89.65736111111111, 24.467916666666664], [89.64152777777778, 24.456527777777776], [89.64815898345154, 24.457307919621748], [89.65236111111112, 24.452638888888888], [89.65327785030462, 24.45791013925152], [89.66034050179212, 24.458741039426524], [89.65513888888889, 24.451805555555556], [89.64125, 24.45486111111111], [89.64458333333333, 24.449305555555554], [89.61847222222222, 24.451249999999998], [89.61902777777777, 24.446527777777778], [89.62930555555556, 24.449305555555554], [89.6140637840471, 24.44145830685813]], [[89.63930555555555, 24.45375], [89.63847222222222, 24.458194444444445], [89.63152777777778, 24.45486111111111], [89.63930555555555, 24.45375]]], [[[89.66127525252526, 24.45885101010101], [89.66513888888889, 24.459305555555556], [89.66958333333334, 24.46708333333333], [89.66208333333334, 24.47375], [89.67013888888889, 24.46736111111111], [89.66680555555556, 24.457638888888887], [89.67436369509042, 24.459906330749348], [89.66930555555555, 24.457638888888887], [89.67152777777778, 24.45236111111111], [89.66458333333334, 24.453194444444442], [89.67430555555556, 24.449861111111108], [89.67569444444445, 24.45847222222222], [89.68513888888889, 24.46236111111111], [89.68097222222222, 24.457638888888887], [89.68680555555555, 24.456527777777776], [89.67458333333333, 24.448194444444443], [89.66430555555556, 24.451527777777777], [89.66127525252526, 24.45885101010101]]], [[[89.67509422110554, 24.460233807928535], [89.66847222222222, 24.474305555555553], [89.67080619412516, 24.475336845466156], [89.67347222222223, 24.466805555555553], [89.67875000000001, 24.471249999999998], [89.67736111111111, 24.46125], [89.67509422110554, 24.460233807928535]]], [[[89.6720692398618, 24.475894935442806], [89.68041666666667, 24.47958333333333], [89.67434042809043, 24.48605158730159], [89.68402777777779, 24.477638888888887], [89.6720692398618, 24.475894935442806]]], [[[89.67351319297421, 24.48693219242531], [89.67180555555557, 24.48875], [89.67875000000001, 24.504583333333333], [89.67125, 24.512638888888887], [89.67958333333334, 24.505694444444444], [89.67351319297421, 24.48693219242531]]], [[[89.61638002364066, 24.472727541371153], [89.61680555555556, 24.47847222222222], [89.61125, 24.489305555555553], [89.61953884934758, 24.489093020956897], [89.61597222222223, 24.482916666666664], [89.62208333333334, 24.47597222222222], [89.61930555555556, 24.470972222222223], [89.61638002364066, 24.472727541371153]]], [[[89.62016562064156, 24.49017840539284], [89.61097222222223, 24.495694444444442], [89.61597222222223, 24.514027777777777], [89.60236111111111, 24.518472222222222], [89.59347222222223, 24.54513888888889], [89.59930555555556, 24.542638888888888], [89.59069444444445, 24.552638888888886], [89.59625, 24.559305555555554], [89.60402777777779, 24.518749999999997], [89.61736111111111, 24.515416666666667], [89.61208333333333, 24.49597222222222], [89.6251388888889, 24.50097222222222], [89.62597222222223, 24.509305555555553], [89.63513888888889, 24.506805555555555], [89.64041666666667, 24.51986111111111], [89.63652777777779, 24.50847222222222], [89.64125, 24.506527777777777], [89.62736111111111, 24.50263888888889], [89.62016562064156, 24.49017840539284]]], [[[89.45514647664291, 24.449946555819476], [89.44652777777777, 24.450416666666666], [89.45347222222223, 24.45736111111111], [89.45514647664291, 24.449946555819476]]], [[[89.53341529250099, 24.475492245779343], [89.52569444444444, 24.47847222222222], [89.53291666666667, 24.485138888888887], [89.53180555555556, 24.493194444444445], [89.52893321513004, 24.493726359338062], [89.53236111111111, 24.49458333333333], [89.53430555555556, 24.485416666666666], [89.52680555555555, 24.479305555555555], [89.53341529250099, 24.475492245779343]]], [[[89.52342821782179, 24.492350110011], [89.52125000000001, 24.486805555555556], [89.51319444444445, 24.489583333333332], [89.51430555555555, 24.504027777777775], [89.52513888888889, 24.51125], [89.51597222222223, 24.520138888888887], [89.53569444444445, 24.526805555555555], [89.52458333333334, 24.531527777777775], [89.53008169934641, 24.542524509803926], [89.53208333333333, 24.54375], [89.52625, 24.531805555555554], [89.5351388888889, 24.533194444444444], [89.53680555555556, 24.526805555555555], [89.52069444444444, 24.519305555555555], [89.52708333333334, 24.510694444444443], [89.51486111111112, 24.50097222222222], [89.51458333333333, 24.490138888888886], [89.52342821782179, 24.492350110011]]], [[[89.57809057971014, 24.496195652173913], [89.57763888888888, 24.499583333333334], [89.58097222222223, 24.497083333333332], [89.58819444444444, 24.507638888888888], [89.58236111111111, 24.49486111111111], [89.57809057971014, 24.496195652173913]]], [[[89.71147840179327, 24.3776382830486], [89.70606881685222, 24.38222140362366], [89.70958333333334, 24.37569444444444], [89.70458333333333, 24.370416666666664], [89.70566319045797, 24.38256505931879], [89.69180555555556, 24.394305555555555], [89.69533752195169, 24.397944551236414], [89.71147840179327, 24.3776382830486]]], [[[89.65706148257402, 24.692838277067626], [89.65458333333333, 24.69347222222222], [89.65402777777778, 24.711805555555554], [89.64680555555556, 24.717916666666664], [89.65486111111112, 24.712916666666665], [89.65706148257402, 24.692838277067626]]], [[[89.80512493020659, 24.12231783919598], [89.80486111111111, 24.123749999999998], [89.80125, 24.120416666666664], [89.80458333333334, 24.131249999999998], [89.79902777777778, 24.131805555555555], [89.8026388888889, 24.135694444444443], [89.81236111111112, 24.12875], [89.80512493020659, 24.12231783919598]]], [[[89.7431868282982, 24.49491950156555], [89.74069444444444, 24.514027777777777], [89.75319444444445, 24.496805555555554], [89.74597222222222, 24.497638888888886], [89.75097222222223, 24.48847222222222], [89.7431868282982, 24.49491950156555]]], [[[89.71236111111111, 24.41708333333333], [89.70986111111111, 24.407916666666665], [89.70180555555555, 24.416249999999998], [89.6973611111111, 24.41069444444444], [89.70347222222223, 24.42236111111111], [89.71236111111111, 24.41708333333333]]], [[[89.70458333333333, 24.309027777777775], [89.70902777777778, 24.30875], [89.69791666666667, 24.30625], [89.69763888888889, 24.31513888888889], [89.70680555555556, 24.315416666666664], [89.70625, 24.310416666666665], [89.69902777777779, 24.312083333333334], [89.70458333333333, 24.309027777777775]]], [[[89.69319444444444, 24.305694444444445], [89.6901388888889, 24.314027777777778], [89.6973611111111, 24.31236111111111], [89.69319444444444, 24.305694444444445]]], [[[89.67819444444444, 24.424305555555556], [89.68930555555556, 24.426527777777775], [89.69513888888889, 24.41875], [89.68597222222222, 24.417916666666667], [89.69486111111111, 24.412916666666664], [89.6876388888889, 24.41097222222222], [89.67819444444444, 24.424305555555556]]], [[[89.68458333333334, 24.28763888888889], [89.68597222222222, 24.29486111111111], [89.68513888888889, 24.289305555555554], [89.68847222222223, 24.294305555555553], [89.69375000000001, 24.291249999999998], [89.68458333333334, 24.28763888888889]]], [[[89.69319444444444, 24.386805555555554], [89.68375, 24.38375], [89.68902777777778, 24.39236111111111], [89.69319444444444, 24.386805555555554]]], [[[89.68319444444445, 24.40347222222222], [89.69291666666668, 24.406805555555554], [89.69152777777778, 24.39986111111111], [89.67930555555556, 24.400972222222222], [89.68319444444445, 24.40347222222222]]], [[[89.67875000000001, 24.23708333333333], [89.67541666666666, 24.24458333333333], [89.68125, 24.240138888888886], [89.68375, 24.25236111111111], [89.68875, 24.240138888888886], [89.67875000000001, 24.23708333333333]]], [[[89.66097222222223, 24.420972222222222], [89.65791666666667, 24.416527777777777], [89.66458333333334, 24.435138888888886], [89.68680555555555, 24.451805555555556], [89.68236111111112, 24.44597222222222], [89.68680555555555, 24.442638888888887], [89.67680555555556, 24.44013888888889], [89.68513888888889, 24.43736111111111], [89.68263888888889, 24.43347222222222], [89.67708333333334, 24.429027777777776], [89.67402777777778, 24.43875], [89.6726388888889, 24.425416666666667], [89.66097222222223, 24.420972222222222]]], [[[89.67847222222223, 24.25708333333333], [89.67430555555556, 24.257638888888888], [89.68069444444444, 24.249305555555555], [89.66625, 24.259027777777778], [89.68013888888889, 24.265416666666667], [89.67847222222223, 24.25708333333333]]], [[[89.65680555555556, 24.41208333333333], [89.6601388888889, 24.405694444444443], [89.65513888888889, 24.401249999999997], [89.65680555555556, 24.41208333333333]]], [[[89.65291666666667, 24.434027777777775], [89.65652777777778, 24.44569444444444], [89.65902777777778, 24.437916666666666], [89.65291666666667, 24.434027777777775]]], [[[89.63791666666667, 24.477361111111108], [89.63736111111112, 24.48736111111111], [89.64680555555556, 24.486805555555556], [89.63875, 24.46875], [89.63791666666667, 24.477361111111108]]], [[[89.6348611111111, 24.43125], [89.64069444444445, 24.42986111111111], [89.62986111111111, 24.42013888888889], [89.6276388888889, 24.427083333333332], [89.6348611111111, 24.43125]]], [[[89.63347222222222, 24.469583333333333], [89.63180555555556, 24.461805555555554], [89.62875, 24.47347222222222], [89.63347222222222, 24.469583333333333]]], [[[89.60875, 24.562638888888888], [89.61652777777778, 24.55875], [89.61152777777778, 24.570416666666667], [89.62208333333334, 24.551527777777775], [89.60180555555556, 24.56236111111111], [89.60430555555556, 24.570416666666667], [89.60875, 24.562638888888888]]], [[[89.60680555555555, 24.316805555555554], [89.60375, 24.324027777777776], [89.61125, 24.324305555555554], [89.60680555555555, 24.316805555555554]]], [[[89.60680555555555, 24.555416666666666], [89.6101388888889, 24.547638888888887], [89.5976388888889, 24.559305555555554], [89.60680555555555, 24.555416666666666]]], [[[89.60703870812857, 24.586128692876912], [89.59958333333334, 24.594305555555554], [89.60902777777778, 24.59236111111111], [89.60703870812857, 24.586128692876912]]], [[[89.60069444444444, 24.479027777777777], [89.60680555555555, 24.47208333333333], [89.60569444444445, 24.460416666666664], [89.59736111111111, 24.461527777777775], [89.60069444444444, 24.479027777777777]]], [[[89.59430555555556, 24.490416666666665], [89.59180555555555, 24.499583333333334], [89.5976388888889, 24.49736111111111], [89.59430555555556, 24.490416666666665]]], [[[89.55569444444444, 24.636527777777776], [89.56180555555555, 24.624027777777776], [89.58236111111111, 24.626527777777778], [89.58680555555556, 24.615694444444443], [89.58236111111111, 24.625138888888888], [89.56208333333333, 24.623194444444444], [89.55569444444444, 24.636527777777776]]], [[[89.57291666666667, 24.42986111111111], [89.58430555555556, 24.42486111111111], [89.57541666666667, 24.42347222222222], [89.57291666666667, 24.42986111111111]]], [[[89.57180555555556, 24.30708333333333], [89.57763888888888, 24.300694444444442], [89.58180555555556, 24.303749999999997], [89.57486111111112, 24.291805555555555], [89.56569444444445, 24.304305555555555], [89.57180555555556, 24.30708333333333]]], [[[89.55986111111112, 24.311527777777776], [89.5651388888889, 24.32069444444444], [89.56819444444444, 24.315416666666664], [89.55986111111112, 24.311527777777776]]], [[[89.55625, 24.65597222222222], [89.5676388888889, 24.66375], [89.56347222222223, 24.646527777777777], [89.55597222222222, 24.645138888888887], [89.5626388888889, 24.646527777777777], [89.5651388888889, 24.656805555555554], [89.55736111111112, 24.65347222222222], [89.55041666666666, 24.665138888888887], [89.55791666666667, 24.661805555555553], [89.55625, 24.65597222222222]]], [[[89.54819444444445, 24.411527777777778], [89.53930555555556, 24.41375], [89.54930555555556, 24.416805555555555], [89.54819444444445, 24.411527777777778]]], [[[89.53430555555556, 24.41597222222222], [89.53069444444445, 24.421805555555554], [89.54680555555557, 24.419305555555553], [89.53430555555556, 24.41597222222222]]], [[[89.53541666666666, 24.46125], [89.53152777777778, 24.45875], [89.53680555555556, 24.46708333333333], [89.54013888888889, 24.46125], [89.53541666666666, 24.46125]]], [[[89.52847222222222, 24.462638888888886], [89.52791666666667, 24.456527777777776], [89.52708333333334, 24.470694444444444], [89.53291666666667, 24.464305555555555], [89.52847222222222, 24.462638888888886]]], [[[89.52430555555556, 24.482916666666664], [89.51902777777778, 24.477638888888887], [89.51541666666667, 24.48597222222222], [89.52291666666667, 24.482083333333332], [89.52680555555555, 24.488194444444442], [89.52430555555556, 24.482916666666664]]], [[[89.50097222222223, 24.51625], [89.50347222222223, 24.512638888888887], [89.49680555555555, 24.51125], [89.50097222222223, 24.51347222222222], [89.49263888888889, 24.519305555555555], [89.49847222222222, 24.52236111111111], [89.50097222222223, 24.51625]]], [[[89.48847222222223, 24.497083333333332], [89.49680555555555, 24.506527777777777], [89.49347222222222, 24.50986111111111], [89.5026388888889, 24.509305555555553], [89.49791666666667, 24.50708333333333], [89.50208333333333, 24.499583333333334], [89.49236111111111, 24.496527777777775], [89.49986111111112, 24.491527777777776], [89.48958333333334, 24.487916666666667], [89.47986111111112, 24.499027777777776], [89.48847222222223, 24.497083333333332]]], [[[89.48680555555556, 24.46986111111111], [89.49541666666667, 24.460416666666664], [89.49208333333334, 24.454027777777778], [89.48875, 24.45736111111111], [89.48875, 24.448194444444443], [89.47930555555556, 24.44763888888889], [89.47902777777779, 24.465694444444445], [89.48375, 24.457916666666666], [89.48597222222223, 24.46236111111111], [89.48291666666667, 24.469027777777775], [89.47236111111111, 24.470138888888886], [89.48680555555556, 24.46986111111111]]], [[[89.46208333333334, 24.493194444444445], [89.46541666666667, 24.485694444444444], [89.45708333333333, 24.483472222222222], [89.46208333333334, 24.493194444444445]]], [[[89.45208333333333, 24.514027777777777], [89.44347222222223, 24.50875], [89.44430555555556, 24.49486111111111], [89.43680555555555, 24.493194444444445], [89.43291666666667, 24.505416666666665], [89.44069444444445, 24.499027777777776], [89.43875, 24.509305555555553], [89.45208333333333, 24.514027777777777]]], [[[89.43291666666667, 24.424027777777777], [89.43652777777778, 24.42736111111111], [89.43041666666667, 24.42986111111111], [89.44152777777778, 24.43208333333333], [89.44069444444445, 24.423194444444444], [89.43291666666667, 24.424027777777777]]], [[[89.35791666666667, 24.50986111111111], [89.35069444444444, 24.51347222222222], [89.35930555555557, 24.51625], [89.35791666666667, 24.50986111111111]]]]}}