{"type": "Feature", "properties": {}, "geometry": {"type": "MultiPolygon", "coordinates": [[[[89.62035176531673, 24.137140446521276], [89.61625000000001, 24.123194444444444], [89.61458333333334, 24.12875], [89.62035176531673, 24.137140446521276]]], [[[89.62047217781331, 24.137315591970864], [89.62069444444445, 24.137638888888887], [89.64192301686445, 24.127162450551737], [89.63430555555556, 24.12597222222222], [89.62047217781331, 24.137315591970864]]], [[[89.64210706580367, 24.12719120819849], [89.64819444444444, 24.15486111111111], [89.64984336488219, 24.154751183081927], [89.64930555555556, 24.13458333333333], [89.64319444444445, 24.12736111111111], [89.64210706580367, 24.12719120819849]]], [[[89.66017361111109, 24.154062500000002], [89.67736111111111, 24.152916666666666], [89.69430555555556, 24.174305555555556], [89.6926388888889, 24.19097222222222], [89.69569444444444, 24.184027777777775], [89.70708333333333, 24.229027777777777], [89.71103202911083, 24.228435473411153], [89.70804259259259, 24.23389444444444], [89.71291666666667, 24.24486111111111], [89.70430555555556, 24.255138888888887], [89.70458333333333, 24.276527777777776], [89.7072877846791, 24.28095324361629], [89.70597222222223, 24.255694444444444], [89.71402777777779, 24.249305555555555], [89.71291666666667, 24.23763888888889], [89.72875, 24.24736111111111], [89.73541666666667, 24.264305555555556], [89.73152777777779, 24.251805555555553], [89.75319444444445, 24.260694444444443], [89.76180555555555, 24.29736111111111], [89.75680555555556, 24.31458333333333], [89.73773650588572, 24.30925220116757], [89.75652777777778, 24.316805555555554], [89.7551388888889, 24.34708333333333], [89.77208333333334, 24.327916666666667], [89.77402777777777, 24.301805555555553], [89.78430555555556, 24.291527777777777], [89.78097222222223, 24.285416666666666], [89.78791666666667, 24.285416666666666], [89.77819444444445, 24.276249999999997], [89.77541666666667, 24.23625], [89.79513888888889, 24.171527777777776], [89.78013888888889, 24.166249999999998], [89.78763888888889, 24.157916666666665], [89.7976388888889, 24.159305555555555], [89.7976388888889, 24.150972222222222], [89.78597222222223, 24.125416666666666], [89.79097222222222, 24.078194444444442], [89.78319444444445, 24.059583333333332], [89.78319444444445, 24.033749999999998], [89.76375, 24.023194444444442], [89.77569444444444, 24.047083333333333], [89.77041666666666, 24.06375], [89.7614594972067, 24.06099394785847], [89.74763888888889, 24.05986111111111], [89.74882011866235, 24.05710490830636], [89.74513888888889, 24.05597222222222], [89.74763888888889, 24.034305555555555], [89.75819444444444, 24.02236111111111], [89.74402777777777, 24.02847222222222], [89.74291666666667, 24.02236111111111], [89.72180555555556, 24.01347222222222], [89.71069444444444, 24.020138888888887], [89.71597222222222, 24.090694444444445], [89.70569444444445, 24.081527777777776], [89.70097222222222, 24.036527777777778], [89.68291666666667, 24.034305555555555], [89.68597222222222, 24.076805555555556], [89.68875, 24.07236111111111], [89.69117184199408, 24.08204847908745], [89.69004084967321, 24.083356881968466], [89.68180555555556, 24.090138888888887], [89.6726388888889, 24.065694444444443], [89.66319444444444, 24.07208333333333], [89.67319444444445, 24.085416666666664], [89.66763888888889, 24.12486111111111], [89.67736111111111, 24.151805555555555], [89.66017361111109, 24.154062500000002]], [[89.71209338986736, 24.226497336377474], [89.7076388888889, 24.212638888888886], [89.71375, 24.22347222222222], [89.71209338986736, 24.226497336377474]], [[89.69274565045473, 24.08022779871141], [89.68819444444445, 24.060416666666665], [89.69930555555555, 24.07263888888889], [89.69274565045473, 24.08022779871141]], [[89.78013888888889, 24.077638888888888], [89.77819444444445, 24.091527777777777], [89.77569444444444, 24.07875], [89.78013888888889, 24.077638888888888]], [[89.77875, 24.071527777777778], [89.77486111111111, 24.07375], [89.77430555555556, 24.06625], [89.77930555555555, 24.06375], [89.77875, 24.071527777777778]], [[89.77041666666666, 24.089305555555555], [89.76958333333333, 24.09986111111111], [89.74347222222222, 24.085416666666664], [89.74041666666668, 24.067916666666665], [89.74541666666667, 24.064305555555553], [89.75152777777778, 24.070416666666667], [89.74819444444445, 24.060972222222222], [89.76347222222222, 24.062638888888888], [89.77041666666666, 24.089305555555555]], [[89.71402777777779, 24.192638888888887], [89.70986111111111, 24.184583333333332], [89.71347222222222, 24.189305555555553], [89.71402777777779, 24.14736111111111], [89.72402777777778, 24.137361111111108], [89.72930555555556, 24.14597222222222], [89.72652777777778, 24.12486111111111], [89.70986111111111, 24.108472222222222], [89.71041666666667, 24.09736111111111], [89.7201388888889, 24.09819444444444], [89.73902777777778, 24.129305555555554], [89.76180555555555, 24.14486111111111], [89.76791666666666, 24.162916666666664], [89.76708333333333, 24.199861111111108], [89.75541666666668, 24.22513888888889], [89.73569444444445, 24.216527777777777], [89.74125000000001, 24.215416666666666], [89.71402777777779, 24.192638888888887]], [[89.76708333333333, 24.11986111111111], [89.76152777777779, 24.123472222222222], [89.75152777777778, 24.108194444444443], [89.76708333333333, 24.11986111111111]], [[89.72458333333334, 24.233472222222222], [89.74347222222222, 24.228749999999998], [89.75208333333333, 24.239583333333332], [89.72875, 24.240138888888886], [89.72125, 24.22847222222222], [89.72458333333334, 24.233472222222222]], [[89.74875, 24.23986111111111], [89.75097222222223, 24.24375], [89.73958333333334, 24.240694444444443], [89.74875, 24.23986111111111]], [[89.73958333333334, 24.056527777777777], [89.74458333333334, 24.062083333333334], [89.73680555555556, 24.07236111111111], [89.73958333333334, 24.056527777777777]], [[89.72486111111111, 24.212638888888886], [89.72986111111112, 24.219305555555554], [89.71875, 24.21625], [89.71291666666667, 24.204305555555553], [89.72486111111111, 24.212638888888886]], [[89.70375, 24.11875], [89.70930555555556, 24.11208333333333], [89.72513888888889, 24.13097222222222], [89.71347222222222, 24.141805555555553], [89.70986111111111, 24.159027777777776], [89.70069444444445, 24.143194444444443], [89.70375, 24.11875]], [[89.71763888888889, 24.200138888888887], [89.72291666666666, 24.205972222222222], [89.71208333333334, 24.198194444444443], [89.71763888888889, 24.200138888888887]], [[89.69541666666667, 24.09236111111111], [89.7051388888889, 24.08513888888889], [89.70847222222223, 24.088472222222222], [89.7051388888889, 24.102361111111108], [89.69375000000001, 24.101527777777775], [89.69541666666667, 24.09236111111111]], [[89.68291666666667, 24.10597222222222], [89.70708333333333, 24.10736111111111], [89.69791666666667, 24.12097222222222], [89.6973611111111, 24.149027777777775], [89.67458333333333, 24.129583333333333], [89.67291666666667, 24.121527777777775], [89.67930555555556, 24.11125], [89.68013888888889, 24.123472222222222], [89.68291666666667, 24.10597222222222]], [[89.70458333333333, 24.15375], [89.70625, 24.158472222222223], [89.69902777777779, 24.146527777777777], [89.70458333333333, 24.15375]], [[89.69847222222222, 24.041527777777777], [89.70152777777778, 24.057916666666664], [89.69291666666668, 24.045416666666664], [89.69847222222222, 24.041527777777777]], [[89.68736111111112, 24.04847222222222], [89.69097222222223, 24.046527777777776], [89.69541666666667, 24.057916666666664], [89.68736111111112, 24.04847222222222]], [[89.68430555555555, 24.149027777777775], [89.69291666666668, 24.16263888888889], [89.67652777777778, 24.142083333333332], [89.68430555555555, 24.149027777777775]]], [[[89.73071601941747, 24.306430240920534], [89.7226388888889, 24.277083333333334], [89.70930555555556, 24.267083333333332], [89.72152777777778, 24.277638888888887], [89.72819444444444, 24.305416666666666], [89.73071601941747, 24.306430240920534]]], [[[89.71501436781612, 24.293596743295062], [89.71986111111111, 24.301527777777775], [89.71486111111112, 24.33236111111111], [89.72736111111111, 24.345972222222223], [89.72097222222223, 24.374027777777776], [89.72986111111112, 24.381527777777777], [89.74541666666667, 24.379305555555554], [89.7520212600869, 24.389920080695216], [89.74652777777779, 24.37875], [89.73041666666667, 24.381249999999998], [89.72208333333333, 24.374027777777776], [89.72819444444444, 24.344027777777775], [89.71541666666667, 24.332638888888887], [89.72041666666667, 24.301527777777775], [89.71501436781612, 24.293596743295062]]], [[[89.75310646790486, 24.392126669925055], [89.74763888888889, 24.41208333333333], [89.74319444444444, 24.407083333333333], [89.7226388888889, 24.421249999999997], [89.71597222222222, 24.440416666666664], [89.72180555555556, 24.46013888888889], [89.71347222222222, 24.47986111111111], [89.69847222222222, 24.48097222222222], [89.68847222222223, 24.492083333333333], [89.70458333333333, 24.481805555555553], [89.68625, 24.527916666666666], [89.69180555555556, 24.52208333333333], [89.66791666666667, 24.558194444444442], [89.66319444444444, 24.58513888888889], [89.65347222222222, 24.594027777777775], [89.66430555555556, 24.58625], [89.66625, 24.596527777777776], [89.69513888888889, 24.602083333333333], [89.71736111111112, 24.579583333333332], [89.71847222222223, 24.587916666666665], [89.70541666666666, 24.594027777777775], [89.70291666666667, 24.60347222222222], [89.70680555555556, 24.594027777777775], [89.71486111111112, 24.593194444444443], [89.71013888888889, 24.60486111111111], [89.72898135736273, 24.59157221229272], [89.71680555555555, 24.594305555555554], [89.72652777777778, 24.574305555555554], [89.73236111111112, 24.58486111111111], [89.73068408443409, 24.59037134162134], [89.73652777777778, 24.58625], [89.74625, 24.59986111111111], [89.72847222222222, 24.608472222222222], [89.74541666666667, 24.605138888888888], [89.7526388888889, 24.59347222222222], [89.73819444444445, 24.57986111111111], [89.75958333333334, 24.560416666666665], [89.76569444444445, 24.539861111111108], [89.76013888888889, 24.549027777777777], [89.75902777777777, 24.538194444444443], [89.75208333333333, 24.53736111111111], [89.75763888888889, 24.54847222222222], [89.75402777777778, 24.55875], [89.74458333333334, 24.568194444444444], [89.73625, 24.566805555555554], [89.74680555555555, 24.54375], [89.71902777777778, 24.494305555555552], [89.72736111111111, 24.477916666666665], [89.74291666666667, 24.46708333333333], [89.74236111111111, 24.455694444444443], [89.7551388888889, 24.455416666666665], [89.74736111111112, 24.435138888888886], [89.73652777777778, 24.44125], [89.73125, 24.43347222222222], [89.73930555555556, 24.417638888888888], [89.74402777777777, 24.41736111111111], [89.74319444444444, 24.424027777777777], [89.74736111111112, 24.41708333333333], [89.74347222222222, 24.42625], [89.74930555555555, 24.424305555555556], [89.76597222222223, 24.37569444444444], [89.76152777777779, 24.38597222222222], [89.75736111111111, 24.366249999999997], [89.75958333333334, 24.38958333333333], [89.75486111111111, 24.395694444444445], [89.75310646790486, 24.392126669925055]], [[89.74180555555556, 24.567916666666665], [89.73625, 24.585694444444442], [89.72875, 24.57208333333333], [89.74180555555556, 24.567916666666665]], [[89.71013888888889, 24.54513888888889], [89.71236111111111, 24.541249999999998], [89.72097222222223, 24.545972222222222], [89.72319444444445, 24.554305555555555], [89.73041666666667, 24.54986111111111], [89.72986111111112, 24.554583333333333], [89.7201388888889, 24.56236111111111], [89.71013888888889, 24.54513888888889]], [[89.71875, 24.522916666666664], [89.71875, 24.506249999999998], [89.72958333333334, 24.531805555555554], [89.71875, 24.522916666666664]], [[89.69847222222222, 24.55486111111111], [89.70465601133284, 24.557180032027592], [89.70236111111112, 24.550694444444442], [89.70902777777778, 24.54513888888889], [89.71125, 24.552638888888886], [89.71652777777778, 24.561527777777776], [89.71041666666667, 24.566805555555554], [89.71819444444445, 24.56319444444444], [89.70875000000001, 24.568749999999998], [89.70505684481951, 24.558312822315987], [89.70375, 24.57347222222222], [89.69847222222222, 24.55486111111111]], [[89.70263888888888, 24.53013888888889], [89.69791666666667, 24.54236111111111], [89.68986111111111, 24.540416666666665], [89.70069444444445, 24.52236111111111], [89.70263888888888, 24.53013888888889]], [[89.68958333333333, 24.54986111111111], [89.68097222222222, 24.560694444444444], [89.68375, 24.547638888888887], [89.68958333333333, 24.54986111111111]], [[89.68847222222223, 24.582916666666666], [89.68958333333333, 24.573194444444443], [89.68902777777778, 24.59236111111111], [89.67791666666668, 24.59708333333333], [89.68041666666667, 24.584027777777777], [89.68847222222223, 24.582916666666666]], [[89.68409428794993, 24.569117762128293], [89.68180555555556, 24.574305555555554], [89.67875000000001, 24.56375], [89.68486111111112, 24.56375], [89.68409428794993, 24.569117762128293]], [[89.67458333333333, 24.56319444444444], [89.67347222222223, 24.574861111111108], [89.66958333333334, 24.569305555555555], [89.67458333333333, 24.56319444444444]]], [[[89.72930555555556, 24.14597222222222], [89.73302493337434, 24.166694470069697], [89.73569444444445, 24.163194444444443], [89.72930555555556, 24.14597222222222]]], [[[89.72999954312866, 24.17066109283626], [89.72291666666666, 24.17736111111111], [89.71375, 24.17236111111111], [89.74236111111111, 24.20486111111111], [89.72319444444445, 24.179583333333333], [89.72999954312866, 24.17066109283626]]], [[[89.75541666666668, 24.49736111111111], [89.74319444444444, 24.49513888888889], [89.74152777777778, 24.511527777777776], [89.74486111111112, 24.50236111111111], [89.75541666666668, 24.49736111111111]]], [[[89.65263888888889, 24.08513888888889], [89.65402777777778, 24.077916666666667], [89.63541666666667, 24.102638888888887], [89.65263888888889, 24.08513888888889]]], [[[89.51458333333333, 24.489097222222224], [89.51347222222222, 24.48875], [89.51375, 24.50236111111111], [89.52569444444444, 24.51097222222222], [89.51597222222223, 24.51986111111111], [89.53597222222223, 24.526805555555555], [89.52458333333334, 24.531805555555554], [89.52709504979497, 24.537307410661967], [89.52597222222222, 24.531805555555554], [89.53680555555556, 24.526805555555555], [89.51680555555556, 24.519583333333333], [89.52680555555555, 24.510694444444443], [89.51458333333333, 24.501527777777778], [89.51458333333333, 24.489097222222224]]], [[[89.54250353784352, 24.470797840774214], [89.54486111111112, 24.469583333333333], [89.54806533646322, 24.449289906103285], [89.54680555555557, 24.44875], [89.54250353784352, 24.470797840774214]]], [[[89.56665598290601, 24.447574786324825], [89.56736111111111, 24.44875], [89.5723611111111, 24.437083333333334], [89.58680555555556, 24.436805555555555], [89.59008896569381, 24.432427675371223], [89.57263888888889, 24.435972222222222], [89.56708333333333, 24.448194444444443], [89.56665598290601, 24.447574786324825]]], [[[89.6118386105312, 24.439277719786592], [89.61506006006006, 24.452807807807815], [89.61597222222223, 24.44013888888889], [89.6118386105312, 24.439277719786592]]], [[[89.61679345634201, 24.47993521879411], [89.61430555555556, 24.483749999999997], [89.62236111111112, 24.48875], [89.61875, 24.492638888888887], [89.62347222222222, 24.490138888888886], [89.61679345634201, 24.47993521879411]]], [[[89.58332424714433, 24.407062564901338], [89.58041666666666, 24.400416666666665], [89.59152777777778, 24.39125], [89.60625, 24.391527777777778], [89.61097222222223, 24.37708333333333], [89.6070542929293, 24.37459343434343], [89.60986111111112, 24.379583333333333], [89.60625, 24.38986111111111], [89.58847222222222, 24.39097222222222], [89.57819444444445, 24.401527777777776], [89.58332424714433, 24.407062564901338]]], [[[89.59094016477526, 24.364352680002554], [89.58125, 24.358194444444443], [89.58625, 24.34986111111111], [89.59736111111111, 24.34736111111111], [89.59773918064673, 24.34395848529054], [89.58430555555556, 24.349027777777778], [89.57986111111111, 24.359305555555554], [89.59094016477526, 24.364352680002554]]], [[[89.59172101449275, 24.336841787439614], [89.57680555555555, 24.335694444444442], [89.59041666666667, 24.318194444444444], [89.58513888888889, 24.30486111111111], [89.58563888888888, 24.30436111111112], [89.58375000000001, 24.305416666666666], [89.58875, 24.317916666666665], [89.57541666666667, 24.33597222222222], [89.59172101449275, 24.336841787439614]]], [[[89.59118879472692, 24.28990348399246], [89.58236111111111, 24.283194444444444], [89.58763888888889, 24.27263888888889], [89.5798252688172, 24.256425627240137], [89.58541666666667, 24.27236111111111], [89.58041666666666, 24.285138888888888], [89.59118879472692, 24.28990348399246]]], [[[89.57678988603989, 24.247774786324797], [89.57930555555556, 24.230416666666667], [89.60319444444444, 24.224305555555553], [89.60421223958335, 24.224776475694448], [89.60347222222222, 24.224305555555553], [89.60237511181114, 24.20647751137557], [89.60069444444444, 24.207083333333333], [89.60291666666667, 24.222638888888888], [89.58041666666666, 24.227916666666665], [89.57430555555555, 24.240694444444443], [89.57678988603989, 24.247774786324797]]], [[[89.6039121315193, 24.20592346938775], [89.62347222222222, 24.201805555555556], [89.62902777777778, 24.19236111111111], [89.62756801604668, 24.191688852419162], [89.62458333333333, 24.19847222222222], [89.6039121315193, 24.20592346938775]]], [[[89.62574903151959, 24.19085116217642], [89.60791666666667, 24.18263888888889], [89.60541666666667, 24.16597222222222], [89.58986111111112, 24.155694444444443], [89.60375, 24.138194444444444], [89.600830078125, 24.135424262152778], [89.60208333333334, 24.137361111111108], [89.59041666666667, 24.146805555555556], [89.58625, 24.15958333333333], [89.60375, 24.166249999999998], [89.60513888888889, 24.18347222222222], [89.62574903151959, 24.19085116217642]]], [[[89.5980317174364, 24.132769407140515], [89.59291666666667, 24.127916666666664], [89.59597222222223, 24.116527777777776], [89.6126388888889, 24.096249999999998], [89.59930555555556, 24.103194444444444], [89.58791666666667, 24.127916666666664], [89.5501388888889, 24.13625], [89.54347222222222, 24.129305555555554], [89.54347222222222, 24.136210317460314], [89.53430555555556, 24.134027777777778], [89.52652777777779, 24.148194444444442], [89.53069444444445, 24.151249999999997], [89.53791666666667, 24.142916666666665], [89.54319444444445, 24.14986111111111], [89.53430555555556, 24.16708333333333], [89.53958333333334, 24.166805555555555], [89.53708333333334, 24.17236111111111], [89.54458333333334, 24.167638888888888], [89.54069444444444, 24.164583333333333], [89.54625, 24.148194444444442], [89.56152777777778, 24.14486111111111], [89.55875, 24.137916666666666], [89.5980317174364, 24.132769407140515]], [[89.55597222222222, 24.142916666666665], [89.54347222222222, 24.149027777777775], [89.53986111111111, 24.143194444444443], [89.55597222222222, 24.142916666666665]]], [[[89.62097222222222, 24.09847222222222], [89.63708333333334, 24.086805555555554], [89.63208333333334, 24.084305555555556], [89.61680555555556, 24.096249999999998], [89.62236111111112, 24.094583333333333], [89.61430555555556, 24.104305555555555], [89.61819444444444, 24.117083333333333], [89.62097222222222, 24.09847222222222]]], [[[89.61847222222222, 24.250138888888888], [89.62541666666667, 24.241527777777776], [89.60069444444444, 24.251805555555553], [89.61847222222222, 24.250138888888888]]], [[[89.61291666666666, 24.353576388888882], [89.61291666666666, 24.34736111111111], [89.60675065876153, 24.343707180500655], [89.60513888888889, 24.346527777777776], [89.61291666666666, 24.353576388888882]]], [[[89.60291666666667, 24.519027777777776], [89.61680555555556, 24.515694444444442], [89.61180555555556, 24.495694444444442], [89.61847222222222, 24.492916666666666], [89.61125, 24.49513888888889], [89.61597222222223, 24.51458333333333], [89.60236111111111, 24.518749999999997], [89.59930555555556, 24.545416666666664], [89.60291666666667, 24.519027777777776]]], [[[89.4904575686442, 24.260879392516724], [89.4876388888889, 24.244305555555552], [89.49625, 24.242083333333333], [89.49708333333334, 24.222916666666666], [89.50319444444445, 24.21597222222222], [89.49652777777779, 24.222638888888888], [89.49569444444445, 24.241805555555555], [89.48736111111111, 24.242638888888887], [89.48791666666666, 24.25847222222222], [89.4904575686442, 24.260879392516724]]], [[[89.46930555555556, 24.236527777777777], [89.47981654155916, 24.22961265540699], [89.47875, 24.229027777777777], [89.45902777777778, 24.239027777777775], [89.46930555555556, 24.236527777777777]]], [[[89.48743554193423, 24.23362302977233], [89.48819444444445, 24.234027777777776], [89.49625, 24.225416666666664], [89.49375, 24.216527777777777], [89.48652777777778, 24.222638888888888], [89.48375, 24.211805555555554], [89.46875, 24.206249999999997], [89.48319444444445, 24.212083333333332], [89.47875, 24.21986111111111], [89.49208333333334, 24.225694444444443], [89.48743554193423, 24.23362302977233]]], [[[89.47069444444445, 24.270138888888887], [89.45625, 24.282916666666665], [89.45236111111112, 24.26597222222222], [89.45041666666667, 24.27375], [89.45625, 24.283749999999998], [89.47069444444445, 24.270138888888887]]], [[[89.31402777777778, 24.365972222222222], [89.31347222222223, 24.35097222222222], [89.30791666666667, 24.374583333333334], [89.28875000000001, 24.37486111111111], [89.29597222222222, 24.379305555555554], [89.30875, 24.37486111111111], [89.31402777777778, 24.365972222222222]]]]}}