{"type": "Feature", "properties": {}, "geometry": {"type": "MultiPolygon", "coordinates": [[[[89.55027821407795, 24.657198225712627], [89.54819444444445, 24.66125], [89.55430555555556, 24.667638888888888], [89.5501388888889, 24.677638888888886], [89.55902777777779, 24.680416666666666], [89.56152777777778, 24.68875], [89.57208333333334, 24.686527777777776], [89.55791666666667, 24.693194444444444], [89.55458333333334, 24.704305555555553], [89.56375, 24.71097222222222], [89.55791666666667, 24.697916666666664], [89.56458333333333, 24.702916666666667], [89.57847222222223, 24.683194444444442], [89.58736111111111, 24.686805555555555], [89.57986111111111, 24.69347222222222], [89.58652777777777, 24.69458333333333], [89.57736111111112, 24.697916666666664], [89.58652777777777, 24.696805555555553], [89.58069444444445, 24.699861111111108], [89.59125, 24.702916666666667], [89.59652777777778, 24.696805555555553], [89.58680555555556, 24.694305555555555], [89.60458333333334, 24.69486111111111], [89.60652777777779, 24.68263888888889], [89.62013888888889, 24.687638888888888], [89.6126388888889, 24.664305555555554], [89.62069444444445, 24.665694444444444], [89.61902777777777, 24.673194444444444], [89.62736111111111, 24.67736111111111], [89.62798895084676, 24.66857135481206], [89.63263888888889, 24.669305555555553], [89.62847222222223, 24.673194444444444], [89.63430555555556, 24.671249999999997], [89.63180555555556, 24.691527777777775], [89.64569444444444, 24.701805555555556], [89.63736111111112, 24.716805555555553], [89.65930555555556, 24.72375], [89.65597222222223, 24.747916666666665], [89.66652777777779, 24.74736111111111], [89.66402777777778, 24.75486111111111], [89.67097222222222, 24.755138888888887], [89.67458333333333, 24.765694444444442], [89.68597222222222, 24.765416666666667], [89.69763888888889, 24.75375], [89.6901388888889, 24.76458333333333], [89.6751388888889, 24.767638888888886], [89.67486111111111, 24.781805555555554], [89.68069444444444, 24.783749999999998], [89.73347222222222, 24.769305555555555], [89.73625, 24.75347222222222], [89.74180555555556, 24.75847222222222], [89.73736111111111, 24.764027777777777], [89.74069444444444, 24.774305555555554], [89.75347222222223, 24.76597222222222], [89.77180555555556, 24.772916666666664], [89.78208333333333, 24.760694444444443], [89.7826388888889, 24.748749999999998], [89.77708333333334, 24.746805555555554], [89.78319444444445, 24.741527777777776], [89.77236111111111, 24.71736111111111], [89.78541666666666, 24.700416666666666], [89.79041666666667, 24.704027777777778], [89.79013888888889, 24.686249999999998], [89.79875, 24.680694444444445], [89.78319444444445, 24.669305555555553], [89.7851388888889, 24.62569444444444], [89.77402777777777, 24.624305555555555], [89.76875, 24.63347222222222], [89.77375, 24.624305555555555], [89.76736111111111, 24.623472222222222], [89.76680555555556, 24.62986111111111], [89.76402777777778, 24.624027777777776], [89.77041666666666, 24.60458333333333], [89.76180555555555, 24.614027777777775], [89.75736111111111, 24.610416666666666], [89.75819444444444, 24.603749999999998], [89.76041666666667, 24.611805555555556], [89.76541666666667, 24.603749999999998], [89.76152777777779, 24.595416666666665], [89.77097222222223, 24.603194444444444], [89.78902777777778, 24.57208333333333], [89.76402777777778, 24.559583333333332], [89.76958333333333, 24.539861111111108], [89.74625, 24.53736111111111], [89.74763888888889, 24.520416666666666], [89.73819444444445, 24.522916666666664], [89.73430555555557, 24.517638888888886], [89.75763888888889, 24.50125], [89.74736111111112, 24.483194444444443], [89.75763888888889, 24.482916666666664], [89.74236111111111, 24.470694444444444], [89.74236111111111, 24.455694444444443], [89.7551388888889, 24.455416666666665], [89.74652777777779, 24.430416666666666], [89.76597222222223, 24.37708333333333], [89.7526388888889, 24.36097222222222], [89.75180555555556, 24.350416666666664], [89.77125000000001, 24.330972222222222], [89.77402777777777, 24.301805555555553], [89.79013888888889, 24.276527777777776], [89.78291666666667, 24.236527777777777], [89.79847222222223, 24.174305555555556], [89.78013888888889, 24.166249999999998], [89.78763888888889, 24.157916666666665], [89.80291666666668, 24.15958333333333], [89.80513888888889, 24.14708333333333], [89.82013888888889, 24.140694444444442], [89.81625, 24.10347222222222], [89.82486111111112, 24.087083333333332], [89.81708333333333, 24.06347222222222], [89.78430555555556, 24.04097222222222], [89.77708333333334, 24.029027777777777], [89.72180555555556, 24.01347222222222], [89.70291666666667, 24.02375], [89.69875, 24.03847222222222], [89.68291666666667, 24.034305555555555], [89.68458333333334, 24.05847222222222], [89.6601388888889, 24.075416666666666], [89.63736111111112, 24.086805555555554], [89.62986111111111, 24.083194444444445], [89.61652777777778, 24.096805555555555], [89.60458333333334, 24.096527777777776], [89.58069444444445, 24.111527777777777], [89.55930555555555, 24.11125], [89.55541666666667, 24.119027777777777], [89.56430555555556, 24.12236111111111], [89.55763888888889, 24.12736111111111], [89.54986111111111, 24.129583333333333], [89.54680555555557, 24.124027777777776], [89.54597222222222, 24.131527777777777], [89.53291666666667, 24.130138888888887], [89.52180555555556, 24.154305555555553], [89.52930555555555, 24.158749999999998], [89.52319444444444, 24.16847222222222], [89.53347222222223, 24.166527777777777], [89.5351388888889, 24.172916666666666], [89.5176388888889, 24.179027777777776], [89.51708333333333, 24.18875], [89.52513888888889, 24.19125], [89.52236111111111, 24.19736111111111], [89.51041666666667, 24.199583333333333], [89.50097222222223, 24.21708333333333], [89.48652777777778, 24.215138888888887], [89.48597222222223, 24.20375], [89.46902777777778, 24.201249999999998], [89.46152777777777, 24.22458333333333], [89.47375000000001, 24.219305555555554], [89.47819444444444, 24.22958333333333], [89.47125, 24.234583333333333], [89.45375, 24.227638888888887], [89.44597222222222, 24.232916666666664], [89.45652777777778, 24.233749999999997], [89.46319444444444, 24.250138888888888], [89.46013888888889, 24.262083333333333], [89.44791666666667, 24.268194444444443], [89.43930555555556, 24.25236111111111], [89.42458333333333, 24.250416666666666], [89.42930555555556, 24.26736111111111], [89.41763888888889, 24.292638888888888], [89.41902777777779, 24.304583333333333], [89.42541666666666, 24.306805555555552], [89.41958333333334, 24.311527777777776], [89.42236111111112, 24.317916666666665], [89.40013888888889, 24.321527777777778], [89.39763888888889, 24.337638888888886], [89.3751388888889, 24.338194444444444], [89.37819444444445, 24.34819444444444], [89.36625000000001, 24.353749999999998], [89.35347222222222, 24.34819444444444], [89.31319444444445, 24.35097222222222], [89.31236111111112, 24.36208333333333], [89.31097222222222, 24.357083333333332], [89.28902777777778, 24.372083333333332], [89.30375000000001, 24.374583333333334], [89.28347222222223, 24.379027777777775], [89.2851388888889, 24.420416666666664], [89.27180555555556, 24.42736111111111], [89.2598611111111, 24.423194444444444], [89.24708333333334, 24.42736111111111], [89.25125, 24.436249999999998], [89.27125000000001, 24.44486111111111], [89.28125, 24.456527777777776], [89.28347222222223, 24.484583333333333], [89.30569444444444, 24.499583333333334], [89.32125, 24.52986111111111], [89.33763888888889, 24.544305555555553], [89.34152777777778, 24.56319444444444], [89.37180555555555, 24.554305555555555], [89.39208333333333, 24.55736111111111], [89.39652777777778, 24.55125], [89.40875, 24.554027777777776], [89.40986111111111, 24.560972222222222], [89.42486111111111, 24.560972222222222], [89.4376388888889, 24.54486111111111], [89.43736111111112, 24.55013888888889], [89.44430555555556, 24.54986111111111], [89.47430555555556, 24.540416666666665], [89.47291666666666, 24.551805555555553], [89.50208333333333, 24.555138888888887], [89.49958333333333, 24.549027777777777], [89.50652777777778, 24.545694444444443], [89.51430555555555, 24.553472222222222], [89.50402777777778, 24.55625], [89.50847222222222, 24.556805555555552], [89.52236111111111, 24.551527777777775], [89.51958333333333, 24.53597222222222], [89.53208333333333, 24.546805555555554], [89.53069444444445, 24.56347222222222], [89.54652777777778, 24.547638888888887], [89.55319444444444, 24.548194444444444], [89.55513888888889, 24.555416666666666], [89.5676388888889, 24.546805555555554], [89.58902777777779, 24.55097222222222], [89.60430555555556, 24.569305555555555], [89.59930555555556, 24.594305555555554], [89.60402777777779, 24.607083333333332], [89.57375, 24.623472222222222], [89.57930555555556, 24.61958333333333], [89.56902777777778, 24.623472222222222], [89.56347222222223, 24.617638888888887], [89.54930555555556, 24.617638888888887], [89.54986111111111, 24.623749999999998], [89.55958333333334, 24.62569444444444], [89.55430555555556, 24.64125], [89.56180555555555, 24.65236111111111], [89.55319444444444, 24.651527777777776], [89.55060823754789, 24.65655651340997], [89.55180555555556, 24.651527777777776], [89.54569444444445, 24.651805555555555], [89.55027821407795, 24.657198225712627]], [[89.76319444444445, 24.74986111111111], [89.77513888888889, 24.733194444444443], [89.76791666666666, 24.75125], [89.74930555555555, 24.755138888888887], [89.75458333333333, 24.748194444444444], [89.75708333333334, 24.753194444444443], [89.76319444444445, 24.74986111111111]], [[89.77125000000001, 24.594305555555554], [89.76652777777778, 24.586527777777775], [89.77375, 24.589583333333334], [89.77125000000001, 24.594305555555554]], [[89.75819444444444, 24.75597222222222], [89.76208333333334, 24.75875], [89.75597222222223, 24.765416666666667], [89.75819444444444, 24.75597222222222]], [[89.75763888888889, 24.61736111111111], [89.75569444444444, 24.612916666666667], [89.76152777777779, 24.614305555555553], [89.7598611111111, 24.61986111111111], [89.75291666666666, 24.617638888888887], [89.75763888888889, 24.61736111111111]], [[89.75402777777778, 24.603194444444444], [89.75625000000001, 24.59819444444444], [89.75597222222223, 24.61097222222222], [89.75402777777778, 24.603194444444444]], [[89.74986111111112, 24.65597222222222], [89.75486111111111, 24.65513888888889], [89.75319444444445, 24.661527777777778], [89.74986111111112, 24.65597222222222]], [[89.75347222222223, 24.649305555555554], [89.74680555555555, 24.651805555555555], [89.75319444444445, 24.643749999999997], [89.75347222222223, 24.649305555555554]], [[89.74430555555556, 24.391805555555553], [89.75236111111111, 24.39125], [89.74958333333333, 24.409305555555555], [89.74291666666667, 24.406527777777775], [89.74597222222222, 24.400416666666665], [89.73069444444445, 24.395138888888887], [89.70236111111112, 24.393194444444443], [89.71291666666667, 24.39125], [89.71291666666667, 24.382916666666667], [89.71513888888889, 24.392083333333332], [89.73680555555556, 24.39597222222222], [89.73458333333333, 24.392638888888886], [89.74430555555556, 24.391805555555553]], [[89.74180555555556, 24.741527777777776], [89.74541666666667, 24.73763888888889], [89.74847222222222, 24.74458333333333], [89.74180555555556, 24.741527777777776]], [[89.74337087087088, 24.642083333333332], [89.74736111111112, 24.642083333333332], [89.74597222222222, 24.651249999999997], [89.74337087087088, 24.642083333333332]], [[89.72258711668658, 24.64133927386167], [89.72597222222223, 24.644583333333333], [89.72513888888889, 24.635416666666664], [89.72847222222222, 24.638749999999998], [89.73069444444445, 24.63375], [89.72680555555556, 24.643749999999997], [89.73736111111111, 24.63847222222222], [89.7376388888889, 24.64875], [89.74347222222222, 24.649583333333332], [89.73263888888889, 24.654027777777777], [89.73708333333333, 24.64708333333333], [89.72541666666667, 24.64875], [89.72258711668658, 24.64133927386167]], [[89.73125, 24.66236111111111], [89.73486111111112, 24.65625], [89.73958333333334, 24.670694444444443], [89.73125, 24.66236111111111]], [[89.71875, 24.681805555555552], [89.72402777777778, 24.679305555555555], [89.71652777777778, 24.678194444444443], [89.72097222222223, 24.677916666666665], [89.71597222222222, 24.67236111111111], [89.72597222222223, 24.65986111111111], [89.72652777777778, 24.678472222222222], [89.72359913028045, 24.684524760383386], [89.72986111111112, 24.687916666666666], [89.72763888888889, 24.693194444444444], [89.72569444444444, 24.68847222222222], [89.72347718253968, 24.684776785714284], [89.71819444444445, 24.69569444444444], [89.71875, 24.681805555555552]], [[89.71347222222222, 24.358749999999997], [89.70930555555556, 24.359027777777776], [89.71458333333334, 24.351805555555554], [89.72208333333333, 24.364583333333332], [89.71819444444445, 24.38513888888889], [89.71041666666667, 24.36958333333333], [89.72069444444445, 24.369027777777777], [89.71347222222222, 24.358749999999997]], [[89.71125, 24.470416666666665], [89.71208333333334, 24.465138888888887], [89.71013888888889, 24.471249999999998], [89.70013888888889, 24.46847222222222], [89.70541666666666, 24.46763888888889], [89.70291666666667, 24.462916666666665], [89.67902777777778, 24.46736111111111], [89.68847222222223, 24.461805555555554], [89.68152777777777, 24.45736111111111], [89.68986111111111, 24.459027777777777], [89.68708333333333, 24.442916666666665], [89.69430555555556, 24.45236111111111], [89.69402777777778, 24.445416666666667], [89.70208333333333, 24.45097222222222], [89.70986111111111, 24.441527777777775], [89.72097222222223, 24.461805555555554], [89.71569444444445, 24.47458333333333], [89.71125, 24.470416666666665]], [[89.70902777777778, 24.68208333333333], [89.71402777777779, 24.68097222222222], [89.71180555555556, 24.68986111111111], [89.70902777777778, 24.68208333333333]], [[89.69458333333334, 24.444027777777777], [89.67847222222223, 24.428194444444443], [89.69319444444444, 24.43875], [89.6973611111111, 24.43263888888889], [89.68902777777778, 24.42236111111111], [89.69680555555556, 24.41875], [89.69791666666667, 24.431805555555552], [89.70208333333333, 24.434583333333332], [89.70458333333333, 24.428472222222222], [89.70736111111111, 24.437083333333334], [89.71037037037037, 24.430833333333336], [89.70708333333333, 24.440694444444443], [89.69847222222222, 24.436527777777776], [89.70263888888888, 24.446805555555553], [89.69458333333334, 24.444027777777777]], [[89.71082472959685, 24.429470255653886], [89.70263888888888, 24.423194444444444], [89.71041666666667, 24.427638888888886], [89.71402777777779, 24.41986111111111], [89.71082472959685, 24.429470255653886]], [[89.71236111111111, 24.437083333333334], [89.71180555555556, 24.43125], [89.71291666666667, 24.441527777777775], [89.71236111111111, 24.437083333333334]], [[89.69041666666666, 24.293194444444442], [89.70125, 24.297916666666666], [89.69708333333334, 24.290694444444444], [89.70597222222223, 24.29097222222222], [89.70819444444444, 24.299305555555556], [89.70236111111112, 24.29986111111111], [89.70291666666667, 24.306805555555552], [89.68597222222222, 24.302916666666665], [89.67597222222223, 24.284305555555555], [89.68263888888889, 24.28597222222222], [89.67902777777778, 24.28847222222222], [89.68875, 24.29986111111111], [89.69041666666666, 24.293194444444442]], [[89.69041666666666, 24.481527777777778], [89.6973611111111, 24.47458333333333], [89.70597222222223, 24.478194444444444], [89.69041666666666, 24.481527777777778]], [[89.69375000000001, 24.412916666666664], [89.69708333333334, 24.40986111111111], [89.69847222222222, 24.415416666666665], [89.69375000000001, 24.412916666666664]], [[89.69291666666668, 24.283472222222223], [89.69652777777777, 24.291249999999998], [89.68625, 24.28236111111111], [89.69291666666668, 24.283472222222223]], [[89.68541666666667, 24.48763888888889], [89.69097222222223, 24.484583333333333], [89.68736111111112, 24.491527777777776], [89.68541666666667, 24.48763888888889]], [[89.68652777777778, 24.372916666666665], [89.68263888888889, 24.371527777777775], [89.69069444444445, 24.371805555555554], [89.68652777777778, 24.372916666666665]], [[89.68402777777779, 24.429027777777776], [89.68430555555555, 24.42375], [89.68986111111111, 24.428472222222222], [89.68402777777779, 24.429027777777776]], [[89.67847222222223, 24.448194444444443], [89.6876388888889, 24.454583333333332], [89.67430555555556, 24.44763888888889], [89.67847222222223, 24.448194444444443]], [[89.68347222222222, 24.406527777777775], [89.67930555555556, 24.409027777777776], [89.67097222222222, 24.395694444444445], [89.68041666666667, 24.39486111111111], [89.6726388888889, 24.395694444444445], [89.68347222222222, 24.406527777777775]], [[89.67597222222223, 24.53458333333333], [89.68180555555556, 24.529305555555553], [89.68236111111112, 24.536805555555553], [89.67680555555556, 24.539305555555554], [89.67597222222223, 24.53458333333333]], [[89.67430555555556, 24.75375], [89.67986111111111, 24.75986111111111], [89.67569444444445, 24.763194444444444], [89.67430555555556, 24.75375]], [[89.66958333333334, 24.525416666666665], [89.66902777777779, 24.518472222222222], [89.67375, 24.519027777777776], [89.6776388888889, 24.52986111111111], [89.66958333333334, 24.525416666666665]], [[89.66597222222222, 24.38625], [89.67541666666666, 24.38347222222222], [89.66819444444445, 24.38986111111111], [89.66597222222222, 24.38625]], [[89.67458333333333, 24.49736111111111], [89.66819444444445, 24.49513888888889], [89.67152777777778, 24.490416666666665], [89.67458333333333, 24.49736111111111]], [[89.66902777777779, 24.321527777777778], [89.66513888888889, 24.31736111111111], [89.67125, 24.316527777777775], [89.6726388888889, 24.325694444444444], [89.66902777777779, 24.321527777777778]], [[89.66736111111112, 24.302638888888886], [89.66986111111112, 24.29847222222222], [89.67236111111112, 24.305138888888887], [89.66736111111112, 24.302638888888886]], [[89.66847222222222, 24.48736111111111], [89.66569444444444, 24.483749999999997], [89.67180555555557, 24.480138888888888], [89.66847222222222, 24.48736111111111]], [[89.66319444444444, 24.454583333333332], [89.66291666666667, 24.44847222222222], [89.65513888888889, 24.44625], [89.66986111111112, 24.442638888888887], [89.66319444444444, 24.454583333333332]], [[89.6601388888889, 24.434305555555554], [89.66402777777778, 24.428472222222222], [89.66458333333334, 24.435694444444444], [89.6601388888889, 24.434305555555554]], [[89.65454467918623, 24.574958294209704], [89.65652777777778, 24.566805555555554], [89.66319444444444, 24.575694444444444], [89.65454467918623, 24.574958294209704]], [[89.65958333333333, 24.520416666666666], [89.65847222222223, 24.515416666666667], [89.66291666666667, 24.52347222222222], [89.65958333333333, 24.520416666666666]], [[89.63513888888889, 24.669305555555553], [89.63763888888889, 24.65375], [89.63875, 24.668194444444442], [89.64597222222223, 24.664583333333333], [89.64069444444445, 24.657916666666665], [89.64375, 24.650972222222222], [89.65375, 24.657638888888886], [89.65097222222222, 24.644305555555555], [89.6576388888889, 24.643749999999997], [89.64541666666666, 24.640694444444442], [89.65791666666667, 24.639027777777777], [89.65513888888889, 24.63097222222222], [89.6601388888889, 24.62708333333333], [89.66152777777778, 24.642638888888886], [89.65347222222222, 24.66375], [89.64013888888888, 24.673194444444444], [89.63513888888889, 24.669305555555553]], [[89.64930555555556, 24.35986111111111], [89.65708333333333, 24.357083333333332], [89.66041666666666, 24.36375], [89.65013888888889, 24.365138888888886], [89.65458333333333, 24.36097222222222], [89.64930555555556, 24.35986111111111]], [[89.65430555555555, 24.430416666666666], [89.65263888888889, 24.42625], [89.65986111111111, 24.42513888888889], [89.65430555555555, 24.430416666666666]], [[89.65180555555555, 24.40986111111111], [89.65902777777778, 24.41236111111111], [89.65791666666667, 24.419305555555553], [89.64069444444445, 24.416527777777777], [89.65180555555555, 24.40986111111111]], [[89.65319444444445, 24.629305555555554], [89.65291666666667, 24.621527777777775], [89.65374709133218, 24.629001599767307], [89.65319444444445, 24.629305555555554]], [[89.64847222222222, 24.497916666666665], [89.63625, 24.489027777777775], [89.65458333333333, 24.494305555555552], [89.65847222222223, 24.48847222222222], [89.65819444444445, 24.49458333333333], [89.64847222222222, 24.497916666666665]], [[89.65073324022346, 24.618784140285534], [89.64708333333334, 24.619305555555552], [89.65236111111112, 24.614583333333332], [89.64680555555556, 24.61125], [89.65375, 24.610416666666666], [89.65300017768301, 24.6176649490642], [89.65541666666667, 24.616527777777776], [89.6576388888889, 24.62486111111111], [89.65073324022346, 24.618784140285534]], [[89.65458333333333, 24.44875], [89.65680555555556, 24.45208333333333], [89.65069444444444, 24.446527777777778], [89.65458333333333, 24.44875]], [[89.63541666666667, 24.545972222222222], [89.62958333333333, 24.542916666666667], [89.62430555555555, 24.547916666666666], [89.61291666666666, 24.532083333333333], [89.62680555555556, 24.53569444444444], [89.62569444444445, 24.541805555555555], [89.63319444444444, 24.53486111111111], [89.63208333333334, 24.540416666666665], [89.63986111111112, 24.539305555555554], [89.64125, 24.544583333333332], [89.64486111111111, 24.537916666666664], [89.65680555555556, 24.541249999999998], [89.63541666666667, 24.545972222222222]], [[89.65513888888889, 24.48263888888889], [89.64819444444444, 24.484305555555554], [89.64430555555556, 24.478194444444444], [89.65513888888889, 24.48263888888889]], [[89.64375, 24.55597222222222], [89.63986111111112, 24.54847222222222], [89.65513888888889, 24.560138888888886], [89.64375, 24.55597222222222]], [[89.64291666666666, 24.38375], [89.64236111111111, 24.37236111111111], [89.65458333333333, 24.389305555555556], [89.64291666666666, 24.38375]], [[89.65069444444444, 24.512638888888887], [89.64458333333333, 24.51486111111111], [89.64180555555556, 24.506527777777777], [89.64652777777778, 24.51097222222222], [89.64680555555556, 24.502916666666664], [89.64875, 24.511527777777776], [89.65430555555555, 24.50236111111111], [89.65069444444444, 24.512638888888887]], [[89.64791666666667, 24.29736111111111], [89.64819444444444, 24.290694444444444], [89.65236111111112, 24.297083333333333], [89.64791666666667, 24.29736111111111]], [[89.64652777777778, 24.564027777777778], [89.64930555555556, 24.57069444444444], [89.64319444444445, 24.570138888888888], [89.64652777777778, 24.564027777777778]], [[89.64291666666666, 24.443749999999998], [89.64763888888889, 24.440416666666664], [89.64847222222222, 24.44875], [89.64291666666666, 24.443749999999998]], [[89.64208333333333, 24.524027777777775], [89.6451388888889, 24.52125], [89.64625000000001, 24.52875], [89.64208333333333, 24.524027777777775]], [[89.63930555555555, 24.64763888888889], [89.64458333333333, 24.63958333333333], [89.64402777777778, 24.649583333333332], [89.63930555555555, 24.64763888888889]], [[89.63208333333334, 24.59708333333333], [89.63791666666667, 24.584027777777777], [89.64347222222223, 24.590138888888887], [89.63763888888889, 24.580694444444443], [89.64375, 24.580694444444443], [89.64430555555556, 24.591527777777777], [89.63208333333334, 24.59708333333333]], [[89.64402777777778, 24.406805555555554], [89.64097222222223, 24.411805555555553], [89.63680555555555, 24.405416666666664], [89.64402777777778, 24.406805555555554]], [[89.64069444444445, 24.356805555555553], [89.63708333333334, 24.34958333333333], [89.64208333333333, 24.346805555555555], [89.64069444444445, 24.356805555555553]], [[89.63458333333334, 24.643472222222222], [89.63930555555555, 24.63236111111111], [89.64180555555556, 24.643194444444443], [89.63458333333334, 24.650972222222222], [89.63458333333334, 24.643472222222222]], [[89.63791666666667, 24.42513888888889], [89.63847222222222, 24.420416666666664], [89.64125, 24.427916666666665], [89.63791666666667, 24.42513888888889]], [[89.63708333333334, 24.307916666666664], [89.64069444444445, 24.310972222222222], [89.63541666666667, 24.312638888888888], [89.63708333333334, 24.307916666666664]], [[89.63347222222222, 24.533194444444444], [89.62402777777778, 24.534305555555555], [89.6301388888889, 24.527083333333334], [89.63958333333333, 24.533749999999998], [89.63347222222222, 24.533194444444444]], [[89.63069444444444, 24.554583333333333], [89.62819444444445, 24.55097222222222], [89.63847222222222, 24.560694444444444], [89.63069444444444, 24.554583333333333]], [[89.63208333333334, 24.497916666666665], [89.6276388888889, 24.490416666666665], [89.63819444444445, 24.498472222222222], [89.63208333333334, 24.497916666666665]], [[89.63458333333334, 24.372916666666665], [89.63791666666667, 24.366527777777776], [89.63625, 24.37875], [89.63458333333334, 24.372916666666665]], [[89.6251388888889, 24.323194444444443], [89.62791666666666, 24.31736111111111], [89.63208333333334, 24.324861111111108], [89.62569444444445, 24.329027777777778], [89.6251388888889, 24.323194444444443]], [[89.62375, 24.56319444444444], [89.62847222222223, 24.565416666666664], [89.62069444444445, 24.564027777777778], [89.62069444444445, 24.56847222222222], [89.61680555555556, 24.56319444444444], [89.62375, 24.56319444444444]], [[89.61454073899864, 24.60137987352357], [89.61847222222222, 24.608194444444443], [89.61319444444445, 24.61097222222222], [89.61454073899864, 24.60137987352357]], [[89.61457037701464, 24.601168702659603], [89.61541666666668, 24.595138888888886], [89.60958333333333, 24.588472222222222], [89.61652777777778, 24.590138888888887], [89.6151388888889, 24.59847222222222], [89.6276388888889, 24.603749999999998], [89.62291666666667, 24.60736111111111], [89.61457037701464, 24.601168702659603]], [[89.62152777777779, 24.528194444444445], [89.62236111111112, 24.522916666666664], [89.62680555555556, 24.526527777777776], [89.62152777777779, 24.528194444444445]], [[89.62013888888889, 24.480416666666667], [89.62625, 24.474027777777778], [89.62541666666667, 24.481805555555553], [89.62013888888889, 24.480416666666667]], [[89.61902777777777, 24.516527777777778], [89.62236111111112, 24.507638888888888], [89.62430555555555, 24.519583333333333], [89.61902777777777, 24.516527777777778]], [[89.61291666666666, 24.660416666666666], [89.62402777777778, 24.651527777777776], [89.62319444444445, 24.65986111111111], [89.61291666666666, 24.660416666666666]], [[89.61902777777777, 24.644305555555555], [89.61458333333334, 24.638194444444444], [89.62097222222222, 24.640138888888888], [89.61902777777777, 24.644305555555555]], [[89.62041666666667, 24.32986111111111], [89.61486111111111, 24.327638888888888], [89.62069444444445, 24.324861111111108], [89.62041666666667, 24.32986111111111]], [[89.61236111111111, 24.632638888888888], [89.61319444444445, 24.637361111111108], [89.61208333333333, 24.631805555555555], [89.61763888888889, 24.630694444444444], [89.61236111111111, 24.632638888888888]], [[89.61236111111111, 24.587638888888886], [89.61069444444445, 24.581805555555555], [89.61652777777778, 24.589027777777776], [89.61236111111111, 24.587638888888886]], [[89.61625000000001, 24.574583333333333], [89.61486111111111, 24.580694444444443], [89.61236111111111, 24.56986111111111], [89.61625000000001, 24.574583333333333]], [[89.61069444444445, 24.483472222222222], [89.60902777777778, 24.479027777777777], [89.61486111111111, 24.48097222222222], [89.61069444444445, 24.48847222222222], [89.61069444444445, 24.483472222222222]], [[89.61236111111111, 24.67597222222222], [89.60736111111112, 24.678472222222222], [89.60680555555555, 24.673194444444444], [89.61236111111111, 24.67597222222222]], [[89.6101388888889, 24.53486111111111], [89.61069444444445, 24.539027777777775], [89.60763888888889, 24.52986111111111], [89.6101388888889, 24.53486111111111]], [[89.59958333333334, 24.337638888888886], [89.60736111111112, 24.335694444444442], [89.60041666666667, 24.341805555555553], [89.59958333333334, 24.337638888888886]], [[89.58736111111111, 24.674305555555556], [89.58625, 24.68125], [89.57875, 24.682916666666664], [89.57902777777778, 24.66875], [89.59375, 24.664027777777775], [89.60402777777779, 24.669583333333332], [89.59847222222223, 24.67375], [89.58847222222222, 24.66708333333333], [89.58375000000001, 24.670972222222222], [89.58736111111111, 24.674305555555556]], [[89.59680555555556, 24.29347222222222], [89.5951388888889, 24.28736111111111], [89.60263888888889, 24.286527777777778], [89.5976388888889, 24.289583333333333], [89.60013888888889, 24.303472222222222], [89.59680555555556, 24.29347222222222]], [[89.59375, 24.52125], [89.60208333333334, 24.519583333333333], [89.60180555555556, 24.52736111111111], [89.59375, 24.52125]], [[89.59958333333334, 24.64486111111111], [89.60041666666667, 24.651527777777776], [89.58736111111111, 24.64708333333333], [89.59958333333334, 24.64486111111111]], [[89.59375, 24.631805555555555], [89.58791666666667, 24.630138888888887], [89.59569444444445, 24.62597222222222], [89.59375, 24.631805555555555]], [[89.59458333333333, 24.540694444444444], [89.59319444444445, 24.548194444444444], [89.58819444444444, 24.54736111111111], [89.59458333333333, 24.540694444444444]], [[89.58097222222223, 24.374583333333334], [89.58652777777777, 24.369027777777777], [89.59125, 24.378194444444443], [89.58097222222223, 24.374583333333334]], [[89.58402777777778, 24.638194444444444], [89.58625, 24.64486111111111], [89.5826388888889, 24.63625], [89.58875, 24.631527777777777], [89.58402777777778, 24.638194444444444]], [[89.57958333333333, 24.65736111111111], [89.57708333333333, 24.652083333333334], [89.58402777777778, 24.649027777777775], [89.58208333333333, 24.65597222222222], [89.58736111111111, 24.657083333333333], [89.57958333333333, 24.65736111111111]], [[89.5826388888889, 24.421249999999997], [89.58208333333333, 24.415138888888887], [89.58652777777777, 24.42513888888889], [89.5826388888889, 24.421249999999997]], [[89.5826388888889, 24.260694444444443], [89.58402777777778, 24.26458333333333], [89.58069444444445, 24.25597222222222], [89.5826388888889, 24.260694444444443]], [[89.57625, 24.665138888888887], [89.58347222222223, 24.65986111111111], [89.58291666666666, 24.66597222222222], [89.57625, 24.665138888888887]], [[89.56402777777778, 24.636805555555554], [89.56041666666667, 24.642638888888886], [89.56680555555556, 24.62847222222222], [89.58069444444445, 24.626527777777778], [89.56236111111112, 24.64097222222222], [89.56402777777778, 24.636805555555554]], [[89.57597222222222, 24.309583333333332], [89.57847222222223, 24.31597222222222], [89.57347222222222, 24.31486111111111], [89.57597222222222, 24.309583333333332]], [[89.56736111111111, 24.310416666666665], [89.57652777777778, 24.30708333333333], [89.57180555555556, 24.31375], [89.56736111111111, 24.310416666666665]], [[89.56930555555556, 24.666249999999998], [89.55708333333334, 24.66263888888889], [89.5676388888889, 24.664027777777775], [89.56597222222223, 24.65597222222222], [89.57125, 24.654305555555553], [89.56930555555556, 24.666249999999998]], [[89.56986111111111, 24.65236111111111], [89.56347222222223, 24.64486111111111], [89.56902777777778, 24.639027777777777], [89.56986111111111, 24.65236111111111]], [[89.55763888888889, 24.30236111111111], [89.55402777777778, 24.299027777777777], [89.56180555555555, 24.29847222222222], [89.55736111111112, 24.306527777777777], [89.55763888888889, 24.30236111111111]], [[89.55375000000001, 24.519027777777776], [89.54819444444445, 24.523194444444442], [89.54902777777778, 24.51625], [89.55375000000001, 24.519027777777776]], [[89.53986111111111, 24.424027777777777], [89.54513888888889, 24.42736111111111], [89.53458333333333, 24.422638888888887], [89.53986111111111, 24.424027777777777]], [[89.53652777777778, 24.521805555555556], [89.54347222222222, 24.52986111111111], [89.53486111111111, 24.53569444444444], [89.53708333333334, 24.526805555555555], [89.52597222222222, 24.520416666666666], [89.53652777777778, 24.521805555555556]], [[89.53902777777778, 24.46847222222222], [89.52958333333333, 24.476527777777775], [89.53458333333333, 24.46486111111111], [89.53902777777778, 24.46847222222222]], [[89.52347222222222, 24.524027777777775], [89.52819444444445, 24.52486111111111], [89.52041666666666, 24.527083333333334], [89.52347222222222, 24.524027777777775]], [[89.52625, 24.53847222222222], [89.51680555555556, 24.52986111111111], [89.52458333333334, 24.52958333333333], [89.52625, 24.53847222222222]], [[89.51291666666667, 24.49375], [89.51347222222222, 24.501527777777778], [89.51097222222222, 24.490138888888886], [89.51291666666667, 24.49375]], [[89.51263888888889, 24.485138888888887], [89.50541666666668, 24.48847222222222], [89.50652777777778, 24.482916666666664], [89.51263888888889, 24.485138888888887]], [[89.48569444444445, 24.54208333333333], [89.47763888888889, 24.542916666666667], [89.47791666666667, 24.535416666666666], [89.48569444444445, 24.54208333333333]], [[89.45458333333333, 24.50847222222222], [89.45930555555556, 24.511527777777776], [89.45291666666667, 24.512361111111108], [89.45458333333333, 24.50847222222222]], [[89.44680555555556, 24.481805555555553], [89.44319444444444, 24.476527777777775], [89.44819444444445, 24.47597222222222], [89.44958333333334, 24.487916666666667], [89.44680555555556, 24.481805555555553]], [[89.30597222222222, 24.367083333333333], [89.31319444444445, 24.364027777777775], [89.30875, 24.370416666666664], [89.30597222222222, 24.367083333333333]]], [[[89.78458333333333, 24.733194444444443], [89.78402777777778, 24.740972222222222], [89.78930555555556, 24.739583333333332], [89.78791666666667, 24.728194444444444], [89.78458333333333, 24.733194444444443]]]]}}