{"type":"FeatureCollection","name":"flood_extent_2022-06-18","crs":{"type":"name","properties":{"name":"urn:ogc:def:crs:OGC:1.3:CRS84"}},"features":[{"type":"Feature","properties":{"date":"2022-06-18","kind":"derived_peak_extent","derived_from":"flood_extent_2022-05-25.geojson (UNOSAT observed)","peak_area_km2_target":840.0,"source":"UNOSAT (UNITAR) flood analysis, Sylhet/Sunamganj, June 2022","publisher":"UNOSAT / UNITAR","note":"DERIVED APPROXIMATION, not a raw observation. Grown from the UNOSAT 2022-05-25 observed polygon and calibrated to the UNOSAT ~840 km2 peak figure for 2022-06-18. The full 18 June SAR polygon was not shipped."},"geometry":{"type":"Polygon","coordinates":[[[91.8232,24.9074],[91.7994,24.8918],[91.7901,24.8898],[91.7829,24.8906],[91.7745,24.8844],[91.7627,24.8818],[91.7453,24.8845],[91.7266,24.8931],[91.7188,24.9013],[91.7111,24.9203],[91.6756,25.0979],[91.6755,25.1055],[91.6723,25.1141],[91.6723,25.1207],[91.6772,25.1372],[91.6841,25.1462],[91.7012,25.1556],[91.7128,25.1664],[91.7243,25.1693],[91.7356,25.1671],[91.7404,25.1797],[91.7475,25.1856],[91.7542,25.1882],[91.7639,25.1887],[91.7748,25.1856],[91.7873,25.1896],[91.8051,25.1888],[91.8125,25.1943],[91.8216,25.1969],[91.8312,25.1961],[91.8398,25.1919],[91.8829,25.1988],[91.8976,25.1976],[91.9111,25.2016],[91.9228,25.2],[91.9308,25.1952],[91.9362,25.1879],[91.946,25.1849],[91.9531,25.179],[91.9578,25.169],[91.9568,25.151],[91.9662,25.1459],[91.9727,25.1368],[91.9787,25.119],[91.9998,25.0122],[91.9987,25.0013],[91.9921,24.9921],[91.9818,24.986],[91.9725,24.9841],[91.9533,24.985],[91.9349,24.9822],[91.9152,24.9688],[91.8851,24.9564],[91.8739,24.9496],[91.8649,24.9359],[91.8532,24.9291],[91.8463,24.9214],[91.8376,24.9174],[91.829,24.9167],[91.8232,24.9074]]]}}]}