{
"type": "FeatureCollection",
"name": "flood_extent_2022-05-25",
"crs": { "type": "name", "properties": { "name": "urn:ogc:def:crs:OGC:1.3:CRS84" } },
"xy_coordinate_resolution": 0.0001,
"features": [
{ "type": "Feature", "properties": { "date": "2022-05-25" }, "geometry": { "type": "Polygon", "coordinates": [ [ [ 91.9738, 25.0124 ], [ 91.9753, 25.0087 ], [ 91.9727, 25.0098 ], [ 91.972, 25.0067 ], [ 91.9661, 25.0117 ], [ 91.9738, 25.0124 ] ] ] } },
{ "type": "Feature", "properties": { "date": "2022-05-25" }, "geometry": { "type": "Polygon", "coordinates": [ [ [ 91.9341, 25.0191 ], [ 91.9352, 25.0184 ], [ 91.9365, 25.023 ], [ 91.9425, 25.025 ], [ 91.9417, 25.03 ], [ 91.9404, 25.0252 ], [ 91.9404, 25.0304 ], [ 91.9474, 25.0335 ], [ 91.9476, 25.0367 ], [ 91.9615, 25.0529 ], [ 91.9674, 25.0482 ], [ 91.9595, 25.0444 ], [ 91.9613, 25.0403 ], [ 91.9584, 25.0405 ], [ 91.9617, 25.0363 ], [ 91.9626, 25.0429 ], [ 91.968, 25.0454 ], [ 91.9738, 25.016 ], [ 91.9684, 25.02 ], [ 91.9652, 25.016 ], [ 91.9674, 25.0242 ], [ 91.9622, 25.0202 ], [ 91.965, 25.0251 ], [ 91.9619, 25.0258 ], [ 91.9538, 25.016 ], [ 91.9498, 25.0172 ], [ 91.9529, 25.0152 ], [ 91.9633, 25.0185 ], [ 91.9659, 25.012 ], [ 91.9599, 25.0067 ], [ 91.9586, 25.0096 ], [ 91.9535, 25.0078 ], [ 91.9537, 25.0106 ], [ 91.9492, 25.0072 ], [ 91.9456, 25.0125 ], [ 91.9463, 25.0086 ], [ 91.9418, 25.0052 ], [ 91.9402, 25.0121 ], [ 91.9388, 25.0069 ], [ 91.9354, 25.0141 ], [ 91.9443, 25.0167 ], [ 91.9356, 25.0182 ], [ 91.9384, 25.0163 ], [ 91.9333, 25.0167 ], [ 91.9341, 25.0191 ] ], [ [ 91.9451, 25.0165 ], [ 91.9468, 25.0133 ], [ 91.9529, 25.0152 ], [ 91.9451, 25.0165 ] ], [ [ 91.9417, 25.03 ], [ 91.9441, 25.0287 ], [ 91.942, 25.0309 ], [ 91.9417, 25.03 ] ], [ [ 91.9567, 25.0423 ], [ 91.9598, 25.0419 ], [ 91.9582, 25.0448 ], [ 91.9567, 25.0423 ] ], [ [ 91.9465, 25.0215 ], [ 91.9488, 25.0191 ], [ 91.9569, 25.0207 ], [ 91.9465, 25.0215 ] ], [ [ 91.9487, 25.019 ], [ 91.9428, 25.018 ], [ 91.9495, 25.0166 ], [ 91.9487, 25.019 ] ] ] } },
{ "type": "Feature", "properties": { "date": "2022-05-25" }, "geometry": { "type": "Polygon", "coordinates": [ [ [ 91.7059, 25.095 ], [ 91.7001, 25.1011 ], [ 91.7006, 25.11 ], [ 91.6968, 25.1174 ], [ 91.701, 25.1134 ], [ 91.6993, 25.1192 ], [ 91.7029, 25.1282 ], [ 91.7003, 25.1291 ], [ 91.7053, 25.1292 ], [ 91.7085, 25.1341 ], [ 91.708, 25.1283 ], [ 91.7109, 25.1317 ], [ 91.7162, 25.131 ], [ 91.7086, 25.1156 ], [ 91.7112, 25.1146 ], [ 91.7129, 25.1221 ], [ 91.7172, 25.1186 ], [ 91.7167, 25.1217 ], [ 91.725, 25.1246 ], [ 91.7231, 25.1283 ], [ 91.7274, 25.129 ], [ 91.7253, 25.1279 ], [ 91.7279, 25.1245 ], [ 91.7239, 25.1231 ], [ 91.7232, 25.1187 ], [ 91.7206, 25.1197 ], [ 91.7241, 25.1172 ], [ 91.7244, 25.1216 ], [ 91.7296, 25.1234 ], [ 91.7277, 25.127 ], [ 91.7338, 25.1273 ], [ 91.7364, 25.1194 ], [ 91.7294, 25.1192 ], [ 91.7289, 25.1148 ], [ 91.7229, 25.1125 ], [ 91.7338, 25.1146 ], [ 91.7264, 25.1079 ], [ 91.7315, 25.1001 ], [ 91.729, 25.0896 ], [ 91.7321, 25.1003 ], [ 91.7358, 25.1012 ], [ 91.7353, 25.0982 ], [ 91.739, 25.1023 ], [ 91.7444, 25.0901 ], [ 91.7379, 25.0816 ], [ 91.745, 25.0891 ], [ 91.7398, 25.1023 ], [ 91.746, 25.1035 ], [ 91.7475, 25.0992 ], [ 91.7477, 25.1023 ], [ 91.7516, 25.1028 ], [ 91.7584, 25.0941 ], [ 91.7547, 25.0949 ], [ 91.75, 25.0921 ], [ 91.7554, 25.092 ], [ 91.7504, 25.0913 ], [ 91.7581, 25.0885 ], [ 91.7527, 25.086 ], [ 91.7569, 25.0846 ], [ 91.7474, 25.0802 ], [ 91.7583, 25.0816 ], [ 91.7602, 25.0763 ], [ 91.7591, 25.0837 ], [ 91.7618, 25.0808 ], [ 91.7614, 25.0859 ], [ 91.7654, 25.0834 ], [ 91.761, 25.0865 ], [ 91.7587, 25.0854 ], [ 91.7614, 25.0877 ], [ 91.7617, 25.0897 ], [ 91.7635, 25.0876 ], [ 91.7617, 25.0903 ], [ 91.762, 25.0927 ], [ 91.7649, 25.0955 ], [ 91.7635, 25.1032 ], [ 91.7706, 25.0939 ], [ 91.7747, 25.0954 ], [ 91.7707, 25.0952 ], [ 91.7706, 25.0998 ], [ 91.7776, 25.1003 ], [ 91.7679, 25.1024 ], [ 91.7712, 25.1032 ], [ 91.769, 25.1098 ], [ 91.7759, 25.1099 ], [ 91.779, 25.1038 ], [ 91.7801, 25.108 ], [ 91.7756, 25.1135 ], [ 91.7824, 25.1076 ], [ 91.7802, 25.1102 ], [ 91.7827, 25.1125 ], [ 91.7799, 25.1108 ], [ 91.782, 25.1131 ], [ 91.7778, 25.1144 ], [ 91.7845, 25.1187 ], [ 91.7794, 25.1185 ], [ 91.7809, 25.1205 ], [ 91.7769, 25.1235 ], [ 91.7726, 25.1233 ], [ 91.7765, 25.1264 ], [ 91.7725, 25.126 ], [ 91.779, 25.1337 ], [ 91.7792, 25.1421 ], [ 91.7808, 25.1403 ], [ 91.7819, 25.1471 ], [ 91.7868, 25.1436 ], [ 91.7863, 25.1482 ], [ 91.7892, 25.1422 ], [ 91.7905, 25.147 ], [ 91.7869, 25.1478 ], [ 91.7874, 25.1516 ], [ 91.799, 25.1531 ], [ 91.8039, 25.1383 ], [ 91.8073, 25.1384 ], [ 91.8048, 25.1428 ], [ 91.8111, 25.1401 ], [ 91.8115, 25.134 ], [ 91.808, 25.1313 ], [ 91.8131, 25.1327 ], [ 91.8134, 25.1397 ], [ 91.8059, 25.1436 ], [ 91.8065, 25.1499 ], [ 91.8019, 25.1576 ], [ 91.8087, 25.1582 ], [ 91.8108, 25.1517 ], [ 91.8096, 25.1581 ], [ 91.8194, 25.1599 ], [ 91.8204, 25.1496 ], [ 91.8215, 25.1611 ], [ 91.8236, 25.1513 ], [ 91.8235, 25.1584 ], [ 91.8292, 25.1601 ], [ 91.8313, 25.1512 ], [ 91.8363, 25.1567 ], [ 91.8308, 25.1552 ], [ 91.831, 25.1624 ], [ 91.8334, 25.1611 ], [ 91.8312, 25.1657 ], [ 91.8376, 25.1671 ], [ 91.8397, 25.1634 ], [ 91.8385, 25.1659 ], [ 91.8436, 25.1672 ], [ 91.8398, 25.169 ], [ 91.8465, 25.1701 ], [ 91.8497, 25.1656 ], [ 91.8493, 25.1685 ], [ 91.8563, 25.1727 ], [ 91.86, 25.1709 ], [ 91.8696, 25.1744 ], [ 91.8641, 25.1667 ], [ 91.8496, 25.1653 ], [ 91.8564, 25.1653 ], [ 91.8578, 25.1578 ], [ 91.8589, 25.1661 ], [ 91.8623, 25.1635 ], [ 91.867, 25.1656 ], [ 91.8696, 25.1616 ], [ 91.8732, 25.1646 ], [ 91.8731, 25.16 ], [ 91.8772, 25.1573 ], [ 91.871, 25.1538 ], [ 91.8793, 25.1533 ], [ 91.8762, 25.1552 ], [ 91.8781, 25.1574 ], [ 91.8821, 25.1539 ], [ 91.8797, 25.1506 ], [ 91.8746, 25.1516 ], [ 91.8727, 25.1469 ], [ 91.8814, 25.149 ], [ 91.8821, 25.1435 ], [ 91.8831, 25.1448 ], [ 91.8859, 25.1444 ], [ 91.8796, 25.1406 ], [ 91.8701, 25.1429 ], [ 91.8674, 25.1401 ], [ 91.863, 25.1434 ], [ 91.8641, 25.1434 ], [ 91.8629, 25.1435 ], [ 91.8588, 25.1466 ], [ 91.8469, 25.1439 ], [ 91.8602, 25.1435 ], [ 91.8636, 25.1404 ], [ 91.8634, 25.1318 ], [ 91.8558, 25.1305 ], [ 91.8539, 25.1375 ], [ 91.8498, 25.1251 ], [ 91.8542, 25.1323 ], [ 91.8554, 25.1287 ], [ 91.8591, 25.1304 ], [ 91.8627, 25.1272 ], [ 91.871, 25.1403 ], [ 91.8777, 25.1365 ], [ 91.8763, 25.1343 ], [ 91.8794, 25.1351 ], [ 91.8775, 25.1318 ], [ 91.8905, 25.1333 ], [ 91.8962, 25.1263 ], [ 91.8939, 25.1318 ], [ 91.8987, 25.1294 ], [ 91.8987, 25.1254 ], [ 91.8925, 25.1201 ], [ 91.8905, 25.1251 ], [ 91.8912, 25.1192 ], [ 91.8818, 25.1204 ], [ 91.8818, 25.1231 ], [ 91.8779, 25.1178 ], [ 91.872, 25.1207 ], [ 91.8713, 25.1177 ], [ 91.874, 25.1185 ], [ 91.881, 25.1158 ], [ 91.898, 25.1205 ], [ 91.8989, 25.1184 ], [ 91.9004, 25.1253 ], [ 91.9067, 25.1257 ], [ 91.9006, 25.1261 ], [ 91.9014, 25.1297 ], [ 91.9089, 25.1311 ], [ 91.9055, 25.1316 ], [ 91.9097, 25.1341 ], [ 91.9118, 25.1294 ], [ 91.9104, 25.1347 ], [ 91.9211, 25.1401 ], [ 91.929, 25.1348 ], [ 91.9303, 25.1372 ], [ 91.9382, 25.1297 ], [ 91.9343, 25.1266 ], [ 91.9374, 25.1264 ], [ 91.9421, 25.1146 ], [ 91.9378, 25.1269 ], [ 91.9436, 25.1298 ], [ 91.947, 25.1259 ], [ 91.9458, 25.1285 ], [ 91.9492, 25.1295 ], [ 91.9487, 25.122 ], [ 91.9516, 25.1218 ], [ 91.9454, 25.1198 ], [ 91.9498, 25.1188 ], [ 91.9427, 25.1142 ], [ 91.9491, 25.1169 ], [ 91.9543, 25.115 ], [ 91.9559, 25.1069 ], [ 91.9399, 25.0972 ], [ 91.9312, 25.0975 ], [ 91.9326, 25.1016 ], [ 91.9317, 25.1012 ], [ 91.9316, 25.1042 ], [ 91.9289, 25.1033 ], [ 91.9315, 25.1012 ], [ 91.9263, 25.0987 ], [ 91.922, 25.0897 ], [ 91.9249, 25.088 ], [ 91.9244, 25.0835 ], [ 91.9291, 25.0814 ], [ 91.9294, 25.0953 ], [ 91.9438, 25.0933 ], [ 91.9487, 25.0958 ], [ 91.9555, 25.0911 ], [ 91.9572, 25.0969 ], [ 91.9661, 25.055 ], [ 91.962, 25.0545 ], [ 91.9667, 25.0521 ], [ 91.9586, 25.0534 ], [ 91.9619, 25.0542 ], [ 91.9588, 25.0578 ], [ 91.9569, 25.0559 ], [ 91.9596, 25.0552 ], [ 91.9546, 25.0524 ], [ 91.9543, 25.055 ], [ 91.95, 25.0503 ], [ 91.9553, 25.0508 ], [ 91.953, 25.0448 ], [ 91.9466, 25.0431 ], [ 91.9488, 25.0413 ], [ 91.9442, 25.0344 ], [ 91.942, 25.0379 ], [ 91.9385, 25.0309 ], [ 91.9317, 25.0319 ], [ 91.938, 25.0292 ], [ 91.9369, 25.0255 ], [ 91.9294, 25.0188 ], [ 91.9225, 25.0191 ], [ 91.926, 25.0214 ], [ 91.9183, 25.0238 ], [ 91.9161, 25.0214 ], [ 91.9144, 25.0257 ], [ 91.9143, 25.021 ], [ 91.9176, 25.0198 ], [ 91.9148, 25.0088 ], [ 91.9038, 25.0145 ], [ 91.9052, 25.01 ], [ 91.8947, 25.0013 ], [ 91.8932, 24.9948 ], [ 91.8884, 25.0003 ], [ 91.8837, 24.9971 ], [ 91.8929, 24.9944 ], [ 91.8797, 24.9897 ], [ 91.878, 24.9932 ], [ 91.8774, 24.9932 ], [ 91.8788, 24.9964 ], [ 91.8833, 24.9961 ], [ 91.8786, 24.9966 ], [ 91.8792, 25.0034 ], [ 91.8696, 25.0087 ], [ 91.8671, 25.006 ], [ 91.8716, 25.0049 ], [ 91.8733, 24.9977 ], [ 91.8696, 24.9927 ], [ 91.8755, 24.9918 ], [ 91.8695, 24.9891 ], [ 91.8651, 24.9926 ], [ 91.8594, 24.9911 ], [ 91.8567, 24.9932 ], [ 91.8565, 24.9903 ], [ 91.8599, 24.9907 ], [ 91.856, 24.9883 ], [ 91.853, 24.9929 ], [ 91.8565, 24.992 ], [ 91.8551, 25.0007 ], [ 91.8626, 25.0112 ], [ 91.8683, 25.0095 ], [ 91.8617, 25.0132 ], [ 91.8659, 25.0157 ], [ 91.863, 25.0175 ], [ 91.8695, 25.0195 ], [ 91.8645, 25.0196 ], [ 91.8601, 25.0252 ], [ 91.8562, 25.0192 ], [ 91.8521, 25.021 ], [ 91.8504, 25.0184 ], [ 91.8479, 25.0217 ], [ 91.8462, 25.0187 ], [ 91.8399, 25.022 ], [ 91.8417, 25.0265 ], [ 91.8387, 25.0225 ], [ 91.8306, 25.0292 ], [ 91.839, 25.026 ], [ 91.8317, 25.0306 ], [ 91.8346, 25.0323 ], [ 91.8319, 25.0381 ], [ 91.8379, 25.037 ], [ 91.8442, 25.0277 ], [ 91.8421, 25.0266 ], [ 91.8499, 25.0242 ], [ 91.8394, 25.0403 ], [ 91.8435, 25.0439 ], [ 91.8405, 25.0446 ], [ 91.8414, 25.0451 ], [ 91.8357, 25.0444 ], [ 91.8363, 25.0474 ], [ 91.833, 25.046 ], [ 91.8317, 25.0493 ], [ 91.8293, 25.0458 ], [ 91.8258, 25.0481 ], [ 91.8212, 25.05 ], [ 91.8246, 25.0515 ], [ 91.8247, 25.0512 ], [ 91.8252, 25.0552 ], [ 91.8202, 25.0573 ], [ 91.817, 25.0638 ], [ 91.819, 25.0566 ], [ 91.8232, 25.0546 ], [ 91.8198, 25.0517 ], [ 91.8308, 25.0338 ], [ 91.8237, 25.0406 ], [ 91.8243, 25.0359 ], [ 91.8213, 25.0342 ], [ 91.8265, 25.0292 ], [ 91.8223, 25.0267 ], [ 91.8161, 25.0334 ], [ 91.8198, 25.034 ], [ 91.8169, 25.0353 ], [ 91.8193, 25.0382 ], [ 91.8168, 25.039 ], [ 91.8176, 25.0422 ], [ 91.8158, 25.0423 ], [ 91.8171, 25.0451 ], [ 91.8153, 25.0424 ], [ 91.8081, 25.0455 ], [ 91.8079, 25.0391 ], [ 91.7956, 25.0519 ], [ 91.8002, 25.0454 ], [ 91.781, 25.0475 ], [ 91.7823, 25.0424 ], [ 91.7839, 25.0448 ], [ 91.7921, 25.0419 ], [ 91.8018, 25.0439 ], [ 91.8017, 25.0393 ], [ 91.8124, 25.0356 ], [ 91.8196, 25.0258 ], [ 91.814, 25.0211 ], [ 91.8216, 25.0235 ], [ 91.8316, 25.0162 ], [ 91.8355, 25.0073 ], [ 91.8317, 25.0131 ], [ 91.8314, 25.0103 ], [ 91.8198, 25.0109 ], [ 91.8167, 25.0072 ], [ 91.8081, 25.0125 ], [ 91.8126, 25.0052 ], [ 91.8045, 25.0032 ], [ 91.8088, 25.0003 ], [ 91.8082, 24.9957 ], [ 91.8002, 24.9968 ], [ 91.8012, 24.9945 ], [ 91.8022, 24.9935 ], [ 91.8018, 24.993 ], [ 91.8026, 24.9913 ], [ 91.8016, 24.9926 ], [ 91.7995, 24.9893 ], [ 91.7939, 24.9874 ], [ 91.7908, 24.993 ], [ 91.7827, 24.9932 ], [ 91.7808, 25.0071 ], [ 91.7767, 25.0127 ], [ 91.7698, 25.0065 ], [ 91.768, 25.009 ], [ 91.7661, 25.0031 ], [ 91.7733, 25.0081 ], [ 91.779, 25.0081 ], [ 91.7819, 24.9938 ], [ 91.7789, 24.9955 ], [ 91.7773, 24.9892 ], [ 91.7701, 24.9918 ], [ 91.7691, 24.9883 ], [ 91.7749, 24.9864 ], [ 91.7727, 24.982 ], [ 91.7766, 24.9813 ], [ 91.7756, 24.9783 ], [ 91.7795, 24.9763 ], [ 91.7832, 24.979 ], [ 91.7841, 24.9721 ], [ 91.7822, 24.9741 ], [ 91.7812, 24.9684 ], [ 91.7758, 24.968 ], [ 91.7751, 24.9651 ], [ 91.7797, 24.9633 ], [ 91.7831, 24.965 ], [ 91.782, 24.9678 ], [ 91.7842, 24.9652 ], [ 91.7866, 24.9683 ], [ 91.7833, 24.9568 ], [ 91.7775, 24.9632 ], [ 91.7812, 24.9542 ], [ 91.7716, 24.9534 ], [ 91.7709, 24.9566 ], [ 91.7658, 24.9559 ], [ 91.7658, 24.9593 ], [ 91.7632, 24.9551 ], [ 91.7567, 24.9539 ], [ 91.7559, 24.9494 ], [ 91.7556, 24.9561 ], [ 91.7536, 24.9502 ], [ 91.7355, 24.9596 ], [ 91.7576, 24.947 ], [ 91.7353, 24.9593 ], [ 91.729, 24.9562 ], [ 91.7231, 24.986 ], [ 91.7312, 24.9908 ], [ 91.7286, 24.9889 ], [ 91.7382, 24.9878 ], [ 91.7329, 24.9891 ], [ 91.7344, 24.9908 ], [ 91.7373, 24.9916 ], [ 91.732, 24.9922 ], [ 91.7279, 24.9996 ], [ 91.7258, 24.9985 ], [ 91.7297, 24.9911 ], [ 91.7228, 24.9875 ], [ 91.7103, 25.0493 ], [ 91.7133, 25.0501 ], [ 91.7103, 25.0499 ], [ 91.7071, 25.0656 ], [ 91.7139, 25.069 ], [ 91.7094, 25.0704 ], [ 91.7127, 25.0753 ], [ 91.7067, 25.0679 ], [ 91.7044, 25.0793 ], [ 91.7093, 25.0789 ], [ 91.7042, 25.0801 ], [ 91.7003, 25.1002 ], [ 91.7055, 25.0935 ], [ 91.7059, 25.095 ] ], [ [ 91.8973, 25.1181 ], [ 91.8895, 25.1106 ], [ 91.8918, 25.1062 ], [ 91.8851, 25.0936 ], [ 91.8867, 25.091 ], [ 91.8921, 25.0921 ], [ 91.887, 25.0833 ], [ 91.883, 25.0824 ], [ 91.8841, 25.0874 ], [ 91.8789, 25.0896 ], [ 91.878, 25.0857 ], [ 91.8736, 25.0863 ], [ 91.8722, 25.0796 ], [ 91.8674, 25.081 ], [ 91.8697, 25.0758 ], [ 91.856, 25.0787 ], [ 91.8594, 25.0723 ], [ 91.8566, 25.0699 ], [ 91.8612, 25.0677 ], [ 91.8571, 25.0634 ], [ 91.8535, 25.0671 ], [ 91.8495, 25.063 ], [ 91.8445, 25.0657 ], [ 91.8435, 25.0621 ], [ 91.842, 25.0678 ], [ 91.839, 25.0676 ], [ 91.8429, 25.0704 ], [ 91.8419, 25.0752 ], [ 91.8371, 25.0735 ], [ 91.8389, 25.0675 ], [ 91.8365, 25.0675 ], [ 91.8391, 25.0624 ], [ 91.8406, 25.0643 ], [ 91.8436, 25.0593 ], [ 91.8401, 25.0626 ], [ 91.8384, 25.0595 ], [ 91.8438, 25.0548 ], [ 91.8464, 25.0632 ], [ 91.8534, 25.061 ], [ 91.85, 25.058 ], [ 91.8501, 25.0499 ], [ 91.8559, 25.0515 ], [ 91.8552, 25.0556 ], [ 91.862, 25.0475 ], [ 91.8581, 25.0385 ], [ 91.8657, 25.0408 ], [ 91.8623, 25.046 ], [ 91.8645, 25.0489 ], [ 91.8697, 25.0489 ], [ 91.8729, 25.0435 ], [ 91.8832, 25.0444 ], [ 91.8746, 25.0495 ], [ 91.8767, 25.0529 ], [ 91.8655, 25.0587 ], [ 91.8668, 25.0634 ], [ 91.8765, 25.06 ], [ 91.8753, 25.066 ], [ 91.8804, 25.0649 ], [ 91.8751, 25.0676 ], [ 91.8786, 25.0667 ], [ 91.8774, 25.07 ], [ 91.881, 25.0677 ], [ 91.8771, 25.0709 ], [ 91.8831, 25.079 ], [ 91.8931, 25.0789 ], [ 91.893, 25.0746 ], [ 91.8955, 25.078 ], [ 91.8889, 25.0814 ], [ 91.8959, 25.0859 ], [ 91.8947, 25.0891 ], [ 91.8998, 25.0967 ], [ 91.9056, 25.0964 ], [ 91.8956, 25.0976 ], [ 91.901, 25.1096 ], [ 91.9073, 25.1107 ], [ 91.9109, 25.1023 ], [ 91.9151, 25.1044 ], [ 91.9134, 25.1105 ], [ 91.9059, 25.1116 ], [ 91.913, 25.1124 ], [ 91.9154, 25.1061 ], [ 91.9151, 25.1183 ], [ 91.9111, 25.115 ], [ 91.9073, 25.1196 ], [ 91.8989, 25.1184 ], [ 91.8973, 25.1181 ] ], [ [ 91.8421, 25.068 ], [ 91.8447, 25.0659 ], [ 91.8437, 25.0725 ], [ 91.8429, 25.0704 ], [ 91.8421, 25.068 ] ], [ [ 91.8287, 25.0677 ], [ 91.8333, 25.0672 ], [ 91.8335, 25.0641 ], [ 91.8365, 25.0675 ], [ 91.8287, 25.0677 ] ], [ [ 91.9476, 25.0465 ], [ 91.9467, 25.0492 ], [ 91.9455, 25.0455 ], [ 91.9359, 25.0467 ], [ 91.9374, 25.043 ], [ 91.9404, 25.0456 ], [ 91.9403, 25.0413 ], [ 91.9432, 25.0444 ], [ 91.9465, 25.043 ], [ 91.9466, 25.0431 ], [ 91.9476, 25.0465 ] ], [ [ 91.7686, 24.9675 ], [ 91.7727, 24.9644 ], [ 91.7751, 24.968 ], [ 91.7686, 24.9675 ] ], [ [ 91.7681, 24.977 ], [ 91.7633, 24.9782 ], [ 91.7668, 24.9646 ], [ 91.7686, 24.9675 ], [ 91.7681, 24.977 ] ], [ [ 91.765, 24.9844 ], [ 91.7614, 24.9869 ], [ 91.7682, 24.9869 ], [ 91.7645, 24.9875 ], [ 91.7632, 25.0011 ], [ 91.7648, 25.0022 ], [ 91.7629, 25.0025 ], [ 91.7623, 24.9897 ], [ 91.758, 24.9898 ], [ 91.7622, 24.9874 ], [ 91.7473, 24.9881 ], [ 91.7518, 24.985 ], [ 91.7611, 24.9863 ], [ 91.7632, 24.9782 ], [ 91.765, 24.9844 ] ], [ [ 91.8021, 25.0254 ], [ 91.7975, 25.0194 ], [ 91.7935, 25.0207 ], [ 91.7916, 25.0269 ], [ 91.7901, 25.0177 ], [ 91.7792, 25.0113 ], [ 91.7983, 25.0155 ], [ 91.8043, 25.0111 ], [ 91.8054, 25.0184 ], [ 91.811, 25.0202 ], [ 91.8021, 25.0254 ] ], [ [ 91.9195, 25.0728 ], [ 91.9233, 25.0763 ], [ 91.9236, 25.0795 ], [ 91.9195, 25.0728 ] ], [ [ 91.8048, 25.1288 ], [ 91.8069, 25.127 ], [ 91.8072, 25.1307 ], [ 91.8048, 25.1288 ] ], [ [ 91.7582, 25.0714 ], [ 91.7611, 25.0695 ], [ 91.7608, 25.0719 ], [ 91.7582, 25.0714 ] ], [ [ 91.9536, 25.0603 ], [ 91.9581, 25.0597 ], [ 91.9631, 25.0653 ], [ 91.96, 25.0643 ], [ 91.9597, 25.07 ], [ 91.9585, 25.0624 ], [ 91.9512, 25.0617 ], [ 91.9527, 25.0556 ], [ 91.9482, 25.0546 ], [ 91.9505, 25.0545 ], [ 91.95, 25.0531 ], [ 91.9542, 25.0552 ], [ 91.9536, 25.0603 ] ], [ [ 91.8437, 25.0463 ], [ 91.8437, 25.0502 ], [ 91.8427, 25.0458 ], [ 91.8437, 25.0463 ] ], [ [ 91.8232, 25.068 ], [ 91.8119, 25.0662 ], [ 91.8083, 25.0716 ], [ 91.8104, 25.0645 ], [ 91.8165, 25.0658 ], [ 91.817, 25.0639 ], [ 91.8232, 25.068 ] ], [ [ 91.715, 25.0788 ], [ 91.7117, 25.0808 ], [ 91.7142, 25.0775 ], [ 91.715, 25.0788 ] ], [ [ 91.9373, 25.0412 ], [ 91.9346, 25.0464 ], [ 91.9371, 25.0414 ], [ 91.9349, 25.0383 ], [ 91.9373, 25.0412 ] ], [ [ 91.9286, 25.057 ], [ 91.9222, 25.0578 ], [ 91.9225, 25.0624 ], [ 91.9323, 25.0661 ], [ 91.9293, 25.0682 ], [ 91.9229, 25.0631 ], [ 91.9206, 25.0663 ], [ 91.921, 25.0558 ], [ 91.9291, 25.0503 ], [ 91.9286, 25.057 ] ], [ [ 91.9238, 25.036 ], [ 91.9337, 25.0414 ], [ 91.9274, 25.0442 ], [ 91.9306, 25.0417 ], [ 91.9238, 25.036 ] ], [ [ 91.9192, 25.1066 ], [ 91.9202, 25.1035 ], [ 91.9126, 25.1027 ], [ 91.9136, 25.0992 ], [ 91.9219, 25.0993 ], [ 91.9196, 25.1009 ], [ 91.9238, 25.1053 ], [ 91.9212, 25.1058 ], [ 91.9333, 25.1097 ], [ 91.9258, 25.1138 ], [ 91.927, 25.1116 ], [ 91.9192, 25.1066 ] ], [ [ 91.9277, 25.1284 ], [ 91.9265, 25.1355 ], [ 91.9258, 25.1283 ], [ 91.9277, 25.1284 ] ], [ [ 91.9186, 25.0497 ], [ 91.9144, 25.051 ], [ 91.9172, 25.0557 ], [ 91.916, 25.0591 ], [ 91.9131, 25.051 ], [ 91.9186, 25.0497 ] ], [ [ 91.9159, 25.045 ], [ 91.9179, 25.043 ], [ 91.9198, 25.0493 ], [ 91.9186, 25.0497 ], [ 91.9159, 25.045 ] ], [ [ 91.9148, 25.0724 ], [ 91.9155, 25.0724 ], [ 91.9157, 25.0816 ], [ 91.9115, 25.0858 ], [ 91.9153, 25.0803 ], [ 91.9148, 25.0724 ] ], [ [ 91.9113, 25.1226 ], [ 91.9097, 25.1254 ], [ 91.9093, 25.1226 ], [ 91.9113, 25.1226 ] ], [ [ 91.9067, 25.0633 ], [ 91.9061, 25.0659 ], [ 91.9055, 25.0653 ], [ 91.9067, 25.0633 ] ], [ [ 91.8996, 25.0584 ], [ 91.8969, 25.0558 ], [ 91.9065, 25.0567 ], [ 91.8996, 25.0584 ] ], [ [ 91.8822, 25.0125 ], [ 91.8879, 25.0114 ], [ 91.8916, 25.0171 ], [ 91.8822, 25.0125 ] ], [ [ 91.8873, 25.0069 ], [ 91.8907, 25.0057 ], [ 91.8898, 25.0095 ], [ 91.8873, 25.0069 ] ], [ [ 91.8776, 25.1312 ], [ 91.8745, 25.1322 ], [ 91.8762, 25.1293 ], [ 91.8776, 25.1312 ] ], [ [ 91.8763, 25.0133 ], [ 91.8762, 25.0188 ], [ 91.876, 25.0188 ], [ 91.8763, 25.0133 ] ], [ [ 91.8728, 25.0412 ], [ 91.8665, 25.0352 ], [ 91.8594, 25.038 ], [ 91.8569, 25.0285 ], [ 91.8601, 25.0254 ], [ 91.8599, 25.0325 ], [ 91.8655, 25.0326 ], [ 91.8628, 25.0258 ], [ 91.8704, 25.0226 ], [ 91.871, 25.0258 ], [ 91.8637, 25.0256 ], [ 91.8675, 25.0318 ], [ 91.8747, 25.0321 ], [ 91.8756, 25.0354 ], [ 91.8714, 25.0344 ], [ 91.8759, 25.0405 ], [ 91.8728, 25.0412 ] ], [ [ 91.8695, 25.1575 ], [ 91.8712, 25.1548 ], [ 91.8725, 25.1578 ], [ 91.8695, 25.1575 ] ], [ [ 91.8525, 25.1537 ], [ 91.8548, 25.1508 ], [ 91.8553, 25.153 ], [ 91.8525, 25.1537 ] ], [ [ 91.8419, 25.1335 ], [ 91.8445, 25.1342 ], [ 91.8425, 25.1367 ], [ 91.8419, 25.1335 ] ], [ [ 91.834, 25.1395 ], [ 91.8414, 25.1418 ], [ 91.8382, 25.1433 ], [ 91.834, 25.1395 ] ], [ [ 91.8328, 25.0959 ], [ 91.8282, 25.0952 ], [ 91.8292, 25.0891 ], [ 91.8355, 25.0844 ], [ 91.8395, 25.0847 ], [ 91.8398, 25.0894 ], [ 91.8328, 25.0959 ] ], [ [ 91.8344, 25.1222 ], [ 91.8386, 25.126 ], [ 91.8337, 25.1238 ], [ 91.8334, 25.128 ], [ 91.8283, 25.1232 ], [ 91.8344, 25.1222 ] ], [ [ 91.8305, 25.1147 ], [ 91.8349, 25.116 ], [ 91.8311, 25.1176 ], [ 91.8305, 25.1147 ] ], [ [ 91.8305, 25.1283 ], [ 91.8283, 25.1321 ], [ 91.8262, 25.1294 ], [ 91.8305, 25.1283 ] ], [ [ 91.8245, 25.1455 ], [ 91.8186, 25.1438 ], [ 91.8204, 25.1418 ], [ 91.8245, 25.1455 ] ], [ [ 91.8175, 25.1329 ], [ 91.82, 25.1345 ], [ 91.8193, 25.1352 ], [ 91.8175, 25.1329 ] ], [ [ 91.8198, 25.1285 ], [ 91.8147, 25.1297 ], [ 91.813, 25.125 ], [ 91.816, 25.1291 ], [ 91.8198, 25.1285 ] ], [ [ 91.8128, 25.1203 ], [ 91.8065, 25.1154 ], [ 91.811, 25.1101 ], [ 91.8086, 25.1157 ], [ 91.8112, 25.1146 ], [ 91.8158, 25.1215 ], [ 91.811, 25.1234 ], [ 91.8128, 25.1203 ] ], [ [ 91.8049, 25.1296 ], [ 91.8052, 25.1337 ], [ 91.8013, 25.1324 ], [ 91.8047, 25.1252 ], [ 91.8044, 25.129 ], [ 91.8049, 25.1296 ] ], [ [ 91.8067, 25.1209 ], [ 91.8045, 25.1165 ], [ 91.8079, 25.1193 ], [ 91.8044, 25.1142 ], [ 91.8107, 25.1207 ], [ 91.8059, 25.1227 ], [ 91.8067, 25.1209 ] ], [ [ 91.7938, 25.1413 ], [ 91.7911, 25.1403 ], [ 91.7968, 25.1362 ], [ 91.7938, 25.1413 ] ], [ [ 91.7882, 25.0622 ], [ 91.7881, 25.0629 ], [ 91.7938, 25.0561 ], [ 91.7962, 25.0622 ], [ 91.7916, 25.0632 ], [ 91.7937, 25.0651 ], [ 91.7895, 25.0688 ], [ 91.788, 25.0645 ], [ 91.7877, 25.0692 ], [ 91.7844, 25.07 ], [ 91.7882, 25.0622 ] ], [ [ 91.7843, 25.0799 ], [ 91.7812, 25.0762 ], [ 91.7794, 25.0783 ], [ 91.7722, 25.0755 ], [ 91.7777, 25.0739 ], [ 91.7796, 25.0772 ], [ 91.7795, 25.0734 ], [ 91.7826, 25.0745 ], [ 91.7843, 25.0799 ] ], [ [ 91.7872, 25.0005 ], [ 91.7864, 24.9977 ], [ 91.789, 24.998 ], [ 91.7872, 25.0005 ] ], [ [ 91.7743, 25.0837 ], [ 91.7813, 25.0868 ], [ 91.7815, 25.0842 ], [ 91.7843, 25.087 ], [ 91.7816, 25.0907 ], [ 91.779, 25.089 ], [ 91.781, 25.0874 ], [ 91.7751, 25.09 ], [ 91.7687, 25.0852 ], [ 91.7743, 25.0837 ] ], [ [ 91.7757, 25.058 ], [ 91.7729, 25.0478 ], [ 91.7609, 25.0582 ], [ 91.7689, 25.0467 ], [ 91.7734, 25.0465 ], [ 91.7733, 25.0432 ], [ 91.7806, 25.0623 ], [ 91.7757, 25.058 ] ], [ [ 91.7712, 25.0625 ], [ 91.7735, 25.0636 ], [ 91.7713, 25.0659 ], [ 91.7712, 25.0625 ] ], [ [ 91.7654, 25.0311 ], [ 91.773, 25.0309 ], [ 91.7708, 25.0362 ], [ 91.7654, 25.0311 ] ], [ [ 91.7516, 24.9635 ], [ 91.7482, 24.9631 ], [ 91.7503, 24.9614 ], [ 91.7672, 24.9603 ], [ 91.7663, 24.9641 ], [ 91.7592, 24.9661 ], [ 91.7573, 24.9639 ], [ 91.7564, 24.9695 ], [ 91.753, 24.9702 ], [ 91.7516, 24.9635 ] ], [ [ 91.7629, 25.0316 ], [ 91.7583, 25.0317 ], [ 91.7549, 25.0262 ], [ 91.7629, 25.0316 ] ], [ [ 91.7566, 25.0736 ], [ 91.748, 25.077 ], [ 91.7582, 25.0697 ], [ 91.7566, 25.0736 ] ], [ [ 91.7541, 25.0874 ], [ 91.7513, 25.0894 ], [ 91.7447, 25.085 ], [ 91.7541, 25.0874 ] ], [ [ 91.7489, 25.02 ], [ 91.744, 25.0167 ], [ 91.7457, 25.0226 ], [ 91.7419, 25.02 ], [ 91.7352, 25.0218 ], [ 91.7348, 25.0279 ], [ 91.7314, 25.0247 ], [ 91.7332, 25.0221 ], [ 91.7303, 25.0224 ], [ 91.7347, 25.02 ], [ 91.7332, 25.0174 ], [ 91.741, 25.0194 ], [ 91.742, 25.0132 ], [ 91.7504, 25.0161 ], [ 91.7489, 25.02 ] ], [ [ 91.7426, 24.9945 ], [ 91.7472, 24.9961 ], [ 91.7473, 24.9957 ], [ 91.7482, 24.9996 ], [ 91.7439, 24.9997 ], [ 91.7426, 24.9945 ] ], [ [ 91.7378, 24.9786 ], [ 91.7449, 24.9781 ], [ 91.7481, 24.9814 ], [ 91.7418, 24.9842 ], [ 91.7381, 24.9836 ], [ 91.7378, 24.9786 ] ], [ [ 91.7372, 25.0761 ], [ 91.7387, 25.0689 ], [ 91.7398, 25.0732 ], [ 91.7428, 25.0715 ], [ 91.7372, 25.0761 ] ], [ [ 91.7304, 25.0102 ], [ 91.7294, 25.0071 ], [ 91.738, 25.0093 ], [ 91.7304, 25.0102 ] ], [ [ 91.736, 25.0684 ], [ 91.7234, 25.0651 ], [ 91.7326, 25.0644 ], [ 91.7293, 25.0663 ], [ 91.736, 25.0684 ] ] ] } },
{ "type": "Feature", "properties": { "date": "2022-05-25" }, "geometry": { "type": "Polygon", "coordinates": [ [ [ 91.8052, 24.9878 ], [ 91.8134, 24.9895 ], [ 91.8154, 24.9859 ], [ 91.8202, 24.9897 ], [ 91.8309, 24.9889 ], [ 91.8181, 24.9908 ], [ 91.8218, 24.9963 ], [ 91.8176, 24.9986 ], [ 91.8167, 24.994 ], [ 91.814, 24.9952 ], [ 91.8158, 25.0022 ], [ 91.8213, 25.0011 ], [ 91.8184, 25.003 ], [ 91.823, 25.005 ], [ 91.8311, 25.0001 ], [ 91.8287, 24.9946 ], [ 91.8435, 24.9985 ], [ 91.8462, 24.9928 ], [ 91.8419, 24.9922 ], [ 91.8487, 24.9922 ], [ 91.849, 24.9894 ], [ 91.8455, 24.9895 ], [ 91.8449, 24.9848 ], [ 91.8387, 24.9852 ], [ 91.8419, 24.9833 ], [ 91.8308, 24.9856 ], [ 91.8327, 24.9888 ], [ 91.826, 24.9847 ], [ 91.8266, 24.987 ], [ 91.8206, 24.9795 ], [ 91.8255, 24.9768 ], [ 91.8287, 24.966 ], [ 91.8238, 24.9627 ], [ 91.8263, 24.9692 ], [ 91.8233, 24.9631 ], [ 91.8032, 24.9548 ], [ 91.8023, 24.9518 ], [ 91.7988, 24.9593 ], [ 91.8042, 24.9598 ], [ 91.798, 24.9601 ], [ 91.7944, 24.965 ], [ 91.8038, 24.9664 ], [ 91.7982, 24.9671 ], [ 91.7988, 24.9717 ], [ 91.8029, 24.9726 ], [ 91.797, 24.9795 ], [ 91.802, 24.9812 ], [ 91.8004, 24.9843 ], [ 91.8035, 24.9819 ], [ 91.8076, 24.9848 ], [ 91.8052, 24.9878 ] ] ] } },
{ "type": "Feature", "properties": { "date": "2022-05-25" }, "geometry": { "type": "Polygon", "coordinates": [ [ [ 91.8768, 24.9931 ], [ 91.8729, 24.9928 ], [ 91.8736, 24.9974 ], [ 91.8784, 24.9982 ], [ 91.8741, 24.9952 ], [ 91.8768, 24.9931 ] ] ] } },
{ "type": "Feature", "properties": { "date": "2022-05-25" }, "geometry": { "type": "Polygon", "coordinates": [ [ [ 91.8859, 25.1444 ], [ 91.8883, 25.1441 ], [ 91.8887, 25.1399 ], [ 91.8848, 25.1361 ], [ 91.8799, 25.1395 ], [ 91.8859, 25.1444 ] ] ] } },
{ "type": "Feature", "properties": { "date": "2022-05-25" }, "geometry": { "type": "Polygon", "coordinates": [ [ [ 91.8832, 25.1449 ], [ 91.8864, 25.1488 ], [ 91.8831, 25.1497 ], [ 91.8871, 25.1489 ], [ 91.889, 25.1534 ], [ 91.8867, 25.1455 ], [ 91.8832, 25.1449 ] ] ] } },
{ "type": "Feature", "properties": { "date": "2022-05-25" }, "geometry": { "type": "Polygon", "coordinates": [ [ [ 91.9166, 25.0074 ], [ 91.9354, 25.0101 ], [ 91.9316, 25.0091 ], [ 91.9341, 25.0076 ], [ 91.9313, 25.0045 ], [ 91.9294, 25.0074 ], [ 91.9207, 25.0018 ], [ 91.917, 25.0037 ], [ 91.9155, 24.9962 ], [ 91.9106, 24.9963 ], [ 91.9192, 25.0174 ], [ 91.9166, 25.0074 ] ] ] } },
{ "type": "Feature", "properties": { "date": "2022-05-25" }, "geometry": { "type": "Polygon", "coordinates": [ [ [ 91.9301, 25.1587 ], [ 91.9293, 25.1577 ], [ 91.9227, 25.1599 ], [ 91.9234, 25.1637 ], [ 91.9268, 25.1611 ], [ 91.9333, 25.1655 ], [ 91.9329, 25.1568 ], [ 91.9301, 25.1587 ] ] ] } },
{ "type": "Feature", "properties": { "date": "2022-05-25" }, "geometry": { "type": "Polygon", "coordinates": [ [ [ 91.8983, 25.1482 ], [ 91.9004, 25.144 ], [ 91.9132, 25.1484 ], [ 91.9277, 25.1485 ], [ 91.9324, 25.1405 ], [ 91.9257, 25.1433 ], [ 91.9135, 25.1393 ], [ 91.9127, 25.1426 ], [ 91.9094, 25.1423 ], [ 91.9065, 25.1394 ], [ 91.9079, 25.1338 ], [ 91.9034, 25.1314 ], [ 91.8999, 25.1341 ], [ 91.9032, 25.1428 ], [ 91.9007, 25.1399 ], [ 91.8953, 25.1422 ], [ 91.8983, 25.1482 ] ] ] } },
{ "type": "Feature", "properties": { "date": "2022-05-25" }, "geometry": { "type": "Polygon", "coordinates": [ [ [ 91.9134, 25.1791 ], [ 91.9124, 25.174 ], [ 91.918, 25.1711 ], [ 91.916, 25.1671 ], [ 91.9136, 25.172 ], [ 91.9122, 25.1661 ], [ 91.9042, 25.1635 ], [ 91.909, 25.172 ], [ 91.9039, 25.1756 ], [ 91.9134, 25.1791 ] ] ] } },
{ "type": "Feature", "properties": { "date": "2022-05-25" }, "geometry": { "type": "MultiPolygon", "coordinates": [ [ [ [ 91.8629, 24.9823 ], [ 91.8625, 24.9861 ], [ 91.858, 24.9855 ], [ 91.8636, 24.9897 ], [ 91.8682, 24.9865 ], [ 91.8781, 24.9872 ], [ 91.8767, 24.9846 ], [ 91.8815, 24.9834 ], [ 91.8819, 24.9866 ], [ 91.8778, 24.9878 ], [ 91.8892, 24.9929 ], [ 91.8952, 24.9915 ], [ 91.8969, 25.0003 ], [ 91.9063, 25.0092 ], [ 91.9021, 25.0018 ], [ 91.9076, 25.009 ], [ 91.9126, 25.004 ], [ 91.9025, 24.9882 ], [ 91.896, 24.9905 ], [ 91.8934, 24.9844 ], [ 91.8844, 24.9844 ], [ 91.8793, 24.9783 ], [ 91.8759, 24.9839 ], [ 91.8749, 24.9791 ], [ 91.8651, 24.9827 ], [ 91.8691, 24.9844 ], [ 91.8641, 24.9827 ], [ 91.8629, 24.9823 ] ], [ [ 91.8726, 24.9824 ], [ 91.8673, 24.9822 ], [ 91.8734, 24.982 ], [ 91.8742, 24.986 ], [ 91.8726, 24.9824 ] ] ], [ [ [ 91.8667, 24.9796 ], [ 91.8625, 24.98 ], [ 91.8663, 24.9782 ], [ 91.8643, 24.9751 ], [ 91.8675, 24.9784 ], [ 91.8693, 24.9737 ], [ 91.8617, 24.9692 ], [ 91.8585, 24.9764 ], [ 91.8641, 24.9827 ], [ 91.8667, 24.9796 ] ] ] ] } },
{ "type": "Feature", "properties": { "date": "2022-05-25" }, "geometry": { "type": "Polygon", "coordinates": [ [ [ 91.885, 25.1763 ], [ 91.8942, 25.1753 ], [ 91.8985, 25.1712 ], [ 91.8948, 25.1708 ], [ 91.8946, 25.1659 ], [ 91.8864, 25.1738 ], [ 91.8808, 25.1689 ], [ 91.885, 25.1763 ] ] ] } },
{ "type": "Feature", "properties": { "date": "2022-05-25" }, "geometry": { "type": "Polygon", "coordinates": [ [ [ 91.8856, 25.1689 ], [ 91.8853, 25.1651 ], [ 91.8838, 25.1671 ], [ 91.8808, 25.164 ], [ 91.8797, 25.1685 ], [ 91.8856, 25.1689 ] ] ] } },
{ "type": "Feature", "properties": { "date": "2022-05-25" }, "geometry": { "type": "Polygon", "coordinates": [ [ [ 91.8826, 25.0816 ], [ 91.8783, 25.0736 ], [ 91.8742, 25.0728 ], [ 91.8826, 25.0816 ] ] ] } },
{ "type": "Feature", "properties": { "date": "2022-05-25" }, "geometry": { "type": "Polygon", "coordinates": [ [ [ 91.8728, 25.0026 ], [ 91.8767, 25.0037 ], [ 91.8773, 24.9988 ], [ 91.8728, 25.0026 ] ] ] } },
{ "type": "Feature", "properties": { "date": "2022-05-25" }, "geometry": { "type": "Polygon", "coordinates": [ [ [ 91.8721, 25.0728 ], [ 91.8639, 25.0627 ], [ 91.8645, 25.0579 ], [ 91.8591, 25.0587 ], [ 91.8612, 25.0672 ], [ 91.8662, 25.067 ], [ 91.863, 25.0708 ], [ 91.8721, 25.0728 ] ] ] } },
{ "type": "Feature", "properties": { "date": "2022-05-25" }, "geometry": { "type": "Polygon", "coordinates": [ [ [ 91.8658, 25.055 ], [ 91.8705, 25.0496 ], [ 91.8645, 25.0507 ], [ 91.8658, 25.055 ] ] ] } },
{ "type": "Feature", "properties": { "date": "2022-05-25" }, "geometry": { "type": "Polygon", "coordinates": [ [ [ 91.8137, 24.9542 ], [ 91.8105, 24.9549 ], [ 91.8213, 24.9603 ], [ 91.8151, 24.956 ], [ 91.8288, 24.9508 ], [ 91.8288, 24.9511 ], [ 91.8173, 24.9559 ], [ 91.8333, 24.9663 ], [ 91.8381, 24.9607 ], [ 91.8307, 24.9572 ], [ 91.8291, 24.9518 ], [ 91.8306, 24.9566 ], [ 91.8384, 24.9599 ], [ 91.8371, 24.9654 ], [ 91.8387, 24.966 ], [ 91.8381, 24.9717 ], [ 91.8372, 24.9655 ], [ 91.8354, 24.9745 ], [ 91.8343, 24.9689 ], [ 91.8333, 24.9766 ], [ 91.8245, 24.9785 ], [ 91.8248, 24.9825 ], [ 91.8295, 24.9842 ], [ 91.8268, 24.9823 ], [ 91.8307, 24.9839 ], [ 91.8286, 24.9804 ], [ 91.8346, 24.9785 ], [ 91.8297, 24.9818 ], [ 91.8377, 24.9832 ], [ 91.8423, 24.9752 ], [ 91.8473, 24.9778 ], [ 91.8515, 24.9755 ], [ 91.8485, 24.9736 ], [ 91.8584, 24.9728 ], [ 91.8545, 24.9703 ], [ 91.8435, 24.9729 ], [ 91.8495, 24.9677 ], [ 91.8402, 24.9651 ], [ 91.842, 24.9622 ], [ 91.8472, 24.9636 ], [ 91.846, 24.9603 ], [ 91.8487, 24.9594 ], [ 91.8448, 24.9525 ], [ 91.8471, 24.9516 ], [ 91.844, 24.95 ], [ 91.8371, 24.9556 ], [ 91.8363, 24.9491 ], [ 91.8325, 24.9516 ], [ 91.8281, 24.9477 ], [ 91.8288, 24.945 ], [ 91.8385, 24.9483 ], [ 91.8328, 24.9463 ], [ 91.8311, 24.9392 ], [ 91.8269, 24.9401 ], [ 91.8261, 24.9469 ], [ 91.8198, 24.9422 ], [ 91.8213, 24.9495 ], [ 91.8176, 24.948 ], [ 91.8175, 24.9428 ], [ 91.8114, 24.9413 ], [ 91.8093, 24.9465 ], [ 91.8021, 24.9485 ], [ 91.8137, 24.9542 ] ], [ [ 91.839, 24.9661 ], [ 91.8429, 24.9677 ], [ 91.8397, 24.9698 ], [ 91.839, 24.9661 ] ] ] } },
{ "type": "Feature", "properties": { "date": "2022-05-25" }, "geometry": { "type": "Polygon", "coordinates": [ [ [ 91.8523, 24.9891 ], [ 91.858, 24.9839 ], [ 91.8557, 24.9826 ], [ 91.8551, 24.9847 ], [ 91.8486, 24.985 ], [ 91.8523, 24.9891 ] ] ] } },
{ "type": "Feature", "properties": { "date": "2022-05-25" }, "geometry": { "type": "Polygon", "coordinates": [ [ [ 91.8554, 25.0097 ], [ 91.8534, 25.004 ], [ 91.8562, 25.0045 ], [ 91.8503, 24.9942 ], [ 91.8453, 25.0018 ], [ 91.8467, 25.0072 ], [ 91.8493, 25.0022 ], [ 91.8503, 25.0065 ], [ 91.8475, 25.0075 ], [ 91.8554, 25.0097 ] ] ] } },
{ "type": "Feature", "properties": { "date": "2022-05-25" }, "geometry": { "type": "Polygon", "coordinates": [ [ [ 91.8547, 24.9832 ], [ 91.8493, 24.9813 ], [ 91.8507, 24.9765 ], [ 91.8466, 24.9825 ], [ 91.8547, 24.9832 ] ] ] } },
{ "type": "Feature", "properties": { "date": "2022-05-25" }, "geometry": { "type": "Polygon", "coordinates": [ [ [ 91.8522, 24.9664 ], [ 91.854, 24.963 ], [ 91.8497, 24.9608 ], [ 91.8522, 24.9664 ] ] ] } },
{ "type": "Feature", "properties": { "date": "2022-05-25" }, "geometry": { "type": "Polygon", "coordinates": [ [ [ 91.8438, 25.0137 ], [ 91.8458, 24.997 ], [ 91.8383, 25.0074 ], [ 91.8438, 25.0137 ] ] ] } },
{ "type": "Feature", "properties": { "date": "2022-05-25" }, "geometry": { "type": "Polygon", "coordinates": [ [ [ 91.8352, 25.0203 ], [ 91.8377, 25.021 ], [ 91.8342, 25.0193 ], [ 91.8352, 25.0153 ], [ 91.8295, 25.023 ], [ 91.8299, 25.0277 ], [ 91.8352, 25.0203 ] ] ] } },
{ "type": "Feature", "properties": { "date": "2022-05-25" }, "geometry": { "type": "Polygon", "coordinates": [ [ [ 91.8321, 24.9744 ], [ 91.8333, 24.9696 ], [ 91.829, 24.9658 ], [ 91.8279, 24.9714 ], [ 91.8318, 24.9708 ], [ 91.8264, 24.9761 ], [ 91.8321, 24.9744 ] ] ] } },
{ "type": "Feature", "properties": { "date": "2022-05-25" }, "geometry": { "type": "Polygon", "coordinates": [ [ [ 91.8242, 25.1744 ], [ 91.8262, 25.1688 ], [ 91.8214, 25.162 ], [ 91.8242, 25.1744 ] ] ] } },
{ "type": "Feature", "properties": { "date": "2022-05-25" }, "geometry": { "type": "Polygon", "coordinates": [ [ [ 91.8043, 24.9271 ], [ 91.8052, 24.9229 ], [ 91.8008, 24.9215 ], [ 91.7996, 24.9249 ], [ 91.8043, 24.9271 ] ] ] } },
{ "type": "Feature", "properties": { "date": "2022-05-25" }, "geometry": { "type": "Polygon", "coordinates": [ [ [ 91.8, 24.946 ], [ 91.7981, 24.9383 ], [ 91.8029, 24.9356 ], [ 91.799, 24.9371 ], [ 91.7974, 24.9312 ], [ 91.796, 24.9353 ], [ 91.7912, 24.9361 ], [ 91.7963, 24.9355 ], [ 91.7912, 24.9434 ], [ 91.8, 24.946 ] ] ] } },
{ "type": "Feature", "properties": { "date": "2022-05-25" }, "geometry": { "type": "Polygon", "coordinates": [ [ [ 91.7968, 25.1676 ], [ 91.8009, 25.1643 ], [ 91.8006, 25.1586 ], [ 91.797, 25.1607 ], [ 91.7974, 25.1562 ], [ 91.7946, 25.1616 ], [ 91.7891, 25.1583 ], [ 91.789, 25.1671 ], [ 91.7968, 25.1676 ] ] ] } },
{ "type": "Feature", "properties": { "date": "2022-05-25" }, "geometry": { "type": "Polygon", "coordinates": [ [ [ 91.8009, 24.9862 ], [ 91.7941, 24.9813 ], [ 91.7914, 24.984 ], [ 91.8009, 24.9862 ] ] ] } },
{ "type": "Feature", "properties": { "date": "2022-05-25" }, "geometry": { "type": "Polygon", "coordinates": [ [ [ 91.7917, 24.961 ], [ 91.7991, 24.9572 ], [ 91.7926, 24.956 ], [ 91.7917, 24.961 ] ] ] } },
{ "type": "Feature", "properties": { "date": "2022-05-25" }, "geometry": { "type": "Polygon", "coordinates": [ [ [ 91.797, 24.9604 ], [ 91.7907, 24.9615 ], [ 91.794, 24.9647 ], [ 91.797, 24.9604 ] ] ] } },
{ "type": "Feature", "properties": { "date": "2022-05-25" }, "geometry": { "type": "Polygon", "coordinates": [ [ [ 91.7878, 24.9358 ], [ 91.7935, 24.9325 ], [ 91.7958, 24.9257 ], [ 91.7862, 24.9232 ], [ 91.7807, 24.9254 ], [ 91.7844, 24.9321 ], [ 91.7807, 24.9327 ], [ 91.7842, 24.9338 ], [ 91.7856, 24.9308 ], [ 91.7878, 24.9358 ] ] ] } },
{ "type": "Feature", "properties": { "date": "2022-05-25" }, "geometry": { "type": "Polygon", "coordinates": [ [ [ 91.7867, 24.9175 ], [ 91.7916, 24.9147 ], [ 91.7892, 24.9124 ], [ 91.789, 24.9156 ], [ 91.7848, 24.9149 ], [ 91.7867, 24.9175 ] ] ] } },
{ "type": "Feature", "properties": { "date": "2022-05-25" }, "geometry": { "type": "Polygon", "coordinates": [ [ [ 91.7884, 24.9233 ], [ 91.7913, 24.9206 ], [ 91.7894, 24.9177 ], [ 91.7865, 24.921 ], [ 91.7884, 24.9233 ] ] ] } },
{ "type": "Feature", "properties": { "date": "2022-05-25" }, "geometry": { "type": "Polygon", "coordinates": [ [ [ 91.7874, 24.9486 ], [ 91.7908, 24.9441 ], [ 91.7862, 24.9439 ], [ 91.7857, 24.9398 ], [ 91.7889, 24.9392 ], [ 91.7808, 24.9348 ], [ 91.7829, 24.9476 ], [ 91.7874, 24.9486 ] ] ] } },
{ "type": "Feature", "properties": { "date": "2022-05-25" }, "geometry": { "type": "Polygon", "coordinates": [ [ [ 91.7309, 24.9553 ], [ 91.7353, 24.956 ], [ 91.7474, 24.95 ], [ 91.7469, 24.9468 ], [ 91.7486, 24.9492 ], [ 91.7521, 24.947 ], [ 91.7466, 24.9407 ], [ 91.7523, 24.9467 ], [ 91.7596, 24.9465 ], [ 91.758, 24.9535 ], [ 91.763, 24.9536 ], [ 91.7617, 24.9497 ], [ 91.7589, 24.9523 ], [ 91.7626, 24.9477 ], [ 91.7599, 24.9465 ], [ 91.7641, 24.9464 ], [ 91.7644, 24.9529 ], [ 91.7762, 24.9499 ], [ 91.7796, 24.9359 ], [ 91.7732, 24.9397 ], [ 91.7682, 24.9375 ], [ 91.7716, 24.9368 ], [ 91.771, 24.9334 ], [ 91.7779, 24.9338 ], [ 91.7759, 24.9311 ], [ 91.7809, 24.9284 ], [ 91.7739, 24.9251 ], [ 91.7795, 24.9249 ], [ 91.777, 24.9221 ], [ 91.7814, 24.92 ], [ 91.7738, 24.9221 ], [ 91.7783, 24.9197 ], [ 91.7757, 24.9164 ], [ 91.7787, 24.9168 ], [ 91.7795, 24.9134 ], [ 91.772, 24.911 ], [ 91.7684, 24.9155 ], [ 91.7669, 24.9104 ], [ 91.7651, 24.9136 ], [ 91.7647, 24.9105 ], [ 91.7478, 24.9102 ], [ 91.7525, 24.9186 ], [ 91.7459, 24.911 ], [ 91.7408, 24.9116 ], [ 91.7477, 24.9209 ], [ 91.7454, 24.9192 ], [ 91.7435, 24.9236 ], [ 91.7414, 24.9195 ], [ 91.7385, 24.9217 ], [ 91.7403, 24.9314 ], [ 91.7355, 24.9244 ], [ 91.7295, 24.9544 ], [ 91.7309, 24.9553 ] ], [ [ 91.7671, 24.9172 ], [ 91.7647, 24.9202 ], [ 91.7626, 24.919 ], [ 91.7671, 24.9172 ] ] ] } },
{ "type": "Feature", "properties": { "date": "2022-05-25" }, "geometry": { "type": "Polygon", "coordinates": [ [ [ 91.7701, 25.1555 ], [ 91.7694, 25.1552 ], [ 91.7706, 25.152 ], [ 91.7673, 25.1511 ], [ 91.7701, 25.1528 ], [ 91.7683, 25.1553 ], [ 91.7633, 25.1515 ], [ 91.7655, 25.1557 ], [ 91.7701, 25.1555 ] ] ] } },
{ "type": "Feature", "properties": { "date": "2022-05-25" }, "geometry": { "type": "Polygon", "coordinates": [ [ [ 91.7604, 25.1663 ], [ 91.7648, 25.1649 ], [ 91.7643, 25.1604 ], [ 91.7604, 25.1663 ] ] ] } },
{ "type": "Feature", "properties": { "date": "2022-05-25" }, "geometry": { "type": "Polygon", "coordinates": [ [ [ 91.763, 24.907 ], [ 91.763, 24.9044 ], [ 91.7551, 24.9052 ], [ 91.763, 24.907 ] ] ] } },
{ "type": "Feature", "properties": { "date": "2022-05-25" }, "geometry": { "type": "Polygon", "coordinates": [ [ [ 91.737, 25.1086 ], [ 91.7394, 25.1133 ], [ 91.7452, 25.113 ], [ 91.7465, 25.1082 ], [ 91.7471, 25.1138 ], [ 91.7552, 25.106 ], [ 91.7321, 25.1008 ], [ 91.7283, 25.1061 ], [ 91.73, 25.1095 ], [ 91.7347, 25.1095 ], [ 91.7314, 25.1102 ], [ 91.7348, 25.1136 ], [ 91.737, 25.1086 ] ] ] } },
{ "type": "Feature", "properties": { "date": "2022-05-25" }, "geometry": { "type": "Polygon", "coordinates": [ [ [ 91.725, 25.1467 ], [ 91.7227, 25.1438 ], [ 91.7283, 25.1425 ], [ 91.7264, 25.1384 ], [ 91.7258, 25.1423 ], [ 91.7209, 25.142 ], [ 91.725, 25.1467 ] ] ] } }
]
}
