{"type": "FeatureCollection", "features": [{"type": "Feature", "properties": {"name": "Barak River", "flow_order": 0}, "geometry": {"type": "LineString", "coordinates": [[93.0233945, 24.7878946], [93.0176065, 24.7892272], [93.0090126, 24.7901001], [93.0064644, 24.7903589], [93.0038656, 24.7905385], [93.0002632, 24.7907875], [92.990999, 24.790474], [92.9850982, 24.7893442], [92.9779528, 24.7859545], [92.9745195, 24.786422], [92.9728994, 24.7870839], [92.9710863, 24.7878246], [92.9650782, 24.7893831], [92.9573534, 24.790474], [92.9552935, 24.7920324], [92.9522036, 24.7960842], [92.9470418, 24.8026717], [92.9451252, 24.8042566], [92.9416031, 24.8070256], [92.9388938, 24.8086105], [92.9360841, 24.8095487], [92.9348028, 24.8095287]]}}, {"type": "Feature", "properties": {"name": "Barak River", "flow_order": 0}, "geometry": {"type": "LineString", "coordinates": [[93.2053327, 24.7003936], [93.2058377, 24.70013], [93.2062676, 24.6999153], [93.2073636, 24.6997981], [93.2089647, 24.7002374], [93.2104691, 24.7005693], [93.2121454, 24.7005889], [93.2142246, 24.7004085], [93.2152831, 24.7002765], [93.2159923, 24.6999641], [93.2164973, 24.6995052], [93.2166263, 24.6990952], [93.2165833, 24.6986461], [93.2156807, 24.6975527], [93.2146168, 24.6961176], [93.2137357, 24.6944384], [93.2134993, 24.693511], [93.2132918, 24.6927233], [93.2128868, 24.6921344], [93.2122636, 24.6913533], [93.2113015, 24.6905594], [93.2096952, 24.6892399], [93.2090901, 24.6886002], [93.208661, 24.6875006], [93.208529, 24.6869708], [93.208595, 24.6867509], [93.2087491, 24.6865909], [93.2088591, 24.6862111], [93.2087601, 24.6858412], [93.208067, 24.6844817], [93.2073738, 24.6830722], [93.2068678, 24.6821125], [93.2068238, 24.6814828], [93.2069338, 24.6805031], [93.2069668, 24.6795034], [93.2068018, 24.6789236], [93.2062627, 24.6779639], [93.2058226, 24.6771941], [93.2051968, 24.6763556], [93.2049755, 24.6759645], [93.2046674, 24.6753247], [93.2045643, 24.6748542], [93.2046037, 24.6744448], [93.2049811, 24.6733957], [93.2052289, 24.6728737], [93.2053978, 24.6723465], [93.2054429, 24.6720957], [93.2054758, 24.6716467], [93.2055555, 24.6715072], [93.2057245, 24.671282], [93.2060455, 24.6711131], [93.2063102, 24.6710261], [93.2067608, 24.6709289], [93.2072845, 24.6709698], [93.207859, 24.6709289], [93.2081025, 24.6708932], [93.2087658, 24.6707958], [93.2092952, 24.6707651], [93.2099541, 24.6707804], [93.2107919, 24.6709496], [93.2128358, 24.6717345], [93.2142413, 24.672763], [93.2153249, 24.6736112], [93.216092, 24.6740158], [93.2167304, 24.6740207], [93.2179052, 24.6734796], [93.2185543, 24.6729483], [93.2191229, 24.6722171], [93.2194179, 24.6713152], [93.2195038, 24.6708668], [93.2192999, 24.6706961], [93.2191535, 24.6705809], [93.218978, 24.6704427], [93.2188439, 24.6699893], [93.2183504, 24.6688193], [93.2182109, 24.6674105], [93.2182105, 24.6672987], [93.2182056, 24.666026], [93.2177925, 24.6648707], [93.2174867, 24.6646903], [93.216784, 24.6644953], [93.216151, 24.6644027], [93.2157433, 24.6644953], [93.2153141, 24.6648317], [93.2148367, 24.6655629], [93.2140535, 24.666923], [93.2137746, 24.6672691], [93.2134688, 24.6676591], [93.212809, 24.6679175], [93.2124388, 24.6678346], [93.2120579, 24.6676494], [93.211602, 24.6673033], [93.2112962, 24.6667621], [93.2109046, 24.6663624], [93.2100248, 24.6659285], [93.2094079, 24.6655873], [93.2091612, 24.6653045], [93.2088554, 24.6647829], [93.2085013, 24.663803], [93.2081473, 24.6628426], [93.2081634, 24.6623259], [93.2082546, 24.6618238], [93.2084584, 24.6612875], [93.2089412, 24.6607317], [93.2094508, 24.660293], [93.2101321, 24.6597031], [93.2112586, 24.6586793], [93.2120311, 24.6576945], [93.2127178, 24.6566317], [93.2129431, 24.6556566], [93.2131791, 24.6537259], [93.2131791, 24.6523803], [93.2130933, 24.651844], [93.2130886, 24.6518204], [93.212986, 24.6513077], [93.2129538, 24.6508494], [93.2129645, 24.6505569], [93.2130718, 24.6502741], [93.2135379, 24.6500119], [93.2136351, 24.6499572], [93.214032, 24.6496354], [93.2144773, 24.6490259], [93.2155287, 24.6480898], [93.2170039, 24.647061], [93.217712, 24.6466076], [93.2181519, 24.6461883], [93.2185113, 24.6456812], [93.2189298, 24.6450522], [93.2196057, 24.6443063], [93.2201689, 24.6434384], [93.220936, 24.6420341], [93.2215261, 24.6409419], [93.2219338, 24.6395669], [93.2222021, 24.6383381], [93.2221377, 24.637441], [93.2219124, 24.6362707], [93.2217085, 24.6355588], [93.22173, 24.6346323], [93.22173, 24.6335888], [93.2215905, 24.6330427], [93.2215697, 24.6330082], [93.2213223, 24.6325989], [93.2211775, 24.6323161], [93.22092, 24.631453], [93.2206249, 24.6309166], [93.2205713, 24.6307606], [93.2205176, 24.63039], [93.2205552, 24.629956], [93.2205713, 24.6297219], [93.2205713, 24.6294732], [93.2205284, 24.629283], [93.2205113, 24.6292268], [93.2204586, 24.6290538], [93.2201689, 24.6288685], [93.2194126, 24.6285077], [93.2185006, 24.6282541], [93.2172453, 24.6281712], [93.2161832, 24.6281322], [93.2149279, 24.6283273], [93.2140374, 24.6285613], [93.2130611, 24.6289417], [93.2122409, 24.6289649], [93.2121974, 24.6289661], [93.2110977, 24.6287905], [93.2104003, 24.6284199], [93.2098693, 24.6278884], [93.2097191, 24.6274788], [93.2096761, 24.6271715], [93.2097834, 24.6268302], [93.2102126, 24.6262401], [93.2104111, 24.6257379], [93.2104701, 24.6248552], [93.2104486, 24.6240213], [93.210749, 24.6229728], [93.2112426, 24.6217049], [93.211897, 24.6207832], [93.2135493, 24.619369], [93.2142144, 24.6186716], [93.2145631, 24.6182522], [93.2146382, 24.6177889], [93.2146221, 24.6168867], [93.2144397, 24.6157016], [93.2142144, 24.6145945], [93.2138175, 24.613624], [93.213678, 24.6131119], [93.2134795, 24.6116098], [93.2134205, 24.6108636], [93.2132918, 24.6097614], [93.2132381, 24.6090493], [93.2133132, 24.608425], [93.2134581, 24.6076593], [93.2137853, 24.6068302], [93.2144183, 24.6057913], [93.2146919, 24.6051085], [93.2147133, 24.6047037], [93.2146972, 24.6043135], [93.2146919, 24.604055], [93.2147402, 24.6038306], [93.2151049, 24.6033087], [93.215915, 24.6025722], [93.2163441, 24.602065], [93.2170844, 24.6010749], [93.2171702, 24.600792], [93.2171273, 24.6002115], [93.2169878, 24.5999043], [93.2167679, 24.599675], [93.2165265, 24.5994945], [93.2162046, 24.5991726], [93.2160491, 24.5989092], [93.2159686, 24.5984459], [93.2159632, 24.5977484], [93.2161349, 24.5966704], [93.2164353, 24.5959875], [93.2169054, 24.5952063], [93.2172239, 24.5946706], [93.2172453, 24.5940755], [93.2171971, 24.5936901], [93.2168108, 24.5928414], [93.2162476, 24.5922219], [93.2152015, 24.5905293], [93.2145578, 24.5895976], [93.2142681, 24.5891245], [93.2139087, 24.5887489], [93.2134473, 24.588383], [93.2128197, 24.5878562], [93.2117951, 24.5869684], [93.2107919, 24.5863928], [93.210116, 24.5859586], [93.209703, 24.5858611], [93.2093704, 24.5858464], [93.2088339, 24.5860952], [93.2083297, 24.5865635], [93.2077718, 24.5875684], [93.2068276, 24.588622], [93.2061839, 24.5889733], [93.2052827, 24.5892952], [93.2049501, 24.5892952], [93.2045102, 24.5889342], [93.2039523, 24.5884562], [93.2032657, 24.5875391], [93.2024288, 24.5865928], [93.2017851, 24.5844855], [93.2015169, 24.5835684], [93.201828, 24.5806512], [93.2020748, 24.5798902], [93.2025683, 24.5795097], [93.203448, 24.5791584], [93.2041991, 24.5791096], [93.2047248, 24.5794609], [93.2051217, 24.5794902], [93.205508, 24.5792658], [93.2058728, 24.5788072], [93.2062268, 24.5780852], [93.2058942, 24.5770119], [93.2055337, 24.5764004], [93.205083, 24.575863], [93.2046546, 24.5753389], [93.2043738, 24.5749022], [93.2042039, 24.5743849], [93.2041227, 24.573881], [93.2041522, 24.5735182], [93.2042187, 24.5732898], [93.204492, 24.5730345], [93.2048319, 24.572759], [93.2056888, 24.5721141], [93.2059843, 24.5718252], [93.2062355, 24.5714153], [93.2066788, 24.5708644], [93.2067157, 24.5705352], [93.206664, 24.5701993], [93.206531, 24.5699238], [93.2061395, 24.5694938], [93.205615, 24.5690638], [93.2047801, 24.5685868], [93.2042926, 24.5684591], [93.2037976, 24.5683986], [93.2031992, 24.5684188], [93.2025122, 24.5686741], [93.2023496, 24.5687883], [93.2019507, 24.5693124], [93.2016109, 24.569991], [93.200909, 24.5710122], [93.2005249, 24.5715027], [93.199901, 24.5719508], [93.1992552, 24.5722921], [93.1986455, 24.5725546], [93.1978084, 24.5727318], [93.1969498, 24.5728236], [93.1964952, 24.5728171], [93.1961849, 24.5727744], [93.1958349, 24.5726366], [93.1954669, 24.5723676], [93.1951025, 24.5720165], [93.1946552, 24.5715505], [93.1943665, 24.5713176], [93.1940057, 24.5711338], [93.1932986, 24.5709632], [93.1925049, 24.5709042], [93.1919276, 24.5709534], [93.191455, 24.5709796], [93.1912674, 24.5709402], [93.191022, 24.5708221], [93.1907983, 24.5705924], [93.1906432, 24.5703234], [93.1904736, 24.5697492], [93.1903437, 24.5694506], [93.1902066, 24.5692307], [93.1899862, 24.5688371], [93.1898734, 24.568414], [93.1898734, 24.5681063], [93.1899721, 24.567664], [93.1902963, 24.5672859], [93.1906769, 24.5669846], [93.1912548, 24.5668628], [93.1918045, 24.5668628], [93.1924459, 24.5669846], [93.1932846, 24.5672859], [93.1939824, 24.5673884], [93.1947154, 24.5673243], [93.1965055, 24.566882], [93.1970835, 24.5666128], [93.1973584, 24.5663756], [93.1974852, 24.566068], [93.1975134, 24.565568], [93.1973724, 24.5645808], [93.1970976, 24.5636578], [93.1962166, 24.5620873], [93.1957232, 24.5613181], [93.1948352, 24.5604014], [93.1937075, 24.5596386], [93.1929393, 24.5593052], [93.1922345, 24.5590103], [93.1916918, 24.5585616], [93.1910222, 24.5576898], [93.1901342, 24.556241], [93.1896615, 24.5552035], [93.1894791, 24.5535055], [93.1895542, 24.5521881], [93.1894255, 24.5514757], [93.1889427, 24.5507926], [93.1883633, 24.5503827], [93.1875908, 24.5500704], [93.1851232, 24.5498069], [93.1841254, 24.5497093], [93.1836031, 24.5494645], [93.1798265, 24.5444678], [93.1791365, 24.5433366], [93.1784069, 24.5408186], [93.1776023, 24.5368952], [93.1776237, 24.5338598], [93.1776023, 24.532386], [93.1773019, 24.5318296], [93.1768298, 24.5315368], [93.1757355, 24.5311562], [93.1740725, 24.5308927], [93.1731176, 24.5309415], [93.1725597, 24.5304046], [93.1722734, 24.5293204], [93.1733034, 24.5263531], [93.1728742, 24.5241179], [93.1721628, 24.5221665], [93.1715738, 24.5200129]]}}, {"type": "Feature", "properties": {"name": "Barak River", "flow_order": 0}, "geometry": {"type": "LineString", "coordinates": [[92.9348028, 24.8095287], [92.9340035, 24.8090779], [92.933296, 24.8082785], [92.9326423, 24.8073171], [92.9314399, 24.8060386], [92.9296435, 24.8048622], [92.9260754, 24.8033701], [92.9231928, 24.8027849], [92.9185653, 24.8015781], [92.9162693, 24.8006821], [92.9136729, 24.798929], [92.9111624, 24.7962019], [92.9096389, 24.7931436], [92.9081583, 24.7881761], [92.9075716, 24.7825258], [92.9040384, 24.7772275], [92.9031801, 24.7751819], [92.9037522, 24.7722391], [92.9050684, 24.7699604], [92.9073999, 24.7680307], [92.9100036, 24.7657324], [92.9111838, 24.7638229], [92.9121923, 24.76053], [92.9117987, 24.7566321], [92.910465, 24.7523704], [92.9091292, 24.7511379]]}}, {"type": "Feature", "properties": {"name": "Barak River", "flow_order": 0}, "geometry": {"type": "LineString", "coordinates": [[93.1715738, 24.5200129], [93.1710559, 24.519593], [93.1692759, 24.517698], [93.1686829, 24.51675], [93.1683849, 24.515802], [93.1674959, 24.514855], [93.1670499, 24.513907], [93.1667509, 24.512011], [93.1670459, 24.511062], [93.1667489, 24.510114], [93.1667479, 24.509166], [93.1664499, 24.508218], [93.1668929, 24.507269], [93.1680749, 24.505371], [93.1683699, 24.504423], [93.1677769, 24.503475], [93.1668869, 24.502528], [93.1664419, 24.50158], [93.1654049, 24.501174], [93.1643679, 24.500634], [93.1622939, 24.499823], [93.1614039, 24.498876], [93.1609589, 24.497928], [93.1603649, 24.49698], [93.1600679, 24.496032], [93.1599189, 24.495084], [93.1600659, 24.494136], [93.1605089, 24.493187], [93.1610343, 24.4924218], [93.1617669, 24.4920173], [93.1625397, 24.4919423], [93.163683, 24.4919421], [93.1643575, 24.4924761], [93.1647339, 24.4930722], [93.1655831, 24.4934416], [93.1665521, 24.4935633], [93.1676149, 24.49345], [93.1686509, 24.493042], [93.1696869, 24.493041], [93.1701915, 24.4927411], [93.1705064, 24.4921286], [93.1698175, 24.4900495], [93.1695363, 24.4891738], [93.1691038, 24.4885987], [93.1685898, 24.487908], [93.1679019, 24.486134], [93.1677519, 24.485186], [93.1668599, 24.482342], [93.1667109, 24.481394], [93.1662659, 24.480446], [93.1659679, 24.479498], [93.1653749, 24.47855], [93.1652259, 24.477602], [93.1652249, 24.476654], [93.1656669, 24.475705], [93.1658139, 24.474756], [93.1661973, 24.4740862], [93.1668087, 24.4736361], [93.1678839, 24.473128], [93.1687992, 24.4725631], [93.1693629, 24.471907], [93.1695099, 24.470959], [93.1694076, 24.4703873], [93.1690639, 24.470011], [93.1683229, 24.469064], [93.1672859, 24.468252], [93.1662499, 24.468253], [93.1652139, 24.468661], [93.1641779, 24.468662], [93.1631409, 24.468121], [93.1626959, 24.467173], [93.1621009, 24.465277], [93.1619519, 24.464329], [93.1616549, 24.463381], [93.1618019, 24.462432], [93.1628369, 24.461618], [93.1638719, 24.461211], [93.1649079, 24.460668], [93.1650539, 24.459719], [93.1646089, 24.458772], [93.1637199, 24.457824], [93.161932, 24.456472], [93.160895, 24.45566], [93.1597446, 24.4546252], [93.1592798, 24.4540519], [93.1585339, 24.452953], [93.1582359, 24.452005], [93.1583829, 24.451056], [93.1583799, 24.448211], [93.1582309, 24.447263], [93.1582289, 24.446315], [93.1583759, 24.445366], [93.1582269, 24.444418], [93.1583739, 24.443469], [93.1582249, 24.442521], [93.1579269, 24.441573], [93.1574819, 24.440625], [93.1571849, 24.439677], [93.1561747, 24.4387317], [93.155541, 24.4378203], [93.1549619, 24.43697], [93.1546649, 24.436022], [93.1542199, 24.435074], [93.1530339, 24.433179], [93.1527369, 24.432231], [93.1522919, 24.431283], [93.1512549, 24.430606], [93.1502189, 24.430607], [93.1491829, 24.430202], [93.1481469, 24.429932], [93.1477019, 24.428984], [93.1478489, 24.428036], [93.1475688, 24.4274238], [93.1470026, 24.427072], [93.1462616, 24.426428], [93.1459885, 24.4253931], [93.1457729, 24.42438], [93.1452514, 24.4231932], [93.1436979, 24.421537], [93.1432529, 24.420589], [93.1427791, 24.4194022], [93.1422626, 24.4184325], [93.1415693, 24.4175723], [93.1405859, 24.416798], [93.1395489, 24.415986], [93.1386599, 24.415039], [93.1374749, 24.413143], [93.1352519, 24.4103], [93.1343639, 24.409353], [93.1321409, 24.40651], [93.1309559, 24.404614], [93.1305109, 24.403666], [93.1302139, 24.402718], [93.1300649, 24.40177], [93.1300024, 24.4010608], [93.1297054, 24.4001345], [93.1294848, 24.3991638], [93.1293786, 24.3981507], [93.1293348, 24.3972461], [93.1294054, 24.3961886], [93.1293041, 24.395132], [93.1295514, 24.3942926], [93.1299089, 24.393235], [93.130046, 24.3921567], [93.129902, 24.3909906], [93.1294331, 24.3901294], [93.1289305, 24.3893561], [93.1284676, 24.3882986], [93.1278458, 24.3874819], [93.1264761, 24.3868974], [93.1254639, 24.3864046], [93.1244994, 24.3857286], [93.123683, 24.3847806], [93.1232429, 24.384028], [93.1226499, 24.38308], [93.1220569, 24.381184], [93.1222039, 24.380235], [93.1224989, 24.379287], [93.1228319, 24.3783966], [93.1236811, 24.3764801], [93.1240427, 24.3755311], [93.1239988, 24.3745896], [93.1234486, 24.3739226], [93.122691, 24.3736139], [93.1216059, 24.3733187], [93.1204698, 24.3731511], [93.1195349, 24.373328], [93.1184989, 24.373058], [93.1174639, 24.372923], [93.1164289, 24.373195], [93.1153929, 24.373331], [93.1143579, 24.373332], [93.1133229, 24.373062], [93.1122869, 24.373063], [93.1112519, 24.372793], [93.1103303, 24.3724169], [93.1093086, 24.372003], [93.1081439, 24.371169], [93.1069589, 24.369273], [93.1054789, 24.367378], [93.1044429, 24.366565], [93.1035108, 24.3658157], [93.1031815, 24.3653715], [93.1029457, 24.3649379], [93.1019259, 24.363045], [93.1016289, 24.362097], [93.1016279, 24.361148], [93.1013319, 24.3602], [93.1005919, 24.359252], [93.1004429, 24.358304], [93.0995539, 24.356408], [93.0994059, 24.35546], [93.0980719, 24.352615], [93.0979239, 24.351667], [93.0974789, 24.350719], [93.0964439, 24.350042], [93.0955559, 24.349095], [93.0954069, 24.348146], [93.0936299, 24.344354], [93.0933329, 24.343406], [93.0925929, 24.342458], [93.0921489, 24.34151], [93.0915569, 24.340562], [93.0906689, 24.339614], [93.0885979, 24.338261], [93.0875629, 24.337719], [93.086661, 24.3367476], [93.0865259, 24.335823], [93.0863779, 24.334875], [93.0865249, 24.333926], [93.0841569, 24.330134], [93.0838599, 24.329186], [93.0832679, 24.328238], [93.0829719, 24.32729], [93.0825279, 24.326342], [93.0814919, 24.325394], [93.0808525, 24.3243788], [93.0807744, 24.3239812], [93.0802578, 24.3233913], [93.0801532, 24.3232719], [93.0794334, 24.3228555], [93.078816, 24.3225406], [93.0778686, 24.3224349], [93.0770549, 24.322416], [93.0760199, 24.321739], [93.0743646, 24.3196963], [93.0741558, 24.3190294], [93.0740015, 24.3179042], [93.0736012, 24.3162696], [93.0729708, 24.3142701], [93.0727619, 24.313206], [93.0721505, 24.3124601], [93.0714989, 24.311983], [93.0706383, 24.3117053], [93.0700716, 24.3111607], [93.0693259, 24.3098766], [93.0686199, 24.309008], [93.0675849, 24.308195], [93.0666979, 24.307247], [93.0661059, 24.306299], [93.0650709, 24.305351], [93.0629999, 24.303455], [93.0619649, 24.303049], [93.0609299, 24.302508], [93.0600429, 24.30156], [93.0597459, 24.299663], [93.0594499, 24.298715], [93.0594499, 24.297767], [93.0588569, 24.29587], [93.0589569, 24.2950611], [93.0586128, 24.2943391], [93.0579406, 24.2931998], [93.0572726, 24.2919998], [93.0562998, 24.2909822], [93.0542203, 24.2896011], [93.0531853, 24.289121], [93.052615, 24.2887165], [93.0524643, 24.28806], [93.0525025, 24.2872501], [93.0520631, 24.2862325], [93.0515533, 24.2852758], [93.0510189, 24.284493], [93.0508038, 24.2835102], [93.0508505, 24.2826221], [93.0510416, 24.2816393], [93.0513793, 24.2808555], [93.0520509, 24.280293], [93.0525394, 24.2798185], [93.0526788, 24.2792726], [93.0525702, 24.2787268], [93.0510159, 24.277448], [93.0489459, 24.276094], [93.0479109, 24.275823], [93.0468769, 24.275146], [93.0461369, 24.274198], [93.0452499, 24.27325], [93.0442159, 24.272708], [93.0421459, 24.270812], [93.0411109, 24.27], [93.0405199, 24.269051], [93.0397799, 24.268103], [93.0387459, 24.267155], [93.0377109, 24.266478], [93.0368239, 24.26553], [93.0357889, 24.264717], [93.0349019, 24.263769], [93.0338679, 24.263092], [93.0328329, 24.26255], [93.0317989, 24.262144], [93.0307639, 24.261602], [93.0286949, 24.260248], [93.0276599, 24.2593], [93.0266259, 24.258623], [93.0255909, 24.257674], [93.0248519, 24.256726], [93.0238169, 24.255778], [93.0229309, 24.25483], [93.0223389, 24.253881], [93.0220439, 24.252933], [93.0221909, 24.251985], [93.0226339, 24.251036], [93.0244069, 24.249139], [93.0248499, 24.248191], [93.024693, 24.2472169], [93.0244069, 24.246294], [93.0245539, 24.245346], [93.0251449, 24.244397], [93.0254399, 24.243449], [93.0254399, 24.241552], [93.0245529, 24.239656], [93.0239619, 24.238707], [93.0232229, 24.237759], [93.0223359, 24.236811], [93.0217449, 24.235863], [93.0207109, 24.234914], [93.0196769, 24.234644], [93.0186419, 24.234779], [93.0176079, 24.235186], [93.0165739, 24.235728], [93.0155399, 24.236134], [93.0146529, 24.237083], [93.0140629, 24.238031], [93.0125849, 24.239928], [93.0115509, 24.240877], [93.0106649, 24.241825], [93.0096031, 24.2428933], [93.009106, 24.2437078], [93.0088919, 24.244399], [93.0084489, 24.245348], [93.0081529, 24.246296], [93.0072669, 24.248193], [93.0063799, 24.251038], [93.0062329, 24.251986], [93.0062329, 24.252935], [93.0060849, 24.253883], [93.0057889, 24.254831], [93.0053459, 24.25578], [93.0045252, 24.2559846], [93.0040159, 24.256593], [93.0034249, 24.257541], [93.0031299, 24.258489], [93.0032769, 24.259438], [93.0038689, 24.261334], [93.0043119, 24.262283], [93.0049029, 24.263231], [93.0056419, 24.264179], [93.0066769, 24.265128], [93.0077109, 24.265805], [93.0087459, 24.266347], [93.0096319, 24.267295], [93.0114059, 24.27014], [93.0118489, 24.271089], [93.0118499, 24.272037], [93.0111109, 24.272985], [93.0100759, 24.273392], [93.0090419, 24.273934], [93.0083029, 24.274882], [93.0077119, 24.275831], [93.0072679, 24.276779], [93.0069729, 24.277727], [93.0069729, 24.278676], [93.0066769, 24.279624], [93.0068249, 24.280572], [93.0066769, 24.281521], [93.0063819, 24.282469], [93.0066779, 24.283417], [93.0071209, 24.284366], [93.0074169, 24.285314], [93.0077119, 24.287211], [93.0083039, 24.288159], [93.0093379, 24.289107], [93.0103729, 24.289378], [93.0109639, 24.290327], [93.0119989, 24.290869], [93.0127379, 24.291817], [93.0137729, 24.29263], [93.0148079, 24.293578], [93.0158429, 24.294255], [93.0167299, 24.295203], [93.0177639, 24.295881], [93.0185039, 24.296829], [93.0193909, 24.297777], [93.0208689, 24.299674], [93.0226439, 24.302518], [93.0235309, 24.304415], [93.0238269, 24.305363], [93.0247139, 24.306312], [93.0264879, 24.309156], [93.0267839, 24.310105], [93.0275239, 24.311053], [93.0281149, 24.312001], [93.0285589, 24.312949], [93.0291499, 24.313898], [93.0306289, 24.315794], [93.0307769, 24.316742], [93.0312209, 24.317691], [93.0318129, 24.318639], [93.0321089, 24.319587], [93.0338839, 24.322432], [93.0343269, 24.32338], [93.0344749, 24.324328], [93.0349189, 24.325277], [93.0349189, 24.326225], [93.0350679, 24.327173], [93.0356599, 24.32907], [93.0358079, 24.330018], [93.0355119, 24.330967], [93.0358079, 24.331915], [93.0362519, 24.332863], [93.0368439, 24.333811], [93.0381749, 24.336656], [93.0389149, 24.337604], [93.0399499, 24.338552], [93.0402459, 24.3395], [93.0402469, 24.340449], [93.0403949, 24.341397], [93.0403949, 24.342345], [93.0402479, 24.343294], [93.0392129, 24.343972], [93.0390743, 24.3440446], [93.0381779, 24.344514], [93.0374916, 24.3452399], [93.0366846, 24.3457807], [93.0361079, 24.346411], [93.0350729, 24.346682], [93.0340379, 24.346411], [93.0330029, 24.34587], [93.0309319, 24.344515], [93.0298969, 24.344651], [93.0278269, 24.345464], [93.0267919, 24.345735], [93.0257569, 24.346278], [93.0236869, 24.347091], [93.0226519, 24.347226], [93.0205809, 24.347769], [93.0195459, 24.347904], [93.0185109, 24.348311], [93.0174759, 24.349259], [93.0171809, 24.351156], [93.0168849, 24.352104], [93.0167369, 24.353053], [93.0173289, 24.354949], [93.0179209, 24.355898], [93.0182169, 24.356846], [93.0183649, 24.357794], [93.0180689, 24.358743], [93.0174779, 24.359691], [93.0171819, 24.360639], [93.0170339, 24.361588], [93.0170339, 24.363485], [93.0173309, 24.365381], [93.0182179, 24.367278], [93.0205849, 24.371071], [93.0211769, 24.372967], [93.0213249, 24.373916], [93.0207339, 24.374864], [93.0202243, 24.3751961], [93.0196989, 24.376084], [93.0195509, 24.377032], [93.0192549, 24.37798], [93.0189599, 24.379877], [93.0186639, 24.380825], [93.0185159, 24.381774], [93.0185159, 24.382722], [93.0183679, 24.383671], [93.0185169, 24.384619], [93.0205879, 24.385702], [93.0216229, 24.385567], [93.0226579, 24.385838], [93.0231019, 24.386786], [93.0242859, 24.388682], [93.0253219, 24.38936], [93.0254699, 24.390308], [93.0253219, 24.391256], [93.0248789, 24.392205], [93.0245829, 24.393153], [93.0235469, 24.393424], [93.0214769, 24.394508], [93.0204409, 24.395457], [93.0195539, 24.396405], [93.0189619, 24.397354], [93.015973, 24.4012858], [93.0145927, 24.4031015], [93.0133409, 24.404535], [93.0123059, 24.405754], [93.0109749, 24.406973], [93.0096429, 24.408057], [93.0084599, 24.409277], [93.0083119, 24.410496], [93.0081639, 24.411715], [93.0083119, 24.412935], [93.0089039, 24.414154], [93.0092883, 24.4144652], [93.0094959, 24.415373], [93.0102359, 24.416592], [93.0115669, 24.41727], [93.0128989, 24.41754], [93.0142309, 24.417269], [93.0146739, 24.41605], [93.0149699, 24.414831], [93.0154139, 24.413611], [93.0154139, 24.412392], [93.0154129, 24.411173], [93.0152649, 24.409953], [93.0163009, 24.408734], [93.0176319, 24.408327], [93.0189639, 24.408598], [93.0202949, 24.408734], [93.0216269, 24.408327], [93.0229579, 24.407649], [93.0242899, 24.407243], [93.0256209, 24.407513], [93.0269529, 24.40792], [93.0282849, 24.408868], [93.0296159, 24.409409], [93.0309479, 24.409545], [93.0322789, 24.409815], [93.0336109, 24.40995], [93.0349429, 24.410221], [93.0362739, 24.410356], [93.0376059, 24.411033], [93.0389379, 24.411846], [93.0402699, 24.412658], [93.0414539, 24.413877], [93.0421939, 24.415096], [93.0424899, 24.416316], [93.0427859, 24.417535], [93.0427869, 24.418754], [93.0432309, 24.419973], [93.0424919, 24.421193], [93.0411599, 24.421871], [93.0398289, 24.421871], [93.0384969, 24.421871], [93.0377579, 24.423091], [93.0364259, 24.42431], [93.0350949, 24.42553], [93.0337629, 24.426614], [93.0328759, 24.427834], [93.0325799, 24.429053], [93.0325809, 24.430272], [93.0328769, 24.431491], [93.0330249, 24.432711], [93.0333209, 24.43393], [93.0334699, 24.435149], [93.0339139, 24.436368], [93.0342099, 24.437588], [93.0346549, 24.438807], [93.0349509, 24.440026], [93.0353949, 24.441245], [93.0356919, 24.442464], [93.0359879, 24.443684], [93.0361359, 24.444903], [93.0362849, 24.446122], [93.0362849, 24.447341], [93.0362849, 24.448561], [93.0362859, 24.44978], [93.0362859, 24.450999], [93.0361379, 24.452219], [93.0359909, 24.453438], [93.0358429, 24.454657], [93.0356949, 24.455877], [93.0355479, 24.457096], [93.0353999, 24.458315], [93.0352519, 24.459535], [93.0354009, 24.460754], [93.0364369, 24.461973], [93.0377689, 24.46265], [93.0386513, 24.4626849], [93.0404329, 24.462243], [93.04212, 24.4617757], [93.0435163, 24.4621834], [93.0450844, 24.4632169], [93.0456149, 24.46468], [93.0460589, 24.465899], [93.0462079, 24.467118], [93.0462079, 24.468338], [93.0462079, 24.469557], [93.0460609, 24.470776], [93.0457649, 24.471995], [93.0456179, 24.473215], [93.0456179, 24.474434], [93.0454709, 24.475653], [93.0453229, 24.476873], [93.0448789, 24.478092], [93.0444359, 24.479312], [93.0443122, 24.4795667], [93.0438439, 24.480531], [93.0431039, 24.481751], [93.0422159, 24.48297], [93.0414769, 24.48419], [93.0404409, 24.485409], [93.0395529, 24.486629], [93.0386649, 24.487848], [93.0376289, 24.489068], [93.0364449, 24.490287], [93.0351129, 24.491507], [93.0337809, 24.492726], [93.0324489, 24.493946], [93.0314129, 24.495166], [93.0317089, 24.496385], [93.0325979, 24.497604], [93.0339309, 24.498552], [93.0352639, 24.499635], [93.0365959, 24.500448], [93.0379289, 24.501125], [93.03889, 24.5016434], [93.0405939, 24.50275], [93.0417167, 24.5036826], [93.0417703, 24.5038023], [93.0420537, 24.5044353], [93.0422046, 24.505227], [93.0422522, 24.5059342], [93.0420423, 24.5066413], [93.0407439, 24.507627], [93.0394119, 24.508305], [93.0380789, 24.508712], [93.0367469, 24.509389], [93.0365989, 24.510609], [93.0371919, 24.511828], [93.0385249, 24.512911], [93.0392659, 24.51413], [93.0403019, 24.515349], [93.0416349, 24.516568], [93.0429679, 24.51711], [93.0443009, 24.517651], [93.0456339, 24.518057], [93.0469669, 24.518328], [93.0482999, 24.518598], [93.0496319, 24.519004], [93.0499289, 24.520223], [93.0497809, 24.521443], [93.0500779, 24.522662], [93.0496339, 24.523881], [93.0491909, 24.525101], [93.0480059, 24.52632], [93.0466739, 24.52754], [93.0462299, 24.52876], [93.0466749, 24.529979], [93.0466749, 24.531198], [93.0471199, 24.532417], [93.0471209, 24.533636], [93.0472689, 24.534856], [93.0475659, 24.536075], [93.0478619, 24.537294], [93.0484549, 24.538513], [93.0488999, 24.539732], [93.0493449, 24.540951], [93.0496419, 24.54217], [93.0499379, 24.54339], [93.0500869, 24.544609], [93.0505319, 24.545828], [93.0509759, 24.547047], [93.0517169, 24.548266], [93.0529029, 24.549485], [93.0533479, 24.550704], [93.0539409, 24.551923], [93.0545339, 24.553142], [93.0555709, 24.554361], [93.0569039, 24.555173], [93.0582369, 24.555037], [93.0595699, 24.554631], [93.0607549, 24.553411], [93.0606059, 24.552192], [93.0606049, 24.550972], [93.0607529, 24.549753], [93.0608999, 24.548534], [93.0619369, 24.547314], [93.0632689, 24.546907], [93.0646019, 24.547042], [93.0653439, 24.548261], [93.0659369, 24.54948], [93.0662588, 24.5508576], [93.0667641, 24.5518021], [93.0671995, 24.552374], [93.0677154, 24.5530516], [93.0684828, 24.5542462], [93.0691634, 24.5555262], [93.0703638, 24.5579398], [93.0707118, 24.5589147], [93.0708031, 24.5597138], [93.0705339, 24.560451], [93.0696459, 24.561671], [93.0690539, 24.56289], [93.0677219, 24.56411], [93.0663889, 24.56533], [93.0650569, 24.566279], [93.0637239, 24.567092], [93.0623909, 24.568041], [93.0610589, 24.569261], [93.0598739, 24.570481], [93.0588379, 24.571701], [93.0580979, 24.57292], [93.0575059, 24.57414], [93.0582469, 24.575359], [93.0594329, 24.576577], [93.0607659, 24.577119], [93.0620989, 24.577118], [93.0634329, 24.577118], [93.0647659, 24.576711], [93.0660989, 24.576304], [93.0674319, 24.576168], [93.0687649, 24.575625], [93.0700979, 24.575489], [93.0714319, 24.575624], [93.0727649, 24.575623], [93.0740979, 24.575623], [93.0754319, 24.575622], [93.0767649, 24.575621], [93.0780979, 24.574943], [93.0792819, 24.573723], [93.0804659, 24.572503], [93.0809784, 24.57187], [93.0817989, 24.571419], [93.0831319, 24.570876], [93.0844649, 24.571417], [93.0857989, 24.571688], [93.0873296, 24.5720583], [93.088448, 24.5725814], [93.0892342, 24.5738914], [93.0898272, 24.5752202], [93.0903929, 24.5765002], [93.0909869, 24.5778899], [93.0918367, 24.5801206], [93.0923498, 24.5810103], [93.0932804, 24.5815129], [93.0946949, 24.5818777], [93.0960279, 24.581842], [93.0974414, 24.5815813], [93.0988146, 24.5814443], [93.1000681, 24.5812333], [93.1013676, 24.581087], [93.1026939, 24.58116], [93.103202, 24.5813353], [93.1036295, 24.5817057], [93.1040289, 24.582243], [93.1042198, 24.582663], [93.1044912, 24.5834489], [93.1045443, 24.5839261], [93.1044381, 24.5843871], [93.1043269, 24.584681], [93.1042121, 24.5848162], [93.1032909, 24.585901], [93.1021069, 24.587121], [93.1007739, 24.588206], [93.1002484, 24.5888209], [93.0994419, 24.589291], [93.0981089, 24.590104], [93.0971935, 24.5903842], [93.0967759, 24.590512], [93.0954429, 24.591055], [93.0941089, 24.591462], [93.0927759, 24.592005], [93.0914429, 24.592276], [93.0901099, 24.592684], [93.0887759, 24.592684], [93.0874429, 24.592414], [93.0861089, 24.592008], [93.0847749, 24.591603], [93.0834419, 24.591197], [93.0821079, 24.590791], [93.0807739, 24.590521], [93.0794409, 24.590386], [93.0782559, 24.591606], [93.0770719, 24.592826], [93.0752949, 24.595266], [93.0739619, 24.596486], [93.0726299, 24.597705], [93.0718889, 24.598925], [93.0707049, 24.600145], [93.0710019, 24.601364], [93.0712989, 24.602583], [93.0717439, 24.603802], [93.0730779, 24.604614], [93.0741159, 24.605833], [93.0750059, 24.607052], [93.0763399, 24.608271], [93.0776749, 24.609218], [93.0790089, 24.610437], [93.0803429, 24.61152], [93.0816769, 24.612332], [93.0830109, 24.612738], [93.0840499, 24.613956], [93.0843469, 24.615175], [93.0830129, 24.615854], [93.0816799, 24.616938], [93.0792585, 24.618442], [93.0766836, 24.6209389], [93.075997, 24.6248402], [93.0780569, 24.6274931], [93.0802885, 24.6282733], [93.0844084, 24.6279612], [93.08664, 24.627337], [93.0878228, 24.6316721], [93.0879837, 24.6331569], [93.0881849, 24.6363874], [93.0842367, 24.6451251], [93.0837217, 24.6493376], [93.0848219, 24.6514954], [93.0892149, 24.652302], [93.0950514, 24.652146], [93.095738, 24.6533941], [93.0969397, 24.6638466], [93.1000537, 24.6686779], [93.1031004, 24.6713994], [93.1042048, 24.6738156], [93.1043878, 24.6754334], [93.1036864, 24.677921], [93.1032113, 24.6796061], [93.1024328, 24.6803816], [93.1010876, 24.6804065], [93.0986563, 24.6797577], [93.0943647, 24.6780419], [93.0921629, 24.6769936], [93.0908111, 24.6769546], [93.0897884, 24.6774811], [93.0893501, 24.6783534], [93.0895797, 24.6792827], [93.0908737, 24.6805344], [93.0919615, 24.6836571], [93.0915119, 24.6871222], [93.0868116, 24.6933273], [93.0827105, 24.6985227], [93.0823034, 24.6995124], [93.0821171, 24.7000612], [93.0817294, 24.7012036], [93.0806797, 24.7021633], [93.0783127, 24.7043208], [93.0746689, 24.7054814], [93.0735937, 24.7068954], [93.0732288, 24.7079084], [93.0739802, 24.7099371], [93.0753368, 24.7115676], [93.0768603, 24.7126862]]}}, {"type": "Feature", "properties": {"name": "Barak River", "flow_order": 0}, "geometry": {"type": "LineString", "coordinates": [[93.0768603, 24.7126862], [93.079344, 24.7145253], [93.0815146, 24.7173692], [93.0820155, 24.7185067], [93.0818276, 24.7203077], [93.0801788, 24.7226206], [93.0775164, 24.7246911], [93.0727098, 24.7271859], [93.0705991, 24.7275496], [93.069105, 24.72703], [93.0663832, 24.7257487], [93.0651309, 24.725161], [93.0636282, 24.7252179], [93.0578052, 24.7257487], [93.0522821, 24.7271859], [93.0461023, 24.728901], [93.0439678, 24.730469], [93.0424974, 24.7327989], [93.0417828, 24.7346859], [93.0417458, 24.7349006], [93.041687, 24.7353403], [93.0417972, 24.736971], [93.0418048, 24.7372258], [93.0419244, 24.7412522], [93.0419137, 24.7463677], [93.0407765, 24.74856], [93.0366566, 24.7532757], [93.0343713, 24.7558674], [93.0329766, 24.7615473], [93.0319252, 24.7675193], [93.0323675, 24.7725987]]}}, {"type": "Feature", "properties": {"name": "Surma branch river", "flow_order": 1}, "geometry": {"type": "LineString", "coordinates": [[91.3668513, 24.8262989], [91.3657934, 24.8264425], [91.3642587, 24.8279009], [91.3611322, 24.8294851], [91.3592564, 24.8304901], [91.3584096, 24.8310694], [91.3568855, 24.8322634], [91.3557, 24.8332684], [91.3548898, 24.8337783], [91.3540401, 24.8339573], [91.3531538, 24.8339795], [91.3519701, 24.8336978], [91.3511042, 24.8332757], [91.3504371, 24.83276], [91.3492387, 24.8312822], [91.3474931, 24.8284684], [91.3459298, 24.8259501], [91.3451482, 24.8257491], [91.344549, 24.826092], [91.3437022, 24.8266831], [91.3420608, 24.8273216], [91.3396547, 24.8284302], [91.3367864, 24.8298905], [91.3347006, 24.8312349], [91.3335593, 24.8320173], [91.3323428, 24.8326536], [91.3318072, 24.8326995], [91.3313788, 24.8325117], [91.3308577, 24.8319797], [91.3307355, 24.8312533], [91.3304953, 24.8305854], [91.3291627, 24.82804], [91.3280309, 24.8262339], [91.3272102, 24.8239875], [91.3265979, 24.8212917], [91.3260899, 24.8188324], [91.325647, 24.8156636], [91.3254696, 24.8144109], [91.3251313, 24.8131095], [91.3247546, 24.8124113], [91.3243137, 24.8119077], [91.3239029, 24.8117248], [91.3234224, 24.8117317], [91.3230389, 24.811956], [91.3228002, 24.8122924], [91.3223642, 24.8132633], [91.3218048, 24.8142885], [91.321155, 24.8149528], [91.3204837, 24.8153736], [91.3192484, 24.8155718], [91.3163979, 24.816042], [91.3144898, 24.8162668], [91.3130935, 24.8164449], [91.3112609, 24.8168224], [91.3099446, 24.8171407], [91.3081067, 24.8174024], [91.306504, 24.8173547], [91.3051319, 24.8172668], [91.3044723, 24.8170844], [91.3038325, 24.8168483], [91.3025893, 24.8159947], [91.3024341, 24.815893], [91.2993989, 24.8135808], [91.2981045, 24.8126739], [91.2964948, 24.8114195], [91.2956843, 24.8104013], [91.2947065, 24.8090184], [91.293092, 24.8066583], [91.2929751, 24.8063315], [91.2929174, 24.8059958], [91.2929269, 24.8052258], [91.2932675, 24.8046732], [91.2937506, 24.8041944], [91.2958287, 24.8030168], [91.2967507, 24.8020547], [91.2969438, 24.8015431], [91.2970189, 24.8009634], [91.2970103, 24.8001345], [91.2966858, 24.7991317], [91.2962801, 24.7985356], [91.2957728, 24.7981608], [91.2930958, 24.7968224], [91.2914922, 24.7955544], [91.2910266, 24.7949791], [91.2908649, 24.7942875], [91.2907647, 24.7925875], [91.290467, 24.7909996], [91.2900555, 24.7887593], [91.2896128, 24.7873399], [91.2892506, 24.7862422], [91.288265, 24.7846759], [91.2872592, 24.7829771], [91.2863499, 24.7812394], [91.2859873, 24.7803239], [91.2859049, 24.7801159], [91.2857171, 24.7776451], [91.2855857, 24.7770408], [91.2852081, 24.7765774], [91.2847589, 24.7762739], [91.2836641, 24.7758325], [91.2819967, 24.7754511], [91.2805741, 24.7754041], [91.27895, 24.7756194], [91.2770311, 24.7760562], [91.2732861, 24.7773202], [91.2715805, 24.7781977], [91.2694039, 24.7790056], [91.2673158, 24.7794247], [91.2654332, 24.779416], [91.2641862, 24.779318], [91.2630916, 24.7789955], [91.2627204, 24.778832], [91.261214, 24.7778934], [91.260839, 24.7773661], [91.2608061, 24.7769562], [91.2608695, 24.7762453], [91.2611717, 24.7752333], [91.2617267, 24.7744145], [91.2622686, 24.773946], [91.2629858, 24.7736193], [91.2651455, 24.7730909], [91.2684046, 24.7726681], [91.2753106, 24.7724685], [91.2762516, 24.7723769], [91.2775689, 24.7720747], [91.2781842, 24.7717615], [91.2783701, 24.7712847], [91.278324, 24.7708979], [91.2782272, 24.7706214], [91.277716, 24.7698969], [91.2764874, 24.768887], [91.2744829, 24.7672665], [91.273051, 24.7659434], [91.2724643, 24.7654576], [91.27081, 24.7644716], [91.2695944, 24.7640371], [91.2676933, 24.7634617], [91.2645377, 24.7628627], [91.2625301, 24.7625891], [91.2616939, 24.7624277], [91.2610099, 24.7621034], [91.2608747, 24.761503], [91.2610251, 24.7611827], [91.2613794, 24.7608254], [91.262148, 24.7602109], [91.2627938, 24.7597462], [91.2634928, 24.7589436], [91.2641395, 24.7578819], [91.2642614, 24.7569002], [91.264166, 24.7559445], [91.2637991, 24.7548983], [91.2633295, 24.7535633], [91.2627745, 24.7520016], [91.2622581, 24.7501532], [91.2617606, 24.748609], [91.2614446, 24.7480212], [91.2609777, 24.7475043], [91.260679, 24.7472431], [91.2597173, 24.7468455], [91.2586768, 24.7468898], [91.2581793, 24.7471827], [91.2577646, 24.7476473], [91.2572573, 24.7484122], [91.2564487, 24.7500345], [91.2558208, 24.7519142], [91.2556275, 24.7538662], [91.2554474, 24.7560786], [91.2555593, 24.7573659], [91.2560868, 24.7590491], [91.2565807, 24.7601702], [91.2571616, 24.7615479], [91.2574328, 24.7626128], [91.2574075, 24.7635862], [91.2568488, 24.7642845], [91.256058, 24.7646802], [91.2551582, 24.7646711], [91.2543134, 24.7644681], [91.25306, 24.7639442], [91.2521699, 24.7633449], [91.2515366, 24.7626778], [91.2507094, 24.7616145], [91.2491552, 24.7600081], [91.2457076, 24.7566865], [91.243522, 24.7554159], [91.2431453, 24.7551906], [91.2408152, 24.7537966], [91.2370567, 24.750973], [91.2358157, 24.7498684], [91.2344165, 24.7487377], [91.2327404, 24.7477923], [91.2300844, 24.7456645], [91.2295468, 24.7447733], [91.2294951, 24.7441948], [91.2296673, 24.743608], [91.229934, 24.7432114], [91.231662, 24.7416294], [91.2325437, 24.7406773], [91.2325825, 24.740031], [91.2323563, 24.7396117], [91.2318716, 24.7393459], [91.2308566, 24.7390502], [91.2290061, 24.7389396], [91.2273302, 24.7391671], [91.2260619, 24.7392191], [91.2250588, 24.7391217], [91.2234465, 24.7386645], [91.2219039, 24.7381001], [91.2208104, 24.7372779], [91.2201992, 24.7366048], [91.2198509, 24.7355554], [91.2196788, 24.7341638], [91.2192888, 24.7326493], [91.219049, 24.731086], [91.2191385, 24.7294771], [91.2192589, 24.7284219], [91.2194436, 24.7274057], [91.219742, 24.7268272], [91.2199741, 24.7267016], [91.2203924, 24.7267126], [91.2225581, 24.7273718], [91.223474, 24.7276079], [91.2248186, 24.7275823], [91.2261615, 24.7272979], [91.2285361, 24.7261075], [91.2293066, 24.7249061], [91.2296817, 24.724166], [91.2296429, 24.7232967], [91.2292937, 24.7218871], [91.2283496, 24.7206183], [91.2279746, 24.7194788], [91.2272646, 24.7153869], [91.2270662, 24.7140417], [91.2272558, 24.7111376], [91.2272148, 24.7079972], [91.2269523, 24.7062126], [91.2264116, 24.7051188], [91.2258019, 24.7045938], [91.2251323, 24.7043277], [91.2240689, 24.7039829], [91.2226722, 24.7033014], [91.2217411, 24.7025377], [91.2212367, 24.7014216], [91.2212238, 24.7010338], [91.2213402, 24.7002231], [91.2217411, 24.6998002], [91.2230089, 24.6992299], [91.2239037, 24.698722], [91.2248099, 24.6981148], [91.2257156, 24.6970773], [91.2262534, 24.6957614], [91.2262847, 24.6950593], [91.2258278, 24.6942073], [91.2252587, 24.6936668], [91.2243793, 24.6931381], [91.2214178, 24.6919396], [91.2148523, 24.6889984], [91.2125661, 24.6882173], [91.2115236, 24.6880678], [91.210792, 24.6883835], [91.2102799, 24.6889818], [91.2103468, 24.6897972], [91.2107043, 24.6917121], [91.2103464, 24.6924657], [91.2095849, 24.6928037], [91.208707, 24.6928702], [91.2079389, 24.692488], [91.2076645, 24.6919563], [91.2074966, 24.6908115], [91.2067866, 24.6896963], [91.2062745, 24.6890815], [91.2053418, 24.6884168], [91.2019399, 24.6865556], [91.1978431, 24.6841792], [91.1961788, 24.6828497], [91.1952826, 24.6819523], [91.1943132, 24.6803902], [91.1938011, 24.6798251], [91.1928796, 24.6793738], [91.1916613, 24.6794429], [91.1907891, 24.67991], [91.1902329, 24.6805406], [91.1899351, 24.6816647], [91.1904354, 24.6849496], [91.1905815, 24.6861418], [91.1906606, 24.6881669], [91.1903464, 24.6893543], [91.189656, 24.6901468], [91.188809, 24.6903458], [91.1872535, 24.690145], [91.1853514, 24.689796], [91.1818851, 24.6887455], [91.1784894, 24.6875487], [91.1750727, 24.6859407], [91.1724939, 24.6843121], [91.1710308, 24.6826669], [91.1706136, 24.6820079], [91.1686531, 24.6789111], [91.1670254, 24.6761025], [91.1660377, 24.6725293], [91.1660743, 24.6711166], [91.1661292, 24.6705349], [91.1666047, 24.669787], [91.1669522, 24.6696041], [91.1673911, 24.6696374], [91.1685205, 24.6701847], [91.1704638, 24.6729614], [91.1762615, 24.6799913], [91.177176, 24.6807392], [91.1779807, 24.6809884], [91.1787855, 24.6808887], [91.1795171, 24.6806894], [91.1802607, 24.6779557], [91.1807973, 24.6770498], [91.1821325, 24.6751718], [91.1827543, 24.673809], [91.1829738, 24.6720639], [91.1827909, 24.6707177], [91.182169, 24.6694047], [91.1814923, 24.6680418], [91.181218, 24.6670114], [91.1811265, 24.6659643], [91.1812546, 24.6648341], [91.1815106, 24.6643354], [91.1821507, 24.6642025], [91.1831932, 24.6644185], [91.1843272, 24.6657316], [91.1865768, 24.6670446], [91.1886801, 24.6674103], [91.189942, 24.667161], [91.1905273, 24.6666291], [91.1910211, 24.665715], [91.1909663, 24.6645848], [91.1913503, 24.6621581], [91.1917344, 24.6589502], [91.1916613, 24.6558918], [91.1912986, 24.6549275], [91.190652, 24.6545397], [91.1902511, 24.6546102], [91.1895398, 24.6548805], [91.1885052, 24.6559736], [91.1868239, 24.6579482], [91.185841, 24.6584536], [91.1848711, 24.6584418], [91.1840693, 24.6578659], [91.1838236, 24.6572547], [91.1838236, 24.6567493], [91.1841727, 24.6560324], [91.1850522, 24.6552331], [91.1866687, 24.6542223], [91.1922944, 24.6518716], [91.1941597, 24.6501239], [91.1954012, 24.6481962], [91.1962795, 24.6467774], [91.1963336, 24.6459176], [91.1961132, 24.6449946], [91.1953489, 24.6440079], [91.1946569, 24.6432993], [91.1941261, 24.6426976], [91.1937454, 24.641934], [91.19344, 24.6409291], [91.193281, 24.6399423], [91.1931776, 24.6383843]]}}, {"type": "Feature", "properties": {"name": "Slope rive of Surma", "flow_order": 1}, "geometry": {"type": "LineString", "coordinates": [[91.2449911, 24.7434527], [91.2445297, 24.7426585], [91.2443768, 24.7424247], [91.2442991, 24.7423151], [91.244291, 24.7422225], [91.2443366, 24.7421446], [91.2443554, 24.7420081], [91.2443286, 24.7418595], [91.2442669, 24.7417767], [91.244173, 24.7416744], [91.2441006, 24.7415648], [91.2440201, 24.741404], [91.2439691, 24.7412652], [91.2439906, 24.7411068], [91.2440595, 24.7409826], [91.2443009, 24.7408072], [91.2444752, 24.7404686], [91.2447757, 24.7399449]]}}, {"type": "Feature", "properties": {"name": "Kalni river is Surma branch", "flow_order": 1}, "geometry": {"type": "LineString", "coordinates": [[91.2598872, 24.7420569], [91.2594044, 24.7416769], [91.2585997, 24.7414722], [91.257956, 24.741404], [91.2574196, 24.7409753], [91.2569797, 24.7406342], [91.2559283, 24.7399132], [91.2546193, 24.7395527], [91.2534284, 24.739426], [91.2526452, 24.7394503], [91.2522483, 24.739309], [91.251272, 24.7392798], [91.2506658, 24.7390995], [91.2503788, 24.7390386], [91.2501937, 24.7389339], [91.2501588, 24.7387999], [91.2501562, 24.7386367], [91.2501884, 24.7382567], [91.2502635, 24.7379449], [91.2503976, 24.7377743], [91.2505746, 24.7376428], [91.2509608, 24.7375381], [91.2514328, 24.7376282], [91.2516179, 24.7376696], [91.2519639, 24.7376574], [91.252208, 24.7375234], [91.2523073, 24.7373261], [91.2525165, 24.7366343], [91.2527579, 24.7362347], [91.2528437, 24.7359424], [91.2527257, 24.7357377], [91.2523233, 24.7352847], [91.2520847, 24.7350021], [91.2519104, 24.7347097], [91.2518467, 24.7345154], [91.2517186, 24.7343699], [91.251398, 24.7341957], [91.2512237, 24.7339058], [91.251033, 24.7334515], [91.2508413, 24.7331646], [91.2506282, 24.7329557], [91.2503171, 24.7327779], [91.250022, 24.7326731], [91.2496626, 24.7325391], [91.2494534, 24.732142], [91.2493381, 24.731952], [91.2491798, 24.7318691], [91.2487775, 24.7318692], [91.2484288, 24.7318107], [91.2482571, 24.7315842], [91.2482357, 24.7311773], [91.248225, 24.7282538], [91.2485227, 24.7283099], [91.2487024, 24.7284487]]}}, {"type": "Feature", "properties": {"name": "Surma river", "flow_order": 1}, "geometry": {"type": "LineString", "coordinates": [[91.1931776, 24.6383843], [91.1931685, 24.6369471], [91.1932206, 24.6354948], [91.1934078, 24.6342754], [91.1939065, 24.6329145], [91.194499, 24.6315737], [91.1952917, 24.6302885], [91.1958348, 24.6293162], [91.1961833, 24.628632], [91.1963772, 24.6280597], [91.1963974, 24.627558], [91.1963509, 24.6270867], [91.19613, 24.6265716], [91.195757, 24.6260985], [91.1953809, 24.6258354], [91.19492, 24.6257256], [91.1944226, 24.6257595], [91.1937013, 24.6259597], [91.1922556, 24.6268382], [91.1870813, 24.6297756], [91.1831331, 24.631336], [91.1817169, 24.6318309], [91.180475, 24.6321601], [91.1794947, 24.6323015], [91.1787792, 24.6323161], [91.1782381, 24.6322723], [91.1776822, 24.6321418], [91.1774418, 24.6318742], [91.1773135, 24.6315844], [91.1773165, 24.6312786], [91.1774535, 24.6309605], [91.177833, 24.6304729], [91.1791634, 24.6293684], [91.1795845, 24.6289649], [91.1799775, 24.6284608], [91.1802282, 24.6280542], [91.180467, 24.6275446], [91.1806038, 24.6270789], [91.1806324, 24.6263607], [91.1805229, 24.6255778], [91.1803009, 24.6248231], [91.1799665, 24.6242842], [91.1792747, 24.6232622], [91.1784519, 24.6223854], [91.1774833, 24.6215888], [91.1761718, 24.6206302], [91.1745777, 24.6194326], [91.1731018, 24.618248], [91.1719285, 24.6171421], [91.1708316, 24.6160575], [91.1698889, 24.6149096], [91.1691694, 24.6139007], [91.1685612, 24.612779], [91.1681518, 24.6115608], [91.1680682, 24.6108558], [91.1681086, 24.6102005], [91.168368, 24.6093278], [91.1687947, 24.6084996], [91.1691809, 24.6076924], [91.1692797, 24.6067515], [91.1689361, 24.6063776], [91.1678907, 24.6065402], [91.1670565, 24.6067938], [91.1652649, 24.6067625], [91.1645783, 24.6068015], [91.1638058, 24.60686], [91.162926, 24.6070551], [91.1621107, 24.6071917], [91.1610592, 24.6075233], [91.1603726, 24.6078745], [91.1594499, 24.6083622], [91.1589535, 24.6081786], [91.1580952, 24.6081591], [91.1563357, 24.607847], [91.1551984, 24.6071642], [91.1539968, 24.6060912], [91.1534604, 24.6059156], [91.1529883, 24.6061302], [91.1521729, 24.6070276], [91.1510142, 24.6084322], [91.1491688, 24.609115], [91.1474308, 24.6090955], [91.1456712, 24.6086273], [91.1444911, 24.6075738], [91.1443623, 24.6065984], [91.1448988, 24.6052523], [91.1453279, 24.6040427], [91.145049, 24.6033013], [91.144019, 24.6028721], [91.1427959, 24.6028721], [91.1412724, 24.603633], [91.139985, 24.6035159], [91.1384342, 24.6030282], [91.1364601, 24.6020722], [91.1349795, 24.6017405], [91.1342285, 24.6019356], [91.1330054, 24.6032233], [91.1319969, 24.6033794], [91.1298512, 24.6032623], [91.1249159, 24.6009406], [91.1234353, 24.6005114], [91.1229903, 24.6009416]]}}, {"type": "Feature", "properties": {"name": "Barak River", "flow_order": 0}, "geometry": {"type": "LineString", "coordinates": [[93.0323675, 24.7725987], [93.0328896, 24.7785922], [93.0322899, 24.7808261], [93.0321636, 24.7810474], [93.0311515, 24.7828198], [93.0288662, 24.7851478], [93.0256905, 24.787018], [93.0233945, 24.7878946]]}}, {"type": "Feature", "properties": {"name": "Barak River", "flow_order": 0}, "geometry": {"type": "LineString", "coordinates": [[93.2956028, 24.7052721], [93.2954679, 24.7049427], [93.2953298, 24.7047661], [93.295256, 24.7045541], [93.2951099, 24.7042337], [93.2947571, 24.7039468]]}}]}